{
  "type": "FeatureCollection",
  "generator": "overpass-turbo",
  "copyright": "The data included in this document is from www.openstreetmap.org. The data is made available under ODbL.",
  "timestamp": "2025-07-15T05:06:54Z",
  "features": [
    {
      "type": "Feature",
      "properties": {
        "@id": "relation/17857397",
        "admin_level": "7",
        "boundary": "administrative",
        "is_in:city": "Kota Padang Panjang",
        "is_in:district": "Padang Panjang Timur",
        "is_in:province": "Sumatera Barat",
        "name": "Ekor Lubuk",
        "official_name": "Kelurahan Ekor Lubuk",
        "place": "subdistrict",
        "type": "boundary"
      },
      "geometry": {
        "type": "Polygon",
        "coordinates": [
          [
            [
              100.4360167,
              -0.4717641
            ],
            [
              100.4356089,
              -0.4718194
            ],
            [
              100.4348654,
              -0.471992
            ],
            [
              100.4342385,
              -0.4721297
            ],
            [
              100.4335432,
              -0.4722286
            ],
            [
              100.4330738,
              -0.4722885
            ],
            [
              100.43263,
              -0.4723435
            ],
            [
              100.4322042,
              -0.4723981
            ],
            [
              100.432166,
              -0.472403
            ],
            [
              100.4320234,
              -0.4724279
            ],
            [
              100.431664,
              -0.4724816
            ],
            [
              100.4316697,
              -0.4724414
            ],
            [
              100.4316621,
              -0.4724165
            ],
            [
              100.4316696,
              -0.4723514
            ],
            [
              100.4316977,
              -0.47226
            ],
            [
              100.4317034,
              -0.4722169
            ],
            [
              100.4317105,
              -0.4721264
            ],
            [
              100.4316748,
              -0.4721264
            ],
            [
              100.4316634,
              -0.4718824
            ],
            [
              100.4304658,
              -0.471944
            ],
            [
              100.4285214,
              -0.4720353
            ],
            [
              100.4280745,
              -0.4720641
            ],
            [
              100.4277845,
              -0.4721264
            ],
            [
              100.4275801,
              -0.4721743
            ],
            [
              100.4273115,
              -0.4722797
            ],
            [
              100.4270144,
              -0.4724448
            ],
            [
              100.426772,
              -0.4725885
            ],
            [
              100.4265675,
              -0.4726986
            ],
            [
              100.4264131,
              -0.4727776
            ],
            [
              100.4264012,
              -0.4727345
            ],
            [
              100.4264107,
              -0.4726915
            ],
            [
              100.4264154,
              -0.4726508
            ],
            [
              100.4264106,
              -0.4726173
            ],
            [
              100.426394,
              -0.4725718
            ],
            [
              100.4263655,
              -0.4725335
            ],
            [
              100.4263441,
              -0.4725024
            ],
            [
              100.4263132,
              -0.4724905
            ],
            [
              100.4262727,
              -0.4724905
            ],
            [
              100.4262371,
              -0.4724905
            ],
            [
              100.4261967,
              -0.4724833
            ],
            [
              100.4261542,
              -0.4724597
            ],
            [
              100.4261394,
              -0.4724268
            ],
            [
              100.4261097,
              -0.472376
            ],
            [
              100.426077,
              -0.4723251
            ],
            [
              100.4260443,
              -0.4722952
            ],
            [
              100.4259997,
              -0.4722534
            ],
            [
              100.425967,
              -0.4722175
            ],
            [
              100.4259432,
              -0.4721666
            ],
            [
              100.4259313,
              -0.4721337
            ],
            [
              100.4259165,
              -0.4720889
            ],
            [
              100.4259016,
              -0.472047
            ],
            [
              100.4258986,
              -0.4719932
            ],
            [
              100.4259045,
              -0.4719483
            ],
            [
              100.4259013,
              -0.471907
            ],
            [
              100.4258614,
              -0.4718745
            ],
            [
              100.4257796,
              -0.4718132
            ],
            [
              100.4257397,
              -0.4717788
            ],
            [
              100.4257111,
              -0.4717367
            ],
            [
              100.4257068,
              -0.4717254
            ],
            [
              100.4256959,
              -0.4716965
            ],
            [
              100.4256959,
              -0.4716601
            ],
            [
              100.4257168,
              -0.4716352
            ],
            [
              100.4257491,
              -0.4716065
            ],
            [
              100.425751,
              -0.4715739
            ],
            [
              100.4257358,
              -0.4715433
            ],
            [
              100.4256521,
              -0.4714342
            ],
            [
              100.4255285,
              -0.4715414
            ],
            [
              100.4253999,
              -0.471697
            ],
            [
              100.4252942,
              -0.4717571
            ],
            [
              100.4251991,
              -0.4718337
            ],
            [
              100.4250137,
              -0.4719534
            ],
            [
              100.4248664,
              -0.4719869
            ],
            [
              100.4247475,
              -0.4719822
            ],
            [
              100.4246381,
              -0.4719487
            ],
            [
              100.4244527,
              -0.4718578
            ],
            [
              100.4241627,
              -0.4717047
            ],
            [
              100.4236858,
              -0.4715384
            ],
            [
              100.423102,
              -0.4714827
            ],
            [
              100.4230351,
              -0.471466
            ],
            [
              100.4229956,
              -0.4714561
            ],
            [
              100.4229327,
              -0.4715417
            ],
            [
              100.4227987,
              -0.4716437
            ],
            [
              100.4227321,
              -0.4716954
            ],
            [
              100.4226542,
              -0.4717184
            ],
            [
              100.4225097,
              -0.4717357
            ],
            [
              100.422483,
              -0.4717318
            ],
            [
              100.4224165,
              -0.4716859
            ],
            [
              100.4223746,
              -0.4716687
            ],
            [
              100.4222947,
              -0.4716266
            ],
            [
              100.4222586,
              -0.4716936
            ],
            [
              100.4222358,
              -0.4717606
            ],
            [
              100.4222339,
              -0.4718123
            ],
            [
              100.4222225,
              -0.4718831
            ],
            [
              100.4222111,
              -0.471931
            ],
            [
              100.4221883,
              -0.4719655
            ],
            [
              100.4221636,
              -0.4720152
            ],
            [
              100.4221541,
              -0.4720439
            ],
            [
              100.422137,
              -0.4720746
            ],
            [
              100.4221161,
              -0.4720746
            ],
            [
              100.4220819,
              -0.4720861
            ],
            [
              100.4220723,
              -0.4721071
            ],
            [
              100.4220781,
              -0.4721397
            ],
            [
              100.4220876,
              -0.4721914
            ],
            [
              100.4220439,
              -0.4722737
            ],
            [
              100.4219697,
              -0.4723503
            ],
            [
              100.4219013,
              -0.4723829
            ],
            [
              100.4218328,
              -0.4723905
            ],
            [
              100.4218366,
              -0.4723618
            ],
            [
              100.421829,
              -0.4723408
            ],
            [
              100.4217986,
              -0.472335
            ],
            [
              100.42177,
              -0.4723388
            ],
            [
              100.4217396,
              -0.4723408
            ],
            [
              100.4217187,
              -0.4723389
            ],
            [
              100.4216959,
              -0.4723255
            ],
            [
              100.421673,
              -0.4723102
            ],
            [
              100.4216483,
              -0.4723063
            ],
            [
              100.4215948,
              -0.4723257
            ],
            [
              100.4215324,
              -0.4723317
            ],
            [
              100.4214879,
              -0.4723407
            ],
            [
              100.4214552,
              -0.4723796
            ],
            [
              100.4214077,
              -0.4724394
            ],
            [
              100.421355,
              -0.4724787
            ],
            [
              100.4213104,
              -0.4725296
            ],
            [
              100.4212658,
              -0.4725774
            ],
            [
              100.4212629,
              -0.4726133
            ],
            [
              100.4212837,
              -0.4726642
            ],
            [
              100.4213253,
              -0.472706
            ],
            [
              100.421361,
              -0.4727419
            ],
            [
              100.4213936,
              -0.4727629
            ],
            [
              100.4214115,
              -0.4727868
            ],
            [
              100.4214115,
              -0.4728221
            ],
            [
              100.4213972,
              -0.4728472
            ],
            [
              100.4214353,
              -0.472846
            ],
            [
              100.4214566,
              -0.4728257
            ],
            [
              100.421503,
              -0.4728089
            ],
            [
              100.4215532,
              -0.4728084
            ],
            [
              100.4216135,
              -0.4728197
            ],
            [
              100.4215577,
              -0.473102
            ],
            [
              100.4215387,
              -0.473169
            ],
            [
              100.4215072,
              -0.4731583
            ],
            [
              100.4214096,
              -0.4731425
            ],
            [
              100.4212537,
              -0.4731119
            ],
            [
              100.4210103,
              -0.4730794
            ],
            [
              100.4209476,
              -0.4733513
            ],
            [
              100.4208806,
              -0.4733642
            ],
            [
              100.4208677,
              -0.473437
            ],
            [
              100.4209367,
              -0.4734513
            ],
            [
              100.421008,
              -0.4734824
            ],
            [
              100.4210603,
              -0.4735207
            ],
            [
              100.4211102,
              -0.4735518
            ],
            [
              100.4211554,
              -0.4736068
            ],
            [
              100.4212029,
              -0.4736618
            ],
            [
              100.421241,
              -0.4737025
            ],
            [
              100.4212719,
              -0.4737336
            ],
            [
              100.4213076,
              -0.4737623
            ],
            [
              100.4213646,
              -0.4737934
            ],
            [
              100.4213979,
              -0.4738221
            ],
            [
              100.421386,
              -0.4738628
            ],
            [
              100.4213528,
              -0.4739131
            ],
            [
              100.4213456,
              -0.473949
            ],
            [
              100.4214099,
              -0.4741715
            ],
            [
              100.4214598,
              -0.474284
            ],
            [
              100.4214907,
              -0.4743917
            ],
            [
              100.4214991,
              -0.4744407
            ],
            [
              100.421688,
              -0.474412
            ],
            [
              100.4217665,
              -0.4744119
            ],
            [
              100.4218164,
              -0.474534
            ],
            [
              100.4218985,
              -0.4747386
            ],
            [
              100.4219555,
              -0.4748965
            ],
            [
              100.4219805,
              -0.4749396
            ],
            [
              100.4219877,
              -0.4750652
            ],
            [
              100.4220073,
              -0.4751798
            ],
            [
              100.4220273,
              -0.4752395
            ],
            [
              100.4220693,
              -0.4753345
            ],
            [
              100.4220976,
              -0.4754051
            ],
            [
              100.4221482,
              -0.4755314
            ],
            [
              100.4221923,
              -0.4756648
            ],
            [
              100.4222695,
              -0.475801
            ],
            [
              100.4223801,
              -0.4759481
            ],
            [
              100.4224514,
              -0.476002
            ],
            [
              100.4224871,
              -0.4760486
            ],
            [
              100.4225192,
              -0.4761025
            ],
            [
              100.4225227,
              -0.4761491
            ],
            [
              100.4225263,
              -0.4762137
            ],
            [
              100.4225442,
              -0.4763035
            ],
            [
              100.4225549,
              -0.4763322
            ],
            [
              100.4225907,
              -0.4763724
            ],
            [
              100.4226678,
              -0.476503
            ],
            [
              100.4226353,
              -0.4765389
            ],
            [
              100.4226721,
              -0.4766251
            ],
            [
              100.4226935,
              -0.4766925
            ],
            [
              100.4227035,
              -0.4767184
            ],
            [
              100.4226814,
              -0.4767576
            ],
            [
              100.4226764,
              -0.4767974
            ],
            [
              100.4226878,
              -0.4768519
            ],
            [
              100.4227106,
              -0.4768907
            ],
            [
              100.422732,
              -0.4768979
            ],
            [
              100.4227691,
              -0.4769122
            ],
            [
              100.4228076,
              -0.4769165
            ],
            [
              100.4228704,
              -0.4769036
            ],
            [
              100.4229189,
              -0.4769165
            ],
            [
              100.4229246,
              -0.4769366
            ],
            [
              100.4229203,
              -0.476971
            ],
            [
              100.4229346,
              -0.4770055
            ],
            [
              100.422946,
              -0.4770285
            ],
            [
              100.4229588,
              -0.4770629
            ],
            [
              100.4229617,
              -0.4770802
            ],
            [
              100.4229603,
              -0.4770988
            ],
            [
              100.4229517,
              -0.4771218
            ],
            [
              100.4229474,
              -0.4771419
            ],
            [
              100.422946,
              -0.4771692
            ],
            [
              100.4229503,
              -0.477208
            ],
            [
              100.4229703,
              -0.4772611
            ],
            [
              100.4229817,
              -0.477284
            ],
            [
              100.4229888,
              -0.4773286
            ],
            [
              100.4229931,
              -0.4773558
            ],
            [
              100.4229874,
              -0.4773917
            ],
            [
              100.4229732,
              -0.4774305
            ],
            [
              100.4229632,
              -0.4774678
            ],
            [
              100.4229489,
              -0.4775037
            ],
            [
              100.4229361,
              -0.4775339
            ],
            [
              100.4229318,
              -0.4775569
            ],
            [
              100.4229261,
              -0.4775956
            ],
            [
              100.4229162,
              -0.477643
            ],
            [
              100.4229162,
              -0.4776803
            ],
            [
              100.4229276,
              -0.4777306
            ],
            [
              100.4229547,
              -0.4777938
            ],
            [
              100.4229704,
              -0.4778411
            ],
            [
              100.422979,
              -0.477867
            ],
            [
              100.4229975,
              -0.4779172
            ],
            [
              100.4230032,
              -0.4779459
            ],
            [
              100.4230047,
              -0.4779818
            ],
            [
              100.4230161,
              -0.4780106
            ],
            [
              100.4230218,
              -0.4780264
            ],
            [
              100.4230246,
              -0.4780407
            ],
            [
              100.4230432,
              -0.4780479
            ],
            [
              100.423123,
              -0.4780436
            ],
            [
              100.423133,
              -0.4780579
            ],
            [
              100.4231444,
              -0.4780809
            ],
            [
              100.4231516,
              -0.4780996
            ],
            [
              100.4231601,
              -0.4781211
            ],
            [
              100.4231659,
              -0.4781412
            ],
            [
              100.4231659,
              -0.478157
            ],
            [
              100.4231673,
              -0.4781886
            ],
            [
              100.423173,
              -0.4782015
            ],
            [
              100.4232015,
              -0.4782087
            ],
            [
              100.4232201,
              -0.4782087
            ],
            [
              100.4232472,
              -0.4782201
            ],
            [
              100.4232557,
              -0.4782374
            ],
            [
              100.4232843,
              -0.4782804
            ],
            [
              100.4233085,
              -0.4783163
            ],
            [
              100.4233527,
              -0.4783824
            ],
            [
              100.4233684,
              -0.4784183
            ],
            [
              100.423377,
              -0.4784513
            ],
            [
              100.4233827,
              -0.4784771
            ],
            [
              100.4233941,
              -0.4785058
            ],
            [
              100.4234155,
              -0.478536
            ],
            [
              100.4234269,
              -0.4785561
            ],
            [
              100.4234498,
              -0.4786063
            ],
            [
              100.423484,
              -0.4787011
            ],
            [
              100.4234969,
              -0.4787973
            ],
            [
              100.4234955,
              -0.4788719
            ],
            [
              100.4234841,
              -0.4789078
            ],
            [
              100.4234655,
              -0.4789366
            ],
            [
              100.4234484,
              -0.4789753
            ],
            [
              100.4234484,
              -0.4790069
            ],
            [
              100.4234442,
              -0.4790443
            ],
            [
              100.423437,
              -0.4790672
            ],
            [
              100.4234356,
              -0.4790902
            ],
            [
              100.4234499,
              -0.4791189
            ],
            [
              100.4234741,
              -0.4791361
            ],
            [
              100.4234855,
              -0.4791663
            ],
            [
              100.423487,
              -0.4791921
            ],
            [
              100.423477,
              -0.4792209
            ],
            [
              100.4234684,
              -0.4792395
            ],
            [
              100.423457,
              -0.4792625
            ],
            [
              100.4234471,
              -0.4792883
            ],
            [
              100.4234442,
              -0.4793142
            ],
            [
              100.4234442,
              -0.4793285
            ],
            [
              100.4234471,
              -0.4793501
            ],
            [
              100.4234571,
              -0.4793874
            ],
            [
              100.4234685,
              -0.4794247
            ],
            [
              100.4234505,
              -0.4794587
            ],
            [
              100.4234201,
              -0.4794683
            ],
            [
              100.4233916,
              -0.4794989
            ],
            [
              100.4233707,
              -0.4795315
            ],
            [
              100.4233497,
              -0.4795794
            ],
            [
              100.4233555,
              -0.4796272
            ],
            [
              100.4233897,
              -0.4796827
            ],
            [
              100.4234468,
              -0.479744
            ],
            [
              100.4234848,
              -0.4797899
            ],
            [
              100.4235229,
              -0.4798895
            ],
            [
              100.4235229,
              -0.4799354
            ],
            [
              100.4235115,
              -0.4799814
            ],
            [
              100.4235134,
              -0.480033
            ],
            [
              100.4235419,
              -0.4801039
            ],
            [
              100.4235933,
              -0.4802168
            ],
            [
              100.4236066,
              -0.4802474
            ],
            [
              100.4236009,
              -0.4802685
            ],
            [
              100.4235952,
              -0.4803068
            ],
            [
              100.4236028,
              -0.4803795
            ],
            [
              100.4236066,
              -0.4804159
            ],
            [
              100.4235933,
              -0.4804676
            ],
            [
              100.4235895,
              -0.480504
            ],
            [
              100.4236086,
              -0.4805863
            ],
            [
              100.4235648,
              -0.4806294
            ],
            [
              100.4235249,
              -0.4806562
            ],
            [
              100.4234888,
              -0.4806792
            ],
            [
              100.4234717,
              -0.4807041
            ],
            [
              100.4234489,
              -0.4807213
            ],
            [
              100.4234345,
              -0.480743
            ],
            [
              100.4234558,
              -0.4808581
            ],
            [
              100.4235229,
              -0.4808849
            ],
            [
              100.4235572,
              -0.4809194
            ],
            [
              100.4235969,
              -0.4809474
            ],
            [
              100.4236409,
              -0.4809681
            ],
            [
              100.4236827,
              -0.4809798
            ],
            [
              100.4237259,
              -0.4809849
            ],
            [
              100.4237693,
              -0.4809833
            ],
            [
              100.423812,
              -0.4809749
            ],
            [
              100.4238528,
              -0.48096
            ],
            [
              100.4240003,
              -0.4808849
            ],
            [
              100.4240352,
              -0.4808527
            ],
            [
              100.4240727,
              -0.4808125
            ],
            [
              100.4241908,
              -0.4807642
            ],
            [
              100.4243195,
              -0.4806999
            ],
            [
              100.4243624,
              -0.4807884
            ],
            [
              100.4244482,
              -0.4808286
            ],
            [
              100.424805,
              -0.4811612
            ],
            [
              100.4248291,
              -0.481196
            ],
            [
              100.4248372,
              -0.4812953
            ],
            [
              100.424864,
              -0.4813248
            ],
            [
              100.424923,
              -0.4813194
            ],
            [
              100.4249606,
              -0.4813007
            ],
            [
              100.4251242,
              -0.4816064
            ],
            [
              100.4251671,
              -0.4816493
            ],
            [
              100.4252315,
              -0.4816574
            ],
            [
              100.4252341,
              -0.4816976
            ],
            [
              100.4252154,
              -0.4817271
            ],
            [
              100.4251712,
              -0.4817468
            ],
            [
              100.4251304,
              -0.4817728
            ],
            [
              100.425094,
              -0.4818046
            ],
            [
              100.4250628,
              -0.4818415
            ],
            [
              100.4250373,
              -0.4818826
            ],
            [
              100.4250183,
              -0.4819271
            ],
            [
              100.4250061,
              -0.4819739
            ],
            [
              100.4250011,
              -0.4820216
            ],
            [
              100.4250032,
              -0.4820696
            ],
            [
              100.4250123,
              -0.4821167
            ],
            [
              100.4250283,
              -0.482162
            ],
            [
              100.4250509,
              -0.4822044
            ],
            [
              100.4250795,
              -0.482243
            ],
            [
              100.4251134,
              -0.4822769
            ],
            [
              100.4251751,
              -0.4822689
            ],
            [
              100.4252234,
              -0.4825264
            ],
            [
              100.4251564,
              -0.4825666
            ],
            [
              100.4251027,
              -0.4825693
            ],
            [
              100.4250759,
              -0.4826203
            ],
            [
              100.4251456,
              -0.4827275
            ],
            [
              100.4251832,
              -0.4827034
            ],
            [
              100.4252422,
              -0.4828375
            ],
            [
              100.4252905,
              -0.482867
            ],
            [
              100.4253468,
              -0.4828348
            ],
            [
              100.425387,
              -0.4828241
            ],
            [
              100.4254353,
              -0.4828724
            ],
            [
              100.4253361,
              -0.4831594
            ],
            [
              100.4254219,
              -0.4831647
            ],
            [
              100.4254836,
              -0.4831594
            ],
            [
              100.4255694,
              -0.4832237
            ],
            [
              100.4255372,
              -0.4833525
            ],
            [
              100.4255962,
              -0.4834866
            ],
            [
              100.4256472,
              -0.4835402
            ],
            [
              100.4256982,
              -0.4836073
            ],
            [
              100.4257733,
              -0.4836475
            ],
            [
              100.425784,
              -0.4836904
            ],
            [
              100.4258028,
              -0.483736
            ],
            [
              100.4257733,
              -0.4837897
            ],
            [
              100.4257518,
              -0.4838138
            ],
            [
              100.4257759,
              -0.4838487
            ],
            [
              100.4257786,
              -0.4838889
            ],
            [
              100.4257598,
              -0.4839103
            ],
            [
              100.4257679,
              -0.4839533
            ],
            [
              100.4257947,
              -0.4839801
            ],
            [
              100.4257625,
              -0.4840015
            ],
            [
              100.425784,
              -0.4840284
            ],
            [
              100.425784,
              -0.4841142
            ],
            [
              100.425784,
              -0.484251
            ],
            [
              100.4258886,
              -0.484251
            ],
            [
              100.4259449,
              -0.4842134
            ],
            [
              100.4260012,
              -0.4842027
            ],
            [
              100.4259583,
              -0.4842537
            ],
            [
              100.4259288,
              -0.4842778
            ],
            [
              100.4259235,
              -0.4843395
            ],
            [
              100.4257089,
              -0.4844682
            ],
            [
              100.4257652,
              -0.4845058
            ],
            [
              100.4258323,
              -0.4844816
            ],
            [
              100.4259691,
              -0.484487
            ],
            [
              100.42602,
              -0.484487
            ],
            [
              100.4259878,
              -0.4845406
            ],
            [
              100.4259717,
              -0.4846023
            ],
            [
              100.4259396,
              -0.4846855
            ],
            [
              100.4259476,
              -0.484774
            ],
            [
              100.4259664,
              -0.4848249
            ],
            [
              100.4260227,
              -0.484833
            ],
            [
              100.4260522,
              -0.4848571
            ],
            [
              100.426071,
              -0.4849175
            ],
            [
              100.4261327,
              -0.484943
            ],
            [
              100.4262131,
              -0.4849832
            ],
            [
              100.4262775,
              -0.4850851
            ],
            [
              100.4263043,
              -0.4851656
            ],
            [
              100.4262722,
              -0.4852192
            ],
            [
              100.4261032,
              -0.4852782
            ],
            [
              100.4260876,
              -0.4853175
            ],
            [
              100.4270444,
              -0.4853508
            ],
            [
              100.4271336,
              -0.4854022
            ],
            [
              100.4272132,
              -0.4855697
            ],
            [
              100.4274249,
              -0.4858066
            ],
            [
              100.4275604,
              -0.4858628
            ],
            [
              100.4276982,
              -0.4858496
            ],
            [
              100.4278468,
              -0.4857826
            ],
            [
              100.4283127,
              -0.4857956
            ],
            [
              100.428384,
              -0.4858423
            ],
            [
              100.4284899,
              -0.4862395
            ],
            [
              100.4285897,
              -0.4863244
            ],
            [
              100.4286931,
              -0.4863065
            ],
            [
              100.4287537,
              -0.4861342
            ],
            [
              100.4289118,
              -0.4859822
            ],
            [
              100.4291709,
              -0.4859618
            ],
            [
              100.4292909,
              -0.4860371
            ],
            [
              100.4294193,
              -0.4862549
            ],
            [
              100.4294777,
              -0.486761
            ],
            [
              100.4296215,
              -0.4870302
            ],
            [
              100.4297797,
              -0.4871809
            ],
            [
              100.4299354,
              -0.4871868
            ],
            [
              100.429996,
              -0.4871079
            ],
            [
              100.4301052,
              -0.4866831
            ],
            [
              100.4301385,
              -0.486652
            ],
            [
              100.4305069,
              -0.4864856
            ],
            [
              100.430703,
              -0.4865059
            ],
            [
              100.4307862,
              -0.4865513
            ],
            [
              100.4308504,
              -0.4866662
            ],
            [
              100.430759,
              -0.4869079
            ],
            [
              100.4307911,
              -0.4871819
            ],
            [
              100.4309623,
              -0.4874056
            ],
            [
              100.4310979,
              -0.4876915
            ],
            [
              100.4312821,
              -0.4879463
            ],
            [
              100.4313594,
              -0.4881545
            ],
            [
              100.4312597,
              -0.4886272
            ],
            [
              100.4312982,
              -0.4887836
            ],
            [
              100.431361,
              -0.4888052
            ],
            [
              100.4314223,
              -0.4887693
            ],
            [
              100.431495,
              -0.4886515
            ],
            [
              100.4318487,
              -0.4882968
            ],
            [
              100.4319727,
              -0.4882647
            ],
            [
              100.4319176,
              -0.4879847
            ],
            [
              100.4320789,
              -0.4879033
            ],
            [
              100.4323243,
              -0.4879169
            ],
            [
              100.4327534,
              -0.4881522
            ],
            [
              100.4330331,
              -0.4882076
            ],
            [
              100.4333498,
              -0.4883859
            ],
            [
              100.4334119,
              -0.4884835
            ],
            [
              100.4334218,
              -0.4887316
            ],
            [
              100.4334614,
              -0.4888013
            ],
            [
              100.4338674,
              -0.4889003
            ],
            [
              100.4339535,
              -0.4890007
            ],
            [
              100.4340485,
              -0.4893001
            ],
            [
              100.4341862,
              -0.489376
            ],
            [
              100.434629,
              -0.489505
            ],
            [
              100.4347425,
              -0.4896185
            ],
            [
              100.4349031,
              -0.4898971
            ],
            [
              100.4349859,
              -0.4899417
            ],
            [
              100.4354196,
              -0.4898451
            ],
            [
              100.4353111,
              -0.4892627
            ],
            [
              100.4350412,
              -0.4883801
            ],
            [
              100.4349776,
              -0.488343
            ],
            [
              100.4346908,
              -0.4883781
            ],
            [
              100.434597,
              -0.4883424
            ],
            [
              100.4343772,
              -0.4880446
            ],
            [
              100.4338201,
              -0.4874437
            ],
            [
              100.4339434,
              -0.4872847
            ],
            [
              100.4339639,
              -0.4868165
            ],
            [
              100.4340422,
              -0.4866814
            ],
            [
              100.4340368,
              -0.4866008
            ],
            [
              100.4340947,
              -0.4865944
            ],
            [
              100.4340903,
              -0.4863933
            ],
            [
              100.434143,
              -0.4863304
            ],
            [
              100.433803,
              -0.4857233
            ],
            [
              100.4337695,
              -0.4856367
            ],
            [
              100.4337954,
              -0.4855122
            ],
            [
              100.4337665,
              -0.4854074
            ],
            [
              100.4337907,
              -0.4853208
            ],
            [
              100.4340108,
              -0.4852981
            ],
            [
              100.4342257,
              -0.4851717
            ],
            [
              100.4341857,
              -0.4850913
            ],
            [
              100.4343112,
              -0.4849725
            ],
            [
              100.4342085,
              -0.4848003
            ],
            [
              100.4341647,
              -0.4846055
            ],
            [
              100.4342275,
              -0.4846189
            ],
            [
              100.4343102,
              -0.4845552
            ],
            [
              100.4343102,
              -0.4844556
            ],
            [
              100.4343577,
              -0.4843676
            ],
            [
              100.4345916,
              -0.4842699
            ],
            [
              100.434717,
              -0.4840363
            ],
            [
              100.4348634,
              -0.4839693
            ],
            [
              100.4347854,
              -0.4838487
            ],
            [
              100.4349357,
              -0.4837816
            ],
            [
              100.4348615,
              -0.4836074
            ],
            [
              100.4349318,
              -0.4835557
            ],
            [
              100.4349378,
              -0.4834729
            ],
            [
              100.4347265,
              -0.4832058
            ],
            [
              100.4346581,
              -0.482934
            ],
            [
              100.4348009,
              -0.4828662
            ],
            [
              100.4348271,
              -0.4829487
            ],
            [
              100.4349753,
              -0.4830019
            ],
            [
              100.4350629,
              -0.4831263
            ],
            [
              100.4350802,
              -0.4831083
            ],
            [
              100.4352805,
              -0.4832009
            ],
            [
              100.4353963,
              -0.4831552
            ],
            [
              100.4352292,
              -0.48279
            ],
            [
              100.4351682,
              -0.4825651
            ],
            [
              100.4350808,
              -0.4824737
            ],
            [
              100.4350863,
              -0.4821267
            ],
            [
              100.4349022,
              -0.4816928
            ],
            [
              100.4346574,
              -0.4814239
            ],
            [
              100.4342947,
              -0.4813583
            ],
            [
              100.4342222,
              -0.4808964
            ],
            [
              100.4341485,
              -0.4807943
            ],
            [
              100.4340499,
              -0.4807438
            ],
            [
              100.4340141,
              -0.4806424
            ],
            [
              100.4340954,
              -0.480491
            ],
            [
              100.4340938,
              -0.4803
            ],
            [
              100.4342286,
              -0.4801714
            ],
            [
              100.4341876,
              -0.4799883
            ],
            [
              100.4342775,
              -0.4798035
            ],
            [
              100.4341778,
              -0.4796618
            ],
            [
              100.4341936,
              -0.4795182
            ],
            [
              100.4341564,
              -0.4794807
            ],
            [
              100.4340538,
              -0.4794779
            ],
            [
              100.4340563,
              -0.4794259
            ],
            [
              100.4342231,
              -0.4792932
            ],
            [
              100.4343777,
              -0.4793273
            ],
            [
              100.4345733,
              -0.4793141
            ],
            [
              100.4347155,
              -0.4791665
            ],
            [
              100.435006,
              -0.4790395
            ],
            [
              100.435025,
              -0.4788923
            ],
            [
              100.4346777,
              -0.4786363
            ],
            [
              100.4345405,
              -0.4784072
            ],
            [
              100.4346644,
              -0.478166
            ],
            [
              100.4347157,
              -0.4779736
            ],
            [
              100.4348202,
              -0.4778452
            ],
            [
              100.4348487,
              -0.4775474
            ],
            [
              100.4349941,
              -0.4774744
            ],
            [
              100.4350367,
              -0.477311
            ],
            [
              100.4348068,
              -0.476953
            ],
            [
              100.4349101,
              -0.4767524
            ],
            [
              100.4347033,
              -0.4766405
            ],
            [
              100.4345609,
              -0.4766909
            ],
            [
              100.43443,
              -0.4765775
            ],
            [
              100.4342669,
              -0.4765447
            ],
            [
              100.4341567,
              -0.4764097
            ],
            [
              100.4341755,
              -0.4760193
            ],
            [
              100.4339855,
              -0.4759265
            ],
            [
              100.4338966,
              -0.4757977
            ],
            [
              100.4338818,
              -0.4754976
            ],
            [
              100.4337415,
              -0.4754545
            ],
            [
              100.4336795,
              -0.4753943
            ],
            [
              100.4336708,
              -0.4751781
            ],
            [
              100.4335903,
              -0.4749351
            ],
            [
              100.4335918,
              -0.4748401
            ],
            [
              100.4336788,
              -0.4746062
            ],
            [
              100.4336194,
              -0.4744871
            ],
            [
              100.4336457,
              -0.4744178
            ],
            [
              100.4338195,
              -0.4743604
            ],
            [
              100.4338188,
              -0.474136
            ],
            [
              100.4337139,
              -0.4739951
            ],
            [
              100.4334759,
              -0.4738448
            ],
            [
              100.4333623,
              -0.4737064
            ],
            [
              100.4333287,
              -0.4734407
            ],
            [
              100.4332343,
              -0.4732723
            ],
            [
              100.4333026,
              -0.4730496
            ],
            [
              100.4332599,
              -0.4729658
            ],
            [
              100.4333513,
              -0.4728195
            ],
            [
              100.4332708,
              -0.4727387
            ],
            [
              100.4335066,
              -0.4726817
            ],
            [
              100.4337134,
              -0.4727236
            ],
            [
              100.4337561,
              -0.472629
            ],
            [
              100.4340105,
              -0.4725823
            ],
            [
              100.4341115,
              -0.4724974
            ],
            [
              100.4341745,
              -0.4725297
            ],
            [
              100.4342791,
              -0.4725117
            ],
            [
              100.4345952,
              -0.4726097
            ],
            [
              100.4347664,
              -0.4725499
            ],
            [
              100.4350694,
              -0.4723045
            ],
            [
              100.4351134,
              -0.4724134
            ],
            [
              100.4354034,
              -0.4723655
            ],
            [
              100.4354641,
              -0.4724326
            ],
            [
              100.4357399,
              -0.4724127
            ],
            [
              100.4357875,
              -0.4724569
            ],
            [
              100.4359205,
              -0.4721279
            ],
            [
              100.4359502,
              -0.4719412
            ],
            [
              100.4360096,
              -0.4719256
            ],
            [
              100.4360167,
              -0.4717641
            ]
          ]
        ]
      },
      "id": "relation/17857397"
    }
  ]
}