{
  "type": "FeatureCollection",
  "generator": "overpass-turbo",
  "copyright": "The data included in this document is from www.openstreetmap.org. The data is made available under ODbL.",
  "timestamp": "2025-07-15T05:56:56Z",
  "features": [
    {
      "type": "Feature",
      "properties": {
        "@id": "relation/14954678",
        "admin_level": "5",
        "alt_name": "Kota Padang Panjang",
        "boundary": "administrative",
        "name": "Padang Panjang",
        "name:ar": "بادانق بانجانق",
        "official_name": "Kota Padang Panjang",
        "place": "city",
        "type": "boundary",
        "wikidata": "Q7256",
        "wikipedia": "id:Kota Padang Panjang"
      },
      "geometry": {
        "type": "Polygon",
        "coordinates": [
          [
            [
              100.4048908,
              -0.4530579
            ],
            [
              100.4047338,
              -0.4530432
            ],
            [
              100.4045007,
              -0.4524316
            ],
            [
              100.4045682,
              -0.4522013
            ],
            [
              100.4045581,
              -0.4519364
            ],
            [
              100.4046067,
              -0.4517844
            ],
            [
              100.4045919,
              -0.451716
            ],
            [
              100.4044808,
              -0.4516127
            ],
            [
              100.4045682,
              -0.4514925
            ],
            [
              100.404539,
              -0.4514411
            ],
            [
              100.4040345,
              -0.4519556
            ],
            [
              100.4039402,
              -0.4518678
            ],
            [
              100.403934,
              -0.4516611
            ],
            [
              100.4038442,
              -0.4513812
            ],
            [
              100.4035417,
              -0.4514673
            ],
            [
              100.4030587,
              -0.4514732
            ],
            [
              100.4027929,
              -0.4514222
            ],
            [
              100.4026313,
              -0.4514558
            ],
            [
              100.4023134,
              -0.4514151
            ],
            [
              100.4022313,
              -0.4513519
            ],
            [
              100.4020726,
              -0.4513394
            ],
            [
              100.4019554,
              -0.4511877
            ],
            [
              100.4019135,
              -0.4510107
            ],
            [
              100.4016381,
              -0.4508409
            ],
            [
              100.4016334,
              -0.4507859
            ],
            [
              100.4012601,
              -0.4506017
            ],
            [
              100.4011722,
              -0.4504629
            ],
            [
              100.4009226,
              -0.4504797
            ],
            [
              100.4007514,
              -0.4504319
            ],
            [
              100.40073,
              -0.4503601
            ],
            [
              100.4004661,
              -0.4502908
            ],
            [
              100.4003023,
              -0.450146
            ],
            [
              100.3995199,
              -0.4501057
            ],
            [
              100.3994495,
              -0.4502072
            ],
            [
              100.3986605,
              -0.4498704
            ],
            [
              100.3982149,
              -0.4502486
            ],
            [
              100.3981091,
              -0.4502893
            ],
            [
              100.3979862,
              -0.4502106
            ],
            [
              100.3978477,
              -0.4499614
            ],
            [
              100.3975494,
              -0.4502228
            ],
            [
              100.3974167,
              -0.4502728
            ],
            [
              100.3973371,
              -0.4503905
            ],
            [
              100.3971838,
              -0.4504929
            ],
            [
              100.3970177,
              -0.4504627
            ],
            [
              100.3966986,
              -0.4502595
            ],
            [
              100.396616,
              -0.4502497
            ],
            [
              100.3964711,
              -0.4503579
            ],
            [
              100.3963281,
              -0.4504647
            ],
            [
              100.3961312,
              -0.4505794
            ],
            [
              100.3958689,
              -0.450615
            ],
            [
              100.3956645,
              -0.45053
            ],
            [
              100.3954799,
              -0.4501491
            ],
            [
              100.3952841,
              -0.4501281
            ],
            [
              100.3951738,
              -0.4501951
            ],
            [
              100.3951586,
              -0.4502487
            ],
            [
              100.3951852,
              -0.4505301
            ],
            [
              100.395387,
              -0.4512135
            ],
            [
              100.3954945,
              -0.4518613
            ],
            [
              100.3955658,
              -0.4522909
            ],
            [
              100.3959652,
              -0.4528201
            ],
            [
              100.3964406,
              -0.4530123
            ],
            [
              100.3966489,
              -0.4531449
            ],
            [
              100.3967842,
              -0.4533028
            ],
            [
              100.3968199,
              -0.4534344
            ],
            [
              100.3968152,
              -0.4535302
            ],
            [
              100.3967367,
              -0.4536714
            ],
            [
              100.3965609,
              -0.4537206
            ],
            [
              100.3963563,
              -0.4537523
            ],
            [
              100.3958704,
              -0.4539324
            ],
            [
              100.3953805,
              -0.4540669
            ],
            [
              100.3952414,
              -0.4541626
            ],
            [
              100.3952795,
              -0.4543655
            ],
            [
              100.3956884,
              -0.4548096
            ],
            [
              100.395803,
              -0.4549029
            ],
            [
              100.3961696,
              -0.4550909
            ],
            [
              100.3966469,
              -0.4552535
            ],
            [
              100.3967382,
              -0.4553263
            ],
            [
              100.3967554,
              -0.4554201
            ],
            [
              100.3967294,
              -0.4557212
            ],
            [
              100.396556,
              -0.4561316
            ],
            [
              100.3962537,
              -0.4564536
            ],
            [
              100.3962271,
              -0.456555
            ],
            [
              100.3962973,
              -0.45701
            ],
            [
              100.3965082,
              -0.4574909
            ],
            [
              100.3966661,
              -0.4576933
            ],
            [
              100.3967567,
              -0.4581111
            ],
            [
              100.3966611,
              -0.4583266
            ],
            [
              100.396052,
              -0.458714
            ],
            [
              100.3958967,
              -0.4588911
            ],
            [
              100.3958703,
              -0.4591486
            ],
            [
              100.3961558,
              -0.4599423
            ],
            [
              100.3961045,
              -0.4600849
            ],
            [
              100.3959631,
              -0.4602297
            ],
            [
              100.395559,
              -0.4602561
            ],
            [
              100.3950307,
              -0.4599464
            ],
            [
              100.3946462,
              -0.4598903
            ],
            [
              100.3940838,
              -0.4597819
            ],
            [
              100.3939776,
              -0.4596575
            ],
            [
              100.3939347,
              -0.4593
            ],
            [
              100.3938206,
              -0.4592167
            ],
            [
              100.3937621,
              -0.459239
            ],
            [
              100.3935338,
              -0.4596591
            ],
            [
              100.3935014,
              -0.4597391
            ],
            [
              100.3933529,
              -0.4598515
            ],
            [
              100.3930798,
              -0.4598631
            ],
            [
              100.3928913,
              -0.4598347
            ],
            [
              100.3927641,
              -0.4597529
            ],
            [
              100.3922615,
              -0.4596326
            ],
            [
              100.3920861,
              -0.4595099
            ],
            [
              100.3919952,
              -0.4592779
            ],
            [
              100.3917984,
              -0.4591721
            ],
            [
              100.3915188,
              -0.4591624
            ],
            [
              100.3913364,
              -0.4591115
            ],
            [
              100.390918,
              -0.458877
            ],
            [
              100.3907708,
              -0.4588403
            ],
            [
              100.3905352,
              -0.4589229
            ],
            [
              100.3902109,
              -0.4591682
            ],
            [
              100.3900193,
              -0.4594919
            ],
            [
              100.3898477,
              -0.4600744
            ],
            [
              100.3897573,
              -0.4602214
            ],
            [
              100.3896355,
              -0.4603411
            ],
            [
              100.3895107,
              -0.460389
            ],
            [
              100.3892986,
              -0.460346
            ],
            [
              100.3887704,
              -0.4598921
            ],
            [
              100.3884943,
              -0.4597773
            ],
            [
              100.3883329,
              -0.4598103
            ],
            [
              100.3881436,
              -0.4599768
            ],
            [
              100.3879137,
              -0.4603234
            ],
            [
              100.3873971,
              -0.4608257
            ],
            [
              100.3871463,
              -0.4608162
            ],
            [
              100.3866577,
              -0.4603855
            ],
            [
              100.386483,
              -0.4603784
            ],
            [
              100.3864105,
              -0.4604382
            ],
            [
              100.3863725,
              -0.4605292
            ],
            [
              100.3863654,
              -0.4608403
            ],
            [
              100.3864107,
              -0.4612447
            ],
            [
              100.3863374,
              -0.4616629
            ],
            [
              100.3862424,
              -0.4618029
            ],
            [
              100.3859536,
              -0.462047
            ],
            [
              100.3858407,
              -0.462077
            ],
            [
              100.3857004,
              -0.4619849
            ],
            [
              100.3856184,
              -0.4616594
            ],
            [
              100.3855144,
              -0.4614177
            ],
            [
              100.3852114,
              -0.4613287
            ],
            [
              100.3847739,
              -0.4614734
            ],
            [
              100.3846024,
              -0.4617039
            ],
            [
              100.3845899,
              -0.4620647
            ],
            [
              100.3845876,
              -0.46217
            ],
            [
              100.384508,
              -0.4624775
            ],
            [
              100.3843511,
              -0.462584
            ],
            [
              100.3842109,
              -0.4625218
            ],
            [
              100.3840694,
              -0.4622993
            ],
            [
              100.3838376,
              -0.462151
            ],
            [
              100.3837627,
              -0.4620301
            ],
            [
              100.3837734,
              -0.4619368
            ],
            [
              100.3841857,
              -0.4614545
            ],
            [
              100.3841319,
              -0.4612134
            ],
            [
              100.3840339,
              -0.4611111
            ],
            [
              100.3838146,
              -0.4611165
            ],
            [
              100.3836484,
              -0.4613206
            ],
            [
              100.3832681,
              -0.4615325
            ],
            [
              100.3831066,
              -0.4618843
            ],
            [
              100.3830176,
              -0.462607
            ],
            [
              100.3829344,
              -0.462741
            ],
            [
              100.3828429,
              -0.4628045
            ],
            [
              100.3826634,
              -0.4627866
            ],
            [
              100.3825374,
              -0.4627124
            ],
            [
              100.3823591,
              -0.462515
            ],
            [
              100.3821179,
              -0.4624508
            ],
            [
              100.3820295,
              -0.462481
            ],
            [
              100.3820181,
              -0.4626447
            ],
            [
              100.3819782,
              -0.4626863
            ],
            [
              100.3817999,
              -0.4628041
            ],
            [
              100.3817229,
              -0.4628041
            ],
            [
              100.3816059,
              -0.4627266
            ],
            [
              100.3815617,
              -0.4626548
            ],
            [
              100.3813591,
              -0.462036
            ],
            [
              100.3812792,
              -0.4620044
            ],
            [
              100.3811708,
              -0.462016
            ],
            [
              100.3808699,
              -0.4622055
            ],
            [
              100.3807758,
              -0.4623348
            ],
            [
              100.3806945,
              -0.4625516
            ],
            [
              100.3807802,
              -0.4633628
            ],
            [
              100.3807246,
              -0.4635165
            ],
            [
              100.3806277,
              -0.4635883
            ],
            [
              100.380505,
              -0.4635826
            ],
            [
              100.3794223,
              -0.4628764
            ],
            [
              100.3793025,
              -0.4627429
            ],
            [
              100.3790545,
              -0.4624603
            ],
            [
              100.3786982,
              -0.4623734
            ],
            [
              100.37811,
              -0.4620912
            ],
            [
              100.3777504,
              -0.4621042
            ],
            [
              100.3775529,
              -0.4621435
            ],
            [
              100.3774887,
              -0.4621866
            ],
            [
              100.3772943,
              -0.4625853
            ],
            [
              100.3767326,
              -0.4640069
            ],
            [
              100.3765957,
              -0.4640787
            ],
            [
              100.376416,
              -0.4641075
            ],
            [
              100.3761578,
              -0.4640314
            ],
            [
              100.375834,
              -0.4638333
            ],
            [
              100.3755076,
              -0.4635446
            ],
            [
              100.3753176,
              -0.4635333
            ],
            [
              100.3749448,
              -0.4636941
            ],
            [
              100.3748655,
              -0.4637652
            ],
            [
              100.3748227,
              -0.464038
            ],
            [
              100.374975,
              -0.4646434
            ],
            [
              100.3749252,
              -0.4650143
            ],
            [
              100.3747019,
              -0.4657993
            ],
            [
              100.3747066,
              -0.4659884
            ],
            [
              100.3748612,
              -0.4663497
            ],
            [
              100.374847,
              -0.4665387
            ],
            [
              100.3747805,
              -0.466711
            ],
            [
              100.3746664,
              -0.4668403
            ],
            [
              100.3744976,
              -0.4668858
            ],
            [
              100.3740484,
              -0.466905
            ],
            [
              100.373157,
              -0.4672929
            ],
            [
              100.3724748,
              -0.467506
            ],
            [
              100.3717903,
              -0.4682265
            ],
            [
              100.3713649,
              -0.4685999
            ],
            [
              100.3710892,
              -0.468899
            ],
            [
              100.3709728,
              -0.4692221
            ],
            [
              100.3704975,
              -0.4697535
            ],
            [
              100.3704452,
              -0.4700766
            ],
            [
              100.3702765,
              -0.4705169
            ],
            [
              100.3697964,
              -0.4708999
            ],
            [
              100.369737,
              -0.4710603
            ],
            [
              100.3696872,
              -0.4715054
            ],
            [
              100.3697253,
              -0.4716992
            ],
            [
              100.3701985,
              -0.4725702
            ],
            [
              100.3702746,
              -0.4728239
            ],
            [
              100.370056,
              -0.4733121
            ],
            [
              100.3694547,
              -0.4738531
            ],
            [
              100.368844,
              -0.474875
            ],
            [
              100.3684304,
              -0.474966
            ],
            [
              100.3681213,
              -0.4749757
            ],
            [
              100.3675175,
              -0.4748873
            ],
            [
              100.3672941,
              -0.4749615
            ],
            [
              100.3670636,
              -0.4752942
            ],
            [
              100.3670208,
              -0.4754354
            ],
            [
              100.367047,
              -0.4756125
            ],
            [
              100.367234,
              -0.4758299
            ],
            [
              100.3670416,
              -0.4761691
            ],
            [
              100.3659899,
              -0.4767747
            ],
            [
              100.3656631,
              -0.4770919
            ],
            [
              100.3655751,
              -0.4772259
            ],
            [
              100.3653356,
              -0.4773509
            ],
            [
              100.3655015,
              -0.4774612
            ],
            [
              100.3655914,
              -0.4775663
            ],
            [
              100.3658798,
              -0.4782312
            ],
            [
              100.3661066,
              -0.4784405
            ],
            [
              100.3664925,
              -0.4784645
            ],
            [
              100.366774,
              -0.4785642
            ],
            [
              100.3668734,
              -0.4786253
            ],
            [
              100.3671739,
              -0.4790123
            ],
            [
              100.3672985,
              -0.4790443
            ],
            [
              100.3675866,
              -0.4790378
            ],
            [
              100.3678576,
              -0.4791
            ],
            [
              100.3692579,
              -0.4799421
            ],
            [
              100.3699475,
              -0.4809374
            ],
            [
              100.3703304,
              -0.4818156
            ],
            [
              100.3712133,
              -0.4821263
            ],
            [
              100.3717188,
              -0.4820922
            ],
            [
              100.3722797,
              -0.4829335
            ],
            [
              100.3723545,
              -0.4829864
            ],
            [
              100.37299,
              -0.483115
            ],
            [
              100.3734777,
              -0.4831435
            ],
            [
              100.373735,
              -0.4833558
            ],
            [
              100.3748528,
              -0.4836273
            ],
            [
              100.3750698,
              -0.4835716
            ],
            [
              100.3751982,
              -0.4834747
            ],
            [
              100.3753187,
              -0.483344
            ],
            [
              100.3755503,
              -0.4828835
            ],
            [
              100.3758186,
              -0.4827293
            ],
            [
              100.3759681,
              -0.4826814
            ],
            [
              100.3763215,
              -0.4826819
            ],
            [
              100.3766591,
              -0.4826343
            ],
            [
              100.3768751,
              -0.4825895
            ],
            [
              100.3770234,
              -0.4825037
            ],
            [
              100.3771003,
              -0.4827616
            ],
            [
              100.3772331,
              -0.4829338
            ],
            [
              100.3774072,
              -0.4830569
            ],
            [
              100.3779518,
              -0.483294
            ],
            [
              100.3782562,
              -0.4834988
            ],
            [
              100.3786662,
              -0.4838794
            ],
            [
              100.3789766,
              -0.4843258
            ],
            [
              100.3790256,
              -0.4844794
            ],
            [
              100.3790602,
              -0.4848184
            ],
            [
              100.3791784,
              -0.485004
            ],
            [
              100.3794417,
              -0.4852124
            ],
            [
              100.3796735,
              -0.4852518
            ],
            [
              100.3807039,
              -0.4851367
            ],
            [
              100.3807895,
              -0.4850938
            ],
            [
              100.3809229,
              -0.48487
            ],
            [
              100.3809203,
              -0.4846538
            ],
            [
              100.3807319,
              -0.4841799
            ],
            [
              100.380681,
              -0.4837727
            ],
            [
              100.380716,
              -0.4835483
            ],
            [
              100.3809608,
              -0.4829899
            ],
            [
              100.380968,
              -0.4825898
            ],
            [
              100.3810397,
              -0.4824028
            ],
            [
              100.381156,
              -0.4822938
            ],
            [
              100.3813261,
              -0.482223
            ],
            [
              100.382281,
              -0.4823017
            ],
            [
              100.3824793,
              -0.4823777
            ],
            [
              100.3827923,
              -0.4826334
            ],
            [
              100.3830102,
              -0.4827318
            ],
            [
              100.3834999,
              -0.4826934
            ],
            [
              100.3836615,
              -0.4827508
            ],
            [
              100.3839231,
              -0.483014
            ],
            [
              100.3842297,
              -0.4831527
            ],
            [
              100.3846077,
              -0.4831598
            ],
            [
              100.385599,
              -0.4834325
            ],
            [
              100.3865903,
              -0.4837697
            ],
            [
              100.3869398,
              -0.4838414
            ],
            [
              100.3880381,
              -0.4839704
            ],
            [
              100.3883205,
              -0.4839154
            ],
            [
              100.3891362,
              -0.4837476
            ],
            [
              100.3896212,
              -0.4837044
            ],
            [
              100.389992,
              -0.4837618
            ],
            [
              100.3909489,
              -0.4840048
            ],
            [
              100.3910226,
              -0.484079
            ],
            [
              100.3912225,
              -0.4847299
            ],
            [
              100.3913532,
              -0.4848112
            ],
            [
              100.3914412,
              -0.4848088
            ],
            [
              100.3919819,
              -0.4846352
            ],
            [
              100.3921543,
              -0.4846232
            ],
            [
              100.3923326,
              -0.484665
            ],
            [
              100.3924336,
              -0.4846411
            ],
            [
              100.3926297,
              -0.4844974
            ],
            [
              100.3929861,
              -0.4838811
            ],
            [
              100.3933961,
              -0.4837435
            ],
            [
              100.3939785,
              -0.4836775
            ],
            [
              100.3948758,
              -0.4831269
            ],
            [
              100.3953809,
              -0.4833003
            ],
            [
              100.3963199,
              -0.4834856
            ],
            [
              100.397045,
              -0.4835513
            ],
            [
              100.3979936,
              -0.4834582
            ],
            [
              100.3984356,
              -0.4834134
            ],
            [
              100.4008272,
              -0.4832659
            ],
            [
              100.4012081,
              -0.4833218
            ],
            [
              100.4015184,
              -0.4834313
            ],
            [
              100.4019015,
              -0.4834784
            ],
            [
              100.4020325,
              -0.4835733
            ],
            [
              100.4022162,
              -0.4837828
            ],
            [
              100.4026713,
              -0.4837177
            ],
            [
              100.4027939,
              -0.4834768
            ],
            [
              100.403188,
              -0.4830893
            ],
            [
              100.4033861,
              -0.4826926
            ],
            [
              100.4036464,
              -0.4825052
            ],
            [
              100.4037138,
              -0.4822651
            ],
            [
              100.4037738,
              -0.4822255
            ],
            [
              100.4039412,
              -0.4822431
            ],
            [
              100.4040859,
              -0.482216
            ],
            [
              100.4044604,
              -0.4816884
            ],
            [
              100.4048881,
              -0.4814042
            ],
            [
              100.4051169,
              -0.481131
            ],
            [
              100.4050281,
              -0.4809812
            ],
            [
              100.4050558,
              -0.4809402
            ],
            [
              100.4050439,
              -0.4808015
            ],
            [
              100.4052476,
              -0.4806783
            ],
            [
              100.4058505,
              -0.4800558
            ],
            [
              100.4065326,
              -0.48048
            ],
            [
              100.4074289,
              -0.4811714
            ],
            [
              100.4079424,
              -0.4815111
            ],
            [
              100.4084064,
              -0.481888
            ],
            [
              100.4094679,
              -0.4824633
            ],
            [
              100.4099977,
              -0.482604
            ],
            [
              100.4113997,
              -0.4827853
            ],
            [
              100.4117717,
              -0.4826808
            ],
            [
              100.4118891,
              -0.4826008
            ],
            [
              100.4121843,
              -0.4826537
            ],
            [
              100.4122603,
              -0.4828039
            ],
            [
              100.4124095,
              -0.48277
            ],
            [
              100.4125824,
              -0.4826639
            ],
            [
              100.4126308,
              -0.4827268
            ],
            [
              100.4125939,
              -0.4829307
            ],
            [
              100.4127502,
              -0.4830802
            ],
            [
              100.4128544,
              -0.4831262
            ],
            [
              100.4131273,
              -0.4831422
            ],
            [
              100.4132185,
              -0.483254
            ],
            [
              100.4137053,
              -0.4836555
            ],
            [
              100.4149392,
              -0.484488
            ],
            [
              100.4151531,
              -0.4845741
            ],
            [
              100.4157379,
              -0.4847032
            ],
            [
              100.416061,
              -0.4847013
            ],
            [
              100.4165482,
              -0.4848074
            ],
            [
              100.4168089,
              -0.4849449
            ],
            [
              100.4172735,
              -0.4850737
            ],
            [
              100.417386,
              -0.4852966
            ],
            [
              100.4175361,
              -0.4853897
            ],
            [
              100.4176735,
              -0.4856345
            ],
            [
              100.4178766,
              -0.4857336
            ],
            [
              100.417913,
              -0.4858499
            ],
            [
              100.4179624,
              -0.4858367
            ],
            [
              100.417997,
              -0.4857086
            ],
            [
              100.4180476,
              -0.4857864
            ],
            [
              100.4186885,
              -0.485928
            ],
            [
              100.4187747,
              -0.4860851
            ],
            [
              100.4191368,
              -0.4863532
            ],
            [
              100.4192782,
              -0.4863409
            ],
            [
              100.4195644,
              -0.4862182
            ],
            [
              100.4197059,
              -0.4862733
            ],
            [
              100.4197614,
              -0.4862623
            ],
            [
              100.4198391,
              -0.4861485
            ],
            [
              100.4198849,
              -0.4857873
            ],
            [
              100.4201244,
              -0.4856325
            ],
            [
              100.4202822,
              -0.4854818
            ],
            [
              100.420367,
              -0.4853327
            ],
            [
              100.4204885,
              -0.485261
            ],
            [
              100.4207313,
              -0.485193
            ],
            [
              100.4207027,
              -0.4850466
            ],
            [
              100.4207641,
              -0.4849748
            ],
            [
              100.4208511,
              -0.4849446
            ],
            [
              100.420988,
              -0.4849761
            ],
            [
              100.4211752,
              -0.4845499
            ],
            [
              100.4210933,
              -0.4844312
            ],
            [
              100.4212481,
              -0.4843422
            ],
            [
              100.4212495,
              -0.4842359
            ],
            [
              100.421124,
              -0.4840105
            ],
            [
              100.4211029,
              -0.4838612
            ],
            [
              100.421209,
              -0.4839172
            ],
            [
              100.4213416,
              -0.4839287
            ],
            [
              100.4216668,
              -0.4838066
            ],
            [
              100.4218607,
              -0.4836299
            ],
            [
              100.4219195,
              -0.4832747
            ],
            [
              100.4219893,
              -0.4831914
            ],
            [
              100.4221334,
              -0.4831755
            ],
            [
              100.4222756,
              -0.483313
            ],
            [
              100.4223742,
              -0.4834685
            ],
            [
              100.4224539,
              -0.4837676
            ],
            [
              100.4223339,
              -0.4839459
            ],
            [
              100.4219881,
              -0.4842475
            ],
            [
              100.4219703,
              -0.484348
            ],
            [
              100.4219989,
              -0.4844497
            ],
            [
              100.4220595,
              -0.4844832
            ],
            [
              100.4223079,
              -0.484385
            ],
            [
              100.4223744,
              -0.4843886
            ],
            [
              100.4224481,
              -0.4844448
            ],
            [
              100.4224886,
              -0.4846985
            ],
            [
              100.4223924,
              -0.4849007
            ],
            [
              100.4224078,
              -0.4850132
            ],
            [
              100.4224637,
              -0.4850586
            ],
            [
              100.4225231,
              -0.4850538
            ],
            [
              100.4228297,
              -0.4849162
            ],
            [
              100.4232172,
              -0.4847988
            ],
            [
              100.4236189,
              -0.4849196
            ],
            [
              100.423903,
              -0.4849171
            ],
            [
              100.4239969,
              -0.4849494
            ],
            [
              100.4240326,
              -0.4850236
            ],
            [
              100.4239958,
              -0.4851002
            ],
            [
              100.4238864,
              -0.4852091
            ],
            [
              100.4236404,
              -0.4853324
            ],
            [
              100.4235311,
              -0.4854473
            ],
            [
              100.4234289,
              -0.485628
            ],
            [
              100.4234278,
              -0.48575
            ],
            [
              100.4234801,
              -0.485811
            ],
            [
              100.4235882,
              -0.4858469
            ],
            [
              100.4241421,
              -0.4858599
            ],
            [
              100.4242978,
              -0.4856924
            ],
            [
              100.424356,
              -0.4855787
            ],
            [
              100.4245224,
              -0.4854949
            ],
            [
              100.4249538,
              -0.4856528
            ],
            [
              100.4251975,
              -0.4859542
            ],
            [
              100.4252332,
              -0.4861265
            ],
            [
              100.4252238,
              -0.4862055
            ],
            [
              100.4249314,
              -0.4864915
            ],
            [
              100.4249291,
              -0.4865693
            ],
            [
              100.424998,
              -0.4866291
            ],
            [
              100.425389,
              -0.4863742
            ],
            [
              100.4259274,
              -0.4862018
            ],
            [
              100.4260676,
              -0.4861084
            ],
            [
              100.4261436,
              -0.4860031
            ],
            [
              100.4261603,
              -0.4859146
            ],
            [
              100.4261067,
              -0.4856633
            ],
            [
              100.4260045,
              -0.4854324
            ],
            [
              100.4260211,
              -0.4853462
            ],
            [
              100.4260876,
              -0.4853175
            ],
            [
              100.4270444,
              -0.4853508
            ],
            [
              100.4271336,
              -0.4854022
            ],
            [
              100.4272132,
              -0.4855697
            ],
            [
              100.4274249,
              -0.4858066
            ],
            [
              100.4275604,
              -0.4858628
            ],
            [
              100.4276982,
              -0.4858496
            ],
            [
              100.4278468,
              -0.4857826
            ],
            [
              100.4283127,
              -0.4857956
            ],
            [
              100.428384,
              -0.4858423
            ],
            [
              100.4284899,
              -0.4862395
            ],
            [
              100.4285897,
              -0.4863244
            ],
            [
              100.4286931,
              -0.4863065
            ],
            [
              100.4287537,
              -0.4861342
            ],
            [
              100.4289118,
              -0.4859822
            ],
            [
              100.4291709,
              -0.4859618
            ],
            [
              100.4292909,
              -0.4860371
            ],
            [
              100.4294193,
              -0.4862549
            ],
            [
              100.4294777,
              -0.486761
            ],
            [
              100.4296215,
              -0.4870302
            ],
            [
              100.4297797,
              -0.4871809
            ],
            [
              100.4299354,
              -0.4871868
            ],
            [
              100.429996,
              -0.4871079
            ],
            [
              100.4301052,
              -0.4866831
            ],
            [
              100.4301385,
              -0.486652
            ],
            [
              100.4305069,
              -0.4864856
            ],
            [
              100.430703,
              -0.4865059
            ],
            [
              100.4307862,
              -0.4865513
            ],
            [
              100.4308504,
              -0.4866662
            ],
            [
              100.430759,
              -0.4869079
            ],
            [
              100.4307911,
              -0.4871819
            ],
            [
              100.4309623,
              -0.4874056
            ],
            [
              100.4310979,
              -0.4876915
            ],
            [
              100.4312821,
              -0.4879463
            ],
            [
              100.4313594,
              -0.4881545
            ],
            [
              100.4312597,
              -0.4886272
            ],
            [
              100.4312982,
              -0.4887836
            ],
            [
              100.431361,
              -0.4888052
            ],
            [
              100.4314223,
              -0.4887693
            ],
            [
              100.431495,
              -0.4886515
            ],
            [
              100.4318487,
              -0.4882968
            ],
            [
              100.4319727,
              -0.4882647
            ],
            [
              100.4319176,
              -0.4879847
            ],
            [
              100.4320789,
              -0.4879033
            ],
            [
              100.4323243,
              -0.4879169
            ],
            [
              100.4327534,
              -0.4881522
            ],
            [
              100.4330331,
              -0.4882076
            ],
            [
              100.4333498,
              -0.4883859
            ],
            [
              100.4334119,
              -0.4884835
            ],
            [
              100.4334218,
              -0.4887316
            ],
            [
              100.4334614,
              -0.4888013
            ],
            [
              100.4338674,
              -0.4889003
            ],
            [
              100.4339535,
              -0.4890007
            ],
            [
              100.4340485,
              -0.4893001
            ],
            [
              100.4341862,
              -0.489376
            ],
            [
              100.434629,
              -0.489505
            ],
            [
              100.4347425,
              -0.4896185
            ],
            [
              100.4349031,
              -0.4898971
            ],
            [
              100.4349859,
              -0.4899417
            ],
            [
              100.4354196,
              -0.4898451
            ],
            [
              100.4353111,
              -0.4892627
            ],
            [
              100.4350412,
              -0.4883801
            ],
            [
              100.4349776,
              -0.488343
            ],
            [
              100.4346908,
              -0.4883781
            ],
            [
              100.434597,
              -0.4883424
            ],
            [
              100.4343772,
              -0.4880446
            ],
            [
              100.4338201,
              -0.4874437
            ],
            [
              100.4339434,
              -0.4872847
            ],
            [
              100.4339639,
              -0.4868165
            ],
            [
              100.4340422,
              -0.4866814
            ],
            [
              100.4340368,
              -0.4866008
            ],
            [
              100.4340947,
              -0.4865944
            ],
            [
              100.4340903,
              -0.4863933
            ],
            [
              100.434143,
              -0.4863304
            ],
            [
              100.433803,
              -0.4857233
            ],
            [
              100.4337695,
              -0.4856367
            ],
            [
              100.4337954,
              -0.4855122
            ],
            [
              100.4337665,
              -0.4854074
            ],
            [
              100.4337907,
              -0.4853208
            ],
            [
              100.4340108,
              -0.4852981
            ],
            [
              100.4342257,
              -0.4851717
            ],
            [
              100.4341857,
              -0.4850913
            ],
            [
              100.4343112,
              -0.4849725
            ],
            [
              100.4342085,
              -0.4848003
            ],
            [
              100.4341647,
              -0.4846055
            ],
            [
              100.4342275,
              -0.4846189
            ],
            [
              100.4343102,
              -0.4845552
            ],
            [
              100.4343102,
              -0.4844556
            ],
            [
              100.4343577,
              -0.4843676
            ],
            [
              100.4345916,
              -0.4842699
            ],
            [
              100.434717,
              -0.4840363
            ],
            [
              100.4348634,
              -0.4839693
            ],
            [
              100.4347854,
              -0.4838487
            ],
            [
              100.4349357,
              -0.4837816
            ],
            [
              100.4348615,
              -0.4836074
            ],
            [
              100.4349318,
              -0.4835557
            ],
            [
              100.4349378,
              -0.4834729
            ],
            [
              100.4347265,
              -0.4832058
            ],
            [
              100.4346581,
              -0.482934
            ],
            [
              100.4348009,
              -0.4828662
            ],
            [
              100.4348271,
              -0.4829487
            ],
            [
              100.4349753,
              -0.4830019
            ],
            [
              100.4350629,
              -0.4831263
            ],
            [
              100.4350802,
              -0.4831083
            ],
            [
              100.4352805,
              -0.4832009
            ],
            [
              100.4353963,
              -0.4831552
            ],
            [
              100.4352292,
              -0.48279
            ],
            [
              100.4351682,
              -0.4825651
            ],
            [
              100.4350808,
              -0.4824737
            ],
            [
              100.4350863,
              -0.4821267
            ],
            [
              100.4349022,
              -0.4816928
            ],
            [
              100.4346574,
              -0.4814239
            ],
            [
              100.4342947,
              -0.4813583
            ],
            [
              100.4342222,
              -0.4808964
            ],
            [
              100.4341485,
              -0.4807943
            ],
            [
              100.4340499,
              -0.4807438
            ],
            [
              100.4340141,
              -0.4806424
            ],
            [
              100.4340954,
              -0.480491
            ],
            [
              100.4340938,
              -0.4803
            ],
            [
              100.4342286,
              -0.4801714
            ],
            [
              100.4341876,
              -0.4799883
            ],
            [
              100.4342775,
              -0.4798035
            ],
            [
              100.4341778,
              -0.4796618
            ],
            [
              100.4341936,
              -0.4795182
            ],
            [
              100.4341564,
              -0.4794807
            ],
            [
              100.4340538,
              -0.4794779
            ],
            [
              100.4340563,
              -0.4794259
            ],
            [
              100.4342231,
              -0.4792932
            ],
            [
              100.4343777,
              -0.4793273
            ],
            [
              100.4345733,
              -0.4793141
            ],
            [
              100.4347155,
              -0.4791665
            ],
            [
              100.435006,
              -0.4790395
            ],
            [
              100.435025,
              -0.4788923
            ],
            [
              100.4346777,
              -0.4786363
            ],
            [
              100.4345405,
              -0.4784072
            ],
            [
              100.4346644,
              -0.478166
            ],
            [
              100.4347157,
              -0.4779736
            ],
            [
              100.4348202,
              -0.4778452
            ],
            [
              100.4348487,
              -0.4775474
            ],
            [
              100.4349941,
              -0.4774744
            ],
            [
              100.4350367,
              -0.477311
            ],
            [
              100.4348068,
              -0.476953
            ],
            [
              100.4349101,
              -0.4767524
            ],
            [
              100.4347033,
              -0.4766405
            ],
            [
              100.4345609,
              -0.4766909
            ],
            [
              100.43443,
              -0.4765775
            ],
            [
              100.4342669,
              -0.4765447
            ],
            [
              100.4341567,
              -0.4764097
            ],
            [
              100.4341755,
              -0.4760193
            ],
            [
              100.4339855,
              -0.4759265
            ],
            [
              100.4338966,
              -0.4757977
            ],
            [
              100.4338818,
              -0.4754976
            ],
            [
              100.4337415,
              -0.4754545
            ],
            [
              100.4336795,
              -0.4753943
            ],
            [
              100.4336708,
              -0.4751781
            ],
            [
              100.4335903,
              -0.4749351
            ],
            [
              100.4335918,
              -0.4748401
            ],
            [
              100.4336788,
              -0.4746062
            ],
            [
              100.4336194,
              -0.4744871
            ],
            [
              100.4336457,
              -0.4744178
            ],
            [
              100.4338195,
              -0.4743604
            ],
            [
              100.4338188,
              -0.474136
            ],
            [
              100.4337139,
              -0.4739951
            ],
            [
              100.4334759,
              -0.4738448
            ],
            [
              100.4333623,
              -0.4737064
            ],
            [
              100.4333287,
              -0.4734407
            ],
            [
              100.4332343,
              -0.4732723
            ],
            [
              100.4333026,
              -0.4730496
            ],
            [
              100.4332599,
              -0.4729658
            ],
            [
              100.4333513,
              -0.4728195
            ],
            [
              100.4332708,
              -0.4727387
            ],
            [
              100.4335066,
              -0.4726817
            ],
            [
              100.4337134,
              -0.4727236
            ],
            [
              100.4337561,
              -0.472629
            ],
            [
              100.4340105,
              -0.4725823
            ],
            [
              100.4341115,
              -0.4724974
            ],
            [
              100.4341745,
              -0.4725297
            ],
            [
              100.4342791,
              -0.4725117
            ],
            [
              100.4345952,
              -0.4726097
            ],
            [
              100.4347664,
              -0.4725499
            ],
            [
              100.4350694,
              -0.4723045
            ],
            [
              100.4351134,
              -0.4724134
            ],
            [
              100.4354034,
              -0.4723655
            ],
            [
              100.4354641,
              -0.4724326
            ],
            [
              100.4357399,
              -0.4724127
            ],
            [
              100.4357875,
              -0.4724569
            ],
            [
              100.4359205,
              -0.4721279
            ],
            [
              100.4359502,
              -0.4719412
            ],
            [
              100.4360096,
              -0.4719256
            ],
            [
              100.4360167,
              -0.4717641
            ],
            [
              100.4362163,
              -0.4714051
            ],
            [
              100.436328,
              -0.4713381
            ],
            [
              100.4363647,
              -0.4712698
            ],
            [
              100.436847,
              -0.471175
            ],
            [
              100.4369324,
              -0.4710372
            ],
            [
              100.4370633,
              -0.4710147
            ],
            [
              100.437051,
              -0.4708883
            ],
            [
              100.4371544,
              -0.4708079
            ],
            [
              100.4371671,
              -0.4707044
            ],
            [
              100.4373746,
              -0.4704371
            ],
            [
              100.4373534,
              -0.4703335
            ],
            [
              100.437406,
              -0.470191
            ],
            [
              100.4372664,
              -0.4699298
            ],
            [
              100.4372072,
              -0.4693284
            ],
            [
              100.4372887,
              -0.4690396
            ],
            [
              100.4372563,
              -0.4689524
            ],
            [
              100.4372998,
              -0.4687971
            ],
            [
              100.4372728,
              -0.4686761
            ],
            [
              100.4371889,
              -0.4686987
            ],
            [
              100.4371625,
              -0.4686584
            ],
            [
              100.4373926,
              -0.4680795
            ],
            [
              100.4374034,
              -0.4679811
            ],
            [
              100.4373441,
              -0.4678467
            ],
            [
              100.4373385,
              -0.4676628
            ],
            [
              100.4374329,
              -0.4673786
            ],
            [
              100.4374976,
              -0.4669204
            ],
            [
              100.4374573,
              -0.4665522
            ],
            [
              100.437378,
              -0.4663701
            ],
            [
              100.4373019,
              -0.4659984
            ],
            [
              100.4371685,
              -0.4658793
            ],
            [
              100.4371575,
              -0.465947
            ],
            [
              100.4370676,
              -0.4660528
            ],
            [
              100.4369586,
              -0.4661377
            ],
            [
              100.4367154,
              -0.4663566
            ],
            [
              100.436645,
              -0.4665732
            ],
            [
              100.4365661,
              -0.4666269
            ],
            [
              100.4363787,
              -0.4666173
            ],
            [
              100.4361111,
              -0.4669341
            ],
            [
              100.4359177,
              -0.4670137
            ],
            [
              100.4358031,
              -0.4670207
            ],
            [
              100.4356815,
              -0.4669801
            ],
            [
              100.4354961,
              -0.4670218
            ],
            [
              100.4354722,
              -0.4669549
            ],
            [
              100.4355233,
              -0.4666954
            ],
            [
              100.4354728,
              -0.4665461
            ],
            [
              100.4354843,
              -0.4664424
            ],
            [
              100.4353722,
              -0.466276
            ],
            [
              100.4353231,
              -0.4660494
            ],
            [
              100.4352296,
              -0.4658705
            ],
            [
              100.4350471,
              -0.4657753
            ],
            [
              100.4349909,
              -0.4658053
            ],
            [
              100.4349368,
              -0.4659159
            ],
            [
              100.4348298,
              -0.4659015
            ],
            [
              100.4347086,
              -0.4659877
            ],
            [
              100.4346458,
              -0.4659174
            ],
            [
              100.434583,
              -0.4659131
            ],
            [
              100.4346101,
              -0.4657106
            ],
            [
              100.4345288,
              -0.4656891
            ],
            [
              100.4344033,
              -0.4657437
            ],
            [
              100.4342664,
              -0.4657451
            ],
            [
              100.4342093,
              -0.4656504
            ],
            [
              100.4338285,
              -0.4654564
            ],
            [
              100.4338443,
              -0.4653423
            ],
            [
              100.4340513,
              -0.4651138
            ],
            [
              100.4340422,
              -0.4650174
            ],
            [
              100.4335789,
              -0.4644623
            ],
            [
              100.4335346,
              -0.464327
            ],
            [
              100.4336254,
              -0.4640668
            ],
            [
              100.4334581,
              -0.4638935
            ],
            [
              100.4334198,
              -0.4637788
            ],
            [
              100.4332424,
              -0.4637666
            ],
            [
              100.433202,
              -0.4637247
            ],
            [
              100.4330546,
              -0.4636984
            ],
            [
              100.432994,
              -0.4636302
            ],
            [
              100.4330201,
              -0.4634926
            ],
            [
              100.4329939,
              -0.4634125
            ],
            [
              100.4327707,
              -0.4632608
            ],
            [
              100.432725,
              -0.4631344
            ],
            [
              100.4326356,
              -0.4630234
            ],
            [
              100.4326789,
              -0.4628974
            ],
            [
              100.4326142,
              -0.4627874
            ],
            [
              100.4325818,
              -0.4626017
            ],
            [
              100.4324962,
              -0.4625471
            ],
            [
              100.4324468,
              -0.4625759
            ],
            [
              100.4323118,
              -0.4625568
            ],
            [
              100.4320848,
              -0.4628182
            ],
            [
              100.4314285,
              -0.4623327
            ],
            [
              100.4305153,
              -0.4622992
            ],
            [
              100.4302111,
              -0.4618368
            ],
            [
              100.430135,
              -0.4616511
            ],
            [
              100.4301474,
              -0.4615803
            ],
            [
              100.4299868,
              -0.4614915
            ],
            [
              100.4299172,
              -0.4612937
            ],
            [
              100.4297472,
              -0.4610548
            ],
            [
              100.4298221,
              -0.4607239
            ],
            [
              100.4296733,
              -0.460582
            ],
            [
              100.4295675,
              -0.4603957
            ],
            [
              100.4293928,
              -0.4602687
            ],
            [
              100.4290258,
              -0.4601848
            ],
            [
              100.4288732,
              -0.460187
            ],
            [
              100.4285761,
              -0.4600622
            ],
            [
              100.4282909,
              -0.4600565
            ],
            [
              100.4281483,
              -0.4599833
            ],
            [
              100.4279485,
              -0.4598096
            ],
            [
              100.4279186,
              -0.4597335
            ],
            [
              100.427657,
              -0.4596242
            ],
            [
              100.4274597,
              -0.459696
            ],
            [
              100.427279,
              -0.4596721
            ],
            [
              100.4269439,
              -0.4597129
            ],
            [
              100.426654,
              -0.4598059
            ],
            [
              100.4264925,
              -0.4596675
            ],
            [
              100.4263191,
              -0.4596378
            ],
            [
              100.4252739,
              -0.4598114
            ],
            [
              100.4252657,
              -0.4596798
            ],
            [
              100.4250936,
              -0.4593064
            ],
            [
              100.4251315,
              -0.4589462
            ],
            [
              100.4252761,
              -0.4587463
            ],
            [
              100.4252083,
              -0.4581925
            ],
            [
              100.4253283,
              -0.4578727
            ],
            [
              100.425258,
              -0.4577357
            ],
            [
              100.4251288,
              -0.4576171
            ],
            [
              100.425151,
              -0.4575247
            ],
            [
              100.4252779,
              -0.4573743
            ],
            [
              100.4253251,
              -0.4572058
            ],
            [
              100.4253001,
              -0.4569132
            ],
            [
              100.4250977,
              -0.4566839
            ],
            [
              100.4253484,
              -0.4564041
            ],
            [
              100.425233,
              -0.4560908
            ],
            [
              100.4251814,
              -0.4560515
            ],
            [
              100.4248734,
              -0.4559635
            ],
            [
              100.4245938,
              -0.4559559
            ],
            [
              100.4245348,
              -0.4558966
            ],
            [
              100.4243256,
              -0.4558124
            ],
            [
              100.4242648,
              -0.4558603
            ],
            [
              100.424183,
              -0.4557167
            ],
            [
              100.4239358,
              -0.4556497
            ],
            [
              100.423797,
              -0.4557313
            ],
            [
              100.4237219,
              -0.4559046
            ],
            [
              100.4236799,
              -0.456575
            ],
            [
              100.4236324,
              -0.4566726
            ],
            [
              100.4235421,
              -0.4566815
            ],
            [
              100.4233794,
              -0.4565692
            ],
            [
              100.4232682,
              -0.4563324
            ],
            [
              100.4232811,
              -0.4561814
            ],
            [
              100.4232383,
              -0.4561192
            ],
            [
              100.4232335,
              -0.4560235
            ],
            [
              100.4230243,
              -0.4557651
            ],
            [
              100.4229435,
              -0.4557842
            ],
            [
              100.4227081,
              -0.4556359
            ],
            [
              100.4222125,
              -0.455636
            ],
            [
              100.4219243,
              -0.4555374
            ],
            [
              100.4214575,
              -0.4554752
            ],
            [
              100.4214161,
              -0.455346
            ],
            [
              100.4211294,
              -0.4553432
            ],
            [
              100.4209685,
              -0.4552973
            ],
            [
              100.4210211,
              -0.4547965
            ],
            [
              100.4210876,
              -0.4546989
            ],
            [
              100.4210732,
              -0.4545823
            ],
            [
              100.420705,
              -0.454032
            ],
            [
              100.4202608,
              -0.4538349
            ],
            [
              100.4201516,
              -0.4538608
            ],
            [
              100.419936,
              -0.4540035
            ],
            [
              100.4199057,
              -0.4541064
            ],
            [
              100.4202317,
              -0.4547454
            ],
            [
              100.420216,
              -0.4548459
            ],
            [
              100.4200766,
              -0.4550866
            ],
            [
              100.4199373,
              -0.4551759
            ],
            [
              100.4196264,
              -0.4551875
            ],
            [
              100.4192312,
              -0.4554001
            ],
            [
              100.4189991,
              -0.4554533
            ],
            [
              100.4184682,
              -0.455698
            ],
            [
              100.4183994,
              -0.4556298
            ],
            [
              100.4183636,
              -0.4554599
            ],
            [
              100.4183925,
              -0.4553988
            ],
            [
              100.4185387,
              -0.4553346
            ],
            [
              100.4185473,
              -0.4552804
            ],
            [
              100.4183469,
              -0.4549867
            ],
            [
              100.4179963,
              -0.4548582
            ],
            [
              100.4173098,
              -0.4544156
            ],
            [
              100.4172325,
              -0.4540866
            ],
            [
              100.4173657,
              -0.4537382
            ],
            [
              100.4173678,
              -0.4534063
            ],
            [
              100.4174105,
              -0.4532432
            ],
            [
              100.4172579,
              -0.4529183
            ],
            [
              100.4172199,
              -0.4527234
            ],
            [
              100.416957,
              -0.4528852
            ],
            [
              100.4169519,
              -0.4531436
            ],
            [
              100.4168848,
              -0.4532713
            ],
            [
              100.4168191,
              -0.4533009
            ],
            [
              100.4167719,
              -0.4532059
            ],
            [
              100.4166567,
              -0.4531147
            ],
            [
              100.4166353,
              -0.4529511
            ],
            [
              100.4161032,
              -0.4527013
            ],
            [
              100.4160234,
              -0.4525937
            ],
            [
              100.4158814,
              -0.4525894
            ],
            [
              100.4156468,
              -0.4524706
            ],
            [
              100.4155721,
              -0.4525741
            ],
            [
              100.4146817,
              -0.4521081
            ],
            [
              100.4145638,
              -0.4521905
            ],
            [
              100.4143318,
              -0.4521139
            ],
            [
              100.4141941,
              -0.4521091
            ],
            [
              100.4140768,
              -0.4522355
            ],
            [
              100.4139629,
              -0.4522019
            ],
            [
              100.4137971,
              -0.4523168
            ],
            [
              100.4135475,
              -0.4522694
            ],
            [
              100.413326,
              -0.4524274
            ],
            [
              100.4132042,
              -0.4523949
            ],
            [
              100.412957,
              -0.4521633
            ],
            [
              100.4129045,
              -0.4521667
            ],
            [
              100.4129285,
              -0.452362
            ],
            [
              100.4127963,
              -0.4525392
            ],
            [
              100.4127596,
              -0.4528105
            ],
            [
              100.4126272,
              -0.452955
            ],
            [
              100.4126548,
              -0.4530739
            ],
            [
              100.4128257,
              -0.4533783
            ],
            [
              100.4125588,
              -0.4535685
            ],
            [
              100.412518,
              -0.4536427
            ],
            [
              100.4125235,
              -0.4537144
            ],
            [
              100.4126248,
              -0.4538069
            ],
            [
              100.412587,
              -0.4539288
            ],
            [
              100.4126242,
              -0.4540102
            ],
            [
              100.4124743,
              -0.4540144
            ],
            [
              100.4122328,
              -0.4541255
            ],
            [
              100.4119761,
              -0.4540375
            ],
            [
              100.4117859,
              -0.4538748
            ],
            [
              100.4116699,
              -0.4539341
            ],
            [
              100.4116338,
              -0.4540624
            ],
            [
              100.4116756,
              -0.4541792
            ],
            [
              100.4116301,
              -0.454631
            ],
            [
              100.4114229,
              -0.4547167
            ],
            [
              100.4113843,
              -0.4548513
            ],
            [
              100.4111965,
              -0.4550735
            ],
            [
              100.4111682,
              -0.4551568
            ],
            [
              100.411242,
              -0.4556336
            ],
            [
              100.411176,
              -0.4558199
            ],
            [
              100.4110236,
              -0.4559319
            ],
            [
              100.4107756,
              -0.4562559
            ],
            [
              100.4105648,
              -0.4564048
            ],
            [
              100.4105198,
              -0.4565021
            ],
            [
              100.4104336,
              -0.4564812
            ],
            [
              100.4103769,
              -0.4565112
            ],
            [
              100.4104095,
              -0.4568048
            ],
            [
              100.410318,
              -0.4570888
            ],
            [
              100.4103123,
              -0.4575427
            ],
            [
              100.4101182,
              -0.458024
            ],
            [
              100.4102427,
              -0.458369
            ],
            [
              100.4101721,
              -0.4585482
            ],
            [
              100.4101425,
              -0.4588427
            ],
            [
              100.4098679,
              -0.4589671
            ],
            [
              100.4098361,
              -0.4590217
            ],
            [
              100.40985,
              -0.4591277
            ],
            [
              100.4099496,
              -0.4591609
            ],
            [
              100.4100482,
              -0.4592585
            ],
            [
              100.4101205,
              -0.4596803
            ],
            [
              100.410403,
              -0.4600965
            ],
            [
              100.4105062,
              -0.4604088
            ],
            [
              100.4104979,
              -0.4605563
            ],
            [
              100.4104189,
              -0.4606223
            ],
            [
              100.4102331,
              -0.4606304
            ],
            [
              100.409732,
              -0.4607903
            ],
            [
              100.4096215,
              -0.4607402
            ],
            [
              100.4093529,
              -0.4607193
            ],
            [
              100.4094409,
              -0.460628
            ],
            [
              100.4094178,
              -0.4605336
            ],
            [
              100.4088271,
              -0.4601325
            ],
            [
              100.4087195,
              -0.459969
            ],
            [
              100.4088241,
              -0.4597872
            ],
            [
              100.4088445,
              -0.4596686
            ],
            [
              100.4088028,
              -0.4595315
            ],
            [
              100.4086618,
              -0.4594123
            ],
            [
              100.4086527,
              -0.4591633
            ],
            [
              100.408885,
              -0.4588171
            ],
            [
              100.4089664,
              -0.458589
            ],
            [
              100.4089421,
              -0.4584598
            ],
            [
              100.4087061,
              -0.458277
            ],
            [
              100.4083449,
              -0.4582875
            ],
            [
              100.408263,
              -0.4582408
            ],
            [
              100.4081994,
              -0.4579473
            ],
            [
              100.4080552,
              -0.4577659
            ],
            [
              100.4081657,
              -0.4575202
            ],
            [
              100.4081254,
              -0.4573408
            ],
            [
              100.4080157,
              -0.4573128
            ],
            [
              100.4076743,
              -0.4573987
            ],
            [
              100.4075492,
              -0.4574631
            ],
            [
              100.4074679,
              -0.4574296
            ],
            [
              100.4073709,
              -0.457322
            ],
            [
              100.4074062,
              -0.4570486
            ],
            [
              100.4075856,
              -0.4567694
            ],
            [
              100.4073795,
              -0.4565176
            ],
            [
              100.407362,
              -0.45642
            ],
            [
              100.4075227,
              -0.4563333
            ],
            [
              100.4078464,
              -0.4563204
            ],
            [
              100.4079126,
              -0.4562732
            ],
            [
              100.4079251,
              -0.4561983
            ],
            [
              100.4077742,
              -0.4558124
            ],
            [
              100.407672,
              -0.4556468
            ],
            [
              100.4075205,
              -0.4554817
            ],
            [
              100.4072263,
              -0.4553534
            ],
            [
              100.407112,
              -0.455102
            ],
            [
              100.4071359,
              -0.4549551
            ],
            [
              100.4072468,
              -0.4548125
            ],
            [
              100.4072079,
              -0.454527
            ],
            [
              100.4072582,
              -0.4543649
            ],
            [
              100.40773,
              -0.4540315
            ],
            [
              100.4075709,
              -0.4536671
            ],
            [
              100.4074887,
              -0.4535671
            ],
            [
              100.4073798,
              -0.4534927
            ],
            [
              100.4071637,
              -0.4534244
            ],
            [
              100.4061222,
              -0.453271
            ],
            [
              100.4053692,
              -0.4531025
            ],
            [
              100.4048908,
              -0.4530579
            ]
          ]
        ]
      },
      "id": "relation/14954678"
    },
    {
      "type": "Feature",
      "properties": {
        "@id": "node/595344601",
        "@relations": [
          {
            "role": "label",
            "rel": 14954678,
            "reltags": {
              "admin_level": "5",
              "alt_name": "Kota Padang Panjang",
              "boundary": "administrative",
              "name": "Padang Panjang",
              "name:ar": "بادانق بانجانق",
              "official_name": "Kota Padang Panjang",
              "place": "city",
              "type": "boundary",
              "wikidata": "Q7256",
              "wikipedia": "id:Kota Padang Panjang"
            }
          }
        ]
      },
      "geometry": {
        "type": "Point",
        "coordinates": [
          100.3932441,
          -0.4654636
        ]
      },
      "id": "node/595344601"
    }
  ]
}