{
  "type": "FeatureCollection",
  "generator": "overpass-turbo",
  "copyright": "The data included in this document is from www.openstreetmap.org. The data is made available under ODbL.",
  "timestamp": "2025-07-15T05:11:57Z",
  "features": [
    {
      "type": "Feature",
      "properties": {
        "@id": "relation/17857396",
        "admin_level": "7",
        "boundary": "administrative",
        "is_in:city": "Kota Padang Panjang",
        "is_in:district": "Padang Panjang Timur",
        "is_in:province": "Sumatera Barat",
        "name": "Ganting",
        "official_name": "Kelurahan Ganting",
        "place": "subdistrict",
        "type": "boundary"
      },
      "geometry": {
        "type": "Polygon",
        "coordinates": [
          [
            [
              100.4252739,
              -0.4598114
            ],
            [
              100.4252657,
              -0.4596798
            ],
            [
              100.4250936,
              -0.4593064
            ],
            [
              100.4251315,
              -0.4589462
            ],
            [
              100.4252761,
              -0.4587463
            ],
            [
              100.4252083,
              -0.4581925
            ],
            [
              100.4253283,
              -0.4578727
            ],
            [
              100.425258,
              -0.4577357
            ],
            [
              100.4251288,
              -0.4576171
            ],
            [
              100.425151,
              -0.4575247
            ],
            [
              100.4252779,
              -0.4573743
            ],
            [
              100.4253251,
              -0.4572058
            ],
            [
              100.4253001,
              -0.4569132
            ],
            [
              100.4250977,
              -0.4566839
            ],
            [
              100.4253484,
              -0.4564041
            ],
            [
              100.425233,
              -0.4560908
            ],
            [
              100.4251814,
              -0.4560515
            ],
            [
              100.4248734,
              -0.4559635
            ],
            [
              100.4245938,
              -0.4559559
            ],
            [
              100.4245348,
              -0.4558966
            ],
            [
              100.4243256,
              -0.4558124
            ],
            [
              100.4242648,
              -0.4558603
            ],
            [
              100.424183,
              -0.4557167
            ],
            [
              100.4239358,
              -0.4556497
            ],
            [
              100.423797,
              -0.4557313
            ],
            [
              100.4237219,
              -0.4559046
            ],
            [
              100.4236799,
              -0.456575
            ],
            [
              100.4236324,
              -0.4566726
            ],
            [
              100.4235421,
              -0.4566815
            ],
            [
              100.4233794,
              -0.4565692
            ],
            [
              100.4232682,
              -0.4563324
            ],
            [
              100.4232811,
              -0.4561814
            ],
            [
              100.4232383,
              -0.4561192
            ],
            [
              100.4232335,
              -0.4560235
            ],
            [
              100.4230243,
              -0.4557651
            ],
            [
              100.4229435,
              -0.4557842
            ],
            [
              100.4227081,
              -0.4556359
            ],
            [
              100.4222125,
              -0.455636
            ],
            [
              100.4219243,
              -0.4555374
            ],
            [
              100.4214575,
              -0.4554752
            ],
            [
              100.4214161,
              -0.455346
            ],
            [
              100.4211294,
              -0.4553432
            ],
            [
              100.4209685,
              -0.4552973
            ],
            [
              100.4210211,
              -0.4547965
            ],
            [
              100.4210876,
              -0.4546989
            ],
            [
              100.4210732,
              -0.4545823
            ],
            [
              100.420705,
              -0.454032
            ],
            [
              100.4202608,
              -0.4538349
            ],
            [
              100.4201516,
              -0.4538608
            ],
            [
              100.419936,
              -0.4540035
            ],
            [
              100.4199057,
              -0.4541064
            ],
            [
              100.4202317,
              -0.4547454
            ],
            [
              100.420216,
              -0.4548459
            ],
            [
              100.4200766,
              -0.4550866
            ],
            [
              100.4199373,
              -0.4551759
            ],
            [
              100.4196264,
              -0.4551875
            ],
            [
              100.4192312,
              -0.4554001
            ],
            [
              100.4189991,
              -0.4554533
            ],
            [
              100.4184682,
              -0.455698
            ],
            [
              100.4183994,
              -0.4556298
            ],
            [
              100.4183636,
              -0.4554599
            ],
            [
              100.4183925,
              -0.4553988
            ],
            [
              100.4185387,
              -0.4553346
            ],
            [
              100.4185473,
              -0.4552804
            ],
            [
              100.4183469,
              -0.4549867
            ],
            [
              100.4179963,
              -0.4548582
            ],
            [
              100.4173098,
              -0.4544156
            ],
            [
              100.4172325,
              -0.4540866
            ],
            [
              100.4173657,
              -0.4537382
            ],
            [
              100.4173678,
              -0.4534063
            ],
            [
              100.4174105,
              -0.4532432
            ],
            [
              100.4172579,
              -0.4529183
            ],
            [
              100.4172199,
              -0.4527234
            ],
            [
              100.416957,
              -0.4528852
            ],
            [
              100.4169519,
              -0.4531436
            ],
            [
              100.4168848,
              -0.4532713
            ],
            [
              100.4168191,
              -0.4533009
            ],
            [
              100.4167719,
              -0.4532059
            ],
            [
              100.4166567,
              -0.4531147
            ],
            [
              100.4166353,
              -0.4529511
            ],
            [
              100.4161032,
              -0.4527013
            ],
            [
              100.4160234,
              -0.4525937
            ],
            [
              100.4158814,
              -0.4525894
            ],
            [
              100.4156468,
              -0.4524706
            ],
            [
              100.4155721,
              -0.4525741
            ],
            [
              100.4146817,
              -0.4521081
            ],
            [
              100.4145638,
              -0.4521905
            ],
            [
              100.4143318,
              -0.4521139
            ],
            [
              100.4141941,
              -0.4521091
            ],
            [
              100.4140768,
              -0.4522355
            ],
            [
              100.4139629,
              -0.4522019
            ],
            [
              100.4137971,
              -0.4523168
            ],
            [
              100.4135475,
              -0.4522694
            ],
            [
              100.413326,
              -0.4524274
            ],
            [
              100.4132042,
              -0.4523949
            ],
            [
              100.412957,
              -0.4521633
            ],
            [
              100.4129045,
              -0.4521667
            ],
            [
              100.4129285,
              -0.452362
            ],
            [
              100.4127963,
              -0.4525392
            ],
            [
              100.4127596,
              -0.4528105
            ],
            [
              100.4126272,
              -0.452955
            ],
            [
              100.4126548,
              -0.4530739
            ],
            [
              100.4128257,
              -0.4533783
            ],
            [
              100.4125588,
              -0.4535685
            ],
            [
              100.412518,
              -0.4536427
            ],
            [
              100.4125235,
              -0.4537144
            ],
            [
              100.4126248,
              -0.4538069
            ],
            [
              100.412587,
              -0.4539288
            ],
            [
              100.4126242,
              -0.4540102
            ],
            [
              100.4124743,
              -0.4540144
            ],
            [
              100.4122328,
              -0.4541255
            ],
            [
              100.4119761,
              -0.4540375
            ],
            [
              100.4117859,
              -0.4538748
            ],
            [
              100.4116699,
              -0.4539341
            ],
            [
              100.4116338,
              -0.4540624
            ],
            [
              100.4116756,
              -0.4541792
            ],
            [
              100.4116301,
              -0.454631
            ],
            [
              100.4114229,
              -0.4547167
            ],
            [
              100.4113843,
              -0.4548513
            ],
            [
              100.4111965,
              -0.4550735
            ],
            [
              100.4111682,
              -0.4551568
            ],
            [
              100.411242,
              -0.4556336
            ],
            [
              100.411176,
              -0.4558199
            ],
            [
              100.4110236,
              -0.4559319
            ],
            [
              100.4107756,
              -0.4562559
            ],
            [
              100.4105648,
              -0.4564048
            ],
            [
              100.4105198,
              -0.4565021
            ],
            [
              100.4104336,
              -0.4564812
            ],
            [
              100.4103769,
              -0.4565112
            ],
            [
              100.4104095,
              -0.4568048
            ],
            [
              100.410318,
              -0.4570888
            ],
            [
              100.4103123,
              -0.4575427
            ],
            [
              100.4101182,
              -0.458024
            ],
            [
              100.4102427,
              -0.458369
            ],
            [
              100.4101721,
              -0.4585482
            ],
            [
              100.4101425,
              -0.4588427
            ],
            [
              100.4098679,
              -0.4589671
            ],
            [
              100.4098361,
              -0.4590217
            ],
            [
              100.40985,
              -0.4591277
            ],
            [
              100.4099496,
              -0.4591609
            ],
            [
              100.4100482,
              -0.4592585
            ],
            [
              100.4101205,
              -0.4596803
            ],
            [
              100.410403,
              -0.4600965
            ],
            [
              100.4105062,
              -0.4604088
            ],
            [
              100.4104979,
              -0.4605563
            ],
            [
              100.4104189,
              -0.4606223
            ],
            [
              100.4102331,
              -0.4606304
            ],
            [
              100.409732,
              -0.4607903
            ],
            [
              100.4096215,
              -0.4607402
            ],
            [
              100.4093529,
              -0.4607193
            ],
            [
              100.4093151,
              -0.4607557
            ],
            [
              100.4092921,
              -0.4607777
            ],
            [
              100.4092851,
              -0.460785
            ],
            [
              100.4092656,
              -0.4608082
            ],
            [
              100.4092473,
              -0.4608302
            ],
            [
              100.409229,
              -0.4608511
            ],
            [
              100.4092053,
              -0.4608751
            ],
            [
              100.4091763,
              -0.4609037
            ],
            [
              100.4091398,
              -0.4609397
            ],
            [
              100.4090675,
              -0.461009
            ],
            [
              100.4090467,
              -0.4610311
            ],
            [
              100.40904,
              -0.4610382
            ],
            [
              100.4090246,
              -0.4610579
            ],
            [
              100.409014,
              -0.461073
            ],
            [
              100.4090027,
              -0.4610911
            ],
            [
              100.4089863,
              -0.4611206
            ],
            [
              100.4089777,
              -0.4611354
            ],
            [
              100.4089672,
              -0.4611542
            ],
            [
              100.4089579,
              -0.4611717
            ],
            [
              100.4089538,
              -0.4611825
            ],
            [
              100.4089511,
              -0.4611955
            ],
            [
              100.4089509,
              -0.4611963
            ],
            [
              100.4089505,
              -0.4612107
            ],
            [
              100.4089521,
              -0.4612353
            ],
            [
              100.4089538,
              -0.4612473
            ],
            [
              100.4089586,
              -0.4612573
            ],
            [
              100.4089629,
              -0.4612623
            ],
            [
              100.4089701,
              -0.4612676
            ],
            [
              100.4090251,
              -0.4612921
            ],
            [
              100.4091167,
              -0.4613231
            ],
            [
              100.4091277,
              -0.4613267
            ],
            [
              100.409137,
              -0.4613297
            ],
            [
              100.4091936,
              -0.461346
            ],
            [
              100.4092088,
              -0.4613487
            ],
            [
              100.4092241,
              -0.46135
            ],
            [
              100.4092436,
              -0.4613477
            ],
            [
              100.4092663,
              -0.4613429
            ],
            [
              100.4093108,
              -0.4613312
            ],
            [
              100.4093236,
              -0.461329
            ],
            [
              100.4093435,
              -0.461327
            ],
            [
              100.4093651,
              -0.4613259
            ],
            [
              100.4093882,
              -0.4613262
            ],
            [
              100.409417,
              -0.4613301
            ],
            [
              100.4094351,
              -0.4613356
            ],
            [
              100.4094717,
              -0.4613541
            ],
            [
              100.4095123,
              -0.4613852
            ],
            [
              100.4095476,
              -0.4614124
            ],
            [
              100.4095855,
              -0.4614414
            ],
            [
              100.4096049,
              -0.4614562
            ],
            [
              100.4096417,
              -0.46149
            ],
            [
              100.4096579,
              -0.4615133
            ],
            [
              100.40967,
              -0.4615339
            ],
            [
              100.4096793,
              -0.4615548
            ],
            [
              100.4096892,
              -0.4615806
            ],
            [
              100.4096975,
              -0.4616148
            ],
            [
              100.4097037,
              -0.4616447
            ],
            [
              100.4097076,
              -0.461673
            ],
            [
              100.4097084,
              -0.4616788
            ],
            [
              100.40972,
              -0.4617646
            ],
            [
              100.4097283,
              -0.4618251
            ],
            [
              100.4097334,
              -0.4618537
            ],
            [
              100.409738,
              -0.4618728
            ],
            [
              100.4097443,
              -0.4618873
            ],
            [
              100.4097518,
              -0.4619036
            ],
            [
              100.4097568,
              -0.4619202
            ],
            [
              100.4097589,
              -0.461931
            ],
            [
              100.4097579,
              -0.4619569
            ],
            [
              100.4097539,
              -0.4619712
            ],
            [
              100.4097506,
              -0.4619889
            ],
            [
              100.4097481,
              -0.4620088
            ],
            [
              100.4097492,
              -0.4620342
            ],
            [
              100.4097524,
              -0.4620569
            ],
            [
              100.4097571,
              -0.462084
            ],
            [
              100.4097626,
              -0.4621059
            ],
            [
              100.4097711,
              -0.462133
            ],
            [
              100.4097783,
              -0.4621584
            ],
            [
              100.4097812,
              -0.4621723
            ],
            [
              100.4097849,
              -0.4621974
            ],
            [
              100.4097855,
              -0.4622227
            ],
            [
              100.4097837,
              -0.4622512
            ],
            [
              100.4097812,
              -0.4622807
            ],
            [
              100.4097805,
              -0.4623089
            ],
            [
              100.4097827,
              -0.462335
            ],
            [
              100.4097852,
              -0.4623578
            ],
            [
              100.4097873,
              -0.4623862
            ],
            [
              100.4097911,
              -0.4624174
            ],
            [
              100.4097964,
              -0.4624528
            ],
            [
              100.4097983,
              -0.4624755
            ],
            [
              100.4098093,
              -0.4625668
            ],
            [
              100.4098185,
              -0.4626406
            ],
            [
              100.4098192,
              -0.4626608
            ],
            [
              100.4098207,
              -0.46272
            ],
            [
              100.4098198,
              -0.4627587
            ],
            [
              100.4098184,
              -0.4627841
            ],
            [
              100.4098153,
              -0.4628065
            ],
            [
              100.4098095,
              -0.462825
            ],
            [
              100.4097945,
              -0.4628565
            ],
            [
              100.4097764,
              -0.4628918
            ],
            [
              100.4097632,
              -0.4629105
            ],
            [
              100.409754,
              -0.462923
            ],
            [
              100.4097415,
              -0.4629453
            ],
            [
              100.409741,
              -0.4629545
            ],
            [
              100.4097487,
              -0.4629681
            ],
            [
              100.4097677,
              -0.4629807
            ],
            [
              100.4097813,
              -0.4629842
            ],
            [
              100.4098071,
              -0.4629903
            ],
            [
              100.40982,
              -0.4629906
            ],
            [
              100.4098292,
              -0.4629893
            ],
            [
              100.4098377,
              -0.4629859
            ],
            [
              100.4098489,
              -0.4629785
            ],
            [
              100.4098643,
              -0.4629605
            ],
            [
              100.4098778,
              -0.4629393
            ],
            [
              100.40989,
              -0.4629237
            ],
            [
              100.4099117,
              -0.4628957
            ],
            [
              100.4099509,
              -0.4628557
            ],
            [
              100.4099817,
              -0.4628248
            ],
            [
              100.4099936,
              -0.4628134
            ],
            [
              100.4100098,
              -0.4628017
            ],
            [
              100.4100217,
              -0.4627955
            ],
            [
              100.4100231,
              -0.4627948
            ],
            [
              100.4100525,
              -0.4627853
            ],
            [
              100.4100763,
              -0.462782
            ],
            [
              100.410097,
              -0.462781
            ],
            [
              100.410122,
              -0.4627819
            ],
            [
              100.4101454,
              -0.462785
            ],
            [
              100.4101605,
              -0.4627874
            ],
            [
              100.4102295,
              -0.462805
            ],
            [
              100.4102824,
              -0.4628181
            ],
            [
              100.4103084,
              -0.4628232
            ],
            [
              100.4103352,
              -0.4628267
            ],
            [
              100.4103596,
              -0.4628293
            ],
            [
              100.4103789,
              -0.4628312
            ],
            [
              100.4103962,
              -0.4628341
            ],
            [
              100.4104176,
              -0.4628369
            ],
            [
              100.4104341,
              -0.4628379
            ],
            [
              100.4104493,
              -0.4628384
            ],
            [
              100.410462,
              -0.462838
            ],
            [
              100.4104779,
              -0.462834
            ],
            [
              100.4104968,
              -0.4628257
            ],
            [
              100.4105352,
              -0.4628081
            ],
            [
              100.4105516,
              -0.4628005
            ],
            [
              100.4105998,
              -0.4627739
            ],
            [
              100.410617,
              -0.4627549
            ],
            [
              100.4106334,
              -0.4627338
            ],
            [
              100.4106472,
              -0.4627096
            ],
            [
              100.4106584,
              -0.4626845
            ],
            [
              100.410669,
              -0.4626456
            ],
            [
              100.4106749,
              -0.4626084
            ],
            [
              100.4106756,
              -0.4625766
            ],
            [
              100.4106757,
              -0.4625462
            ],
            [
              100.4106769,
              -0.4625327
            ],
            [
              100.410678,
              -0.4625199
            ],
            [
              100.4106842,
              -0.4625004
            ],
            [
              100.4106925,
              -0.4624877
            ],
            [
              100.4107041,
              -0.4624768
            ],
            [
              100.4107138,
              -0.46247
            ],
            [
              100.4107701,
              -0.4624467
            ],
            [
              100.4108124,
              -0.4624379
            ],
            [
              100.4108264,
              -0.462437
            ],
            [
              100.4108627,
              -0.4624407
            ],
            [
              100.4109244,
              -0.4624641
            ],
            [
              100.4109413,
              -0.4624776
            ],
            [
              100.4109764,
              -0.4625219
            ],
            [
              100.4109975,
              -0.4625567
            ],
            [
              100.4110056,
              -0.4625714
            ],
            [
              100.4110432,
              -0.4626394
            ],
            [
              100.4110895,
              -0.4627229
            ],
            [
              100.4111189,
              -0.4627924
            ],
            [
              100.4111477,
              -0.4628644
            ],
            [
              100.4111679,
              -0.4629208
            ],
            [
              100.4111873,
              -0.4629516
            ],
            [
              100.4111997,
              -0.4629666
            ],
            [
              100.411224,
              -0.462989
            ],
            [
              100.4112569,
              -0.4630164
            ],
            [
              100.4112815,
              -0.4630359
            ],
            [
              100.411282,
              -0.4630363
            ],
            [
              100.411283,
              -0.4630371
            ],
            [
              100.4113597,
              -0.4630805
            ],
            [
              100.4114051,
              -0.4631062
            ],
            [
              100.4115188,
              -0.4631706
            ],
            [
              100.4117817,
              -0.4633091
            ],
            [
              100.4117983,
              -0.4633179
            ],
            [
              100.4117993,
              -0.4633308
            ],
            [
              100.4118003,
              -0.4633478
            ],
            [
              100.4118009,
              -0.4633577
            ],
            [
              100.4117974,
              -0.4633756
            ],
            [
              100.4117916,
              -0.4633925
            ],
            [
              100.4117903,
              -0.4633962
            ],
            [
              100.4117814,
              -0.4634195
            ],
            [
              100.4117719,
              -0.4634426
            ],
            [
              100.4117617,
              -0.4634642
            ],
            [
              100.4117462,
              -0.4634954
            ],
            [
              100.4117416,
              -0.4635046
            ],
            [
              100.4117393,
              -0.4635093
            ],
            [
              100.4117314,
              -0.4635253
            ],
            [
              100.4117204,
              -0.4635491
            ],
            [
              100.411712,
              -0.4635725
            ],
            [
              100.4117055,
              -0.4635934
            ],
            [
              100.4116999,
              -0.4636144
            ],
            [
              100.4116957,
              -0.4636374
            ],
            [
              100.4116898,
              -0.4636939
            ],
            [
              100.4116892,
              -0.4636978
            ],
            [
              100.4116868,
              -0.4637132
            ],
            [
              100.4116863,
              -0.4637168
            ],
            [
              100.4116808,
              -0.4637557
            ],
            [
              100.4116676,
              -0.4638492
            ],
            [
              100.4116692,
              -0.4638728
            ],
            [
              100.4116744,
              -0.4638892
            ],
            [
              100.4116827,
              -0.4639049
            ],
            [
              100.4116899,
              -0.4639155
            ],
            [
              100.4116977,
              -0.4639276
            ],
            [
              100.4117037,
              -0.46394
            ],
            [
              100.4117043,
              -0.4639418
            ],
            [
              100.4117078,
              -0.4639524
            ],
            [
              100.4117128,
              -0.4639644
            ],
            [
              100.4117187,
              -0.4639761
            ],
            [
              100.4117244,
              -0.4639848
            ],
            [
              100.4117354,
              -0.4639984
            ],
            [
              100.4117451,
              -0.4640106
            ],
            [
              100.4117584,
              -0.4640202
            ],
            [
              100.41177,
              -0.4640257
            ],
            [
              100.411785,
              -0.4640317
            ],
            [
              100.4118048,
              -0.4640376
            ],
            [
              100.4118427,
              -0.4640438
            ],
            [
              100.4119592,
              -0.4640505
            ],
            [
              100.4119693,
              -0.4640519
            ],
            [
              100.4119857,
              -0.4640542
            ],
            [
              100.4119966,
              -0.4640566
            ],
            [
              100.4120086,
              -0.4640591
            ],
            [
              100.4120106,
              -0.4640598
            ],
            [
              100.4120231,
              -0.4640645
            ],
            [
              100.4120348,
              -0.4640686
            ],
            [
              100.4120487,
              -0.4640716
            ],
            [
              100.4120733,
              -0.4640766
            ],
            [
              100.4120892,
              -0.4640787
            ],
            [
              100.4121038,
              -0.4640799
            ],
            [
              100.4121195,
              -0.4640783
            ],
            [
              100.4121407,
              -0.4640758
            ],
            [
              100.4121922,
              -0.4640598
            ],
            [
              100.4121946,
              -0.4640591
            ],
            [
              100.4122736,
              -0.4640249
            ],
            [
              100.4122809,
              -0.4640218
            ],
            [
              100.4123456,
              -0.463978
            ],
            [
              100.4123555,
              -0.4639717
            ],
            [
              100.4123961,
              -0.4639452
            ],
            [
              100.4124089,
              -0.4639342
            ],
            [
              100.4124273,
              -0.4639149
            ],
            [
              100.412432,
              -0.4639095
            ],
            [
              100.412444,
              -0.4638956
            ],
            [
              100.4124575,
              -0.4638776
            ],
            [
              100.4124716,
              -0.4638585
            ],
            [
              100.4124835,
              -0.4638396
            ],
            [
              100.4124936,
              -0.4638206
            ],
            [
              100.4125022,
              -0.4638055
            ],
            [
              100.4125112,
              -0.4637889
            ],
            [
              100.4125196,
              -0.4637734
            ],
            [
              100.412529,
              -0.4637596
            ],
            [
              100.4125408,
              -0.4637467
            ],
            [
              100.4125593,
              -0.4637341
            ],
            [
              100.4125666,
              -0.4637305
            ],
            [
              100.412571,
              -0.4637286
            ],
            [
              100.4125801,
              -0.4637249
            ],
            [
              100.4125917,
              -0.4637217
            ],
            [
              100.412606,
              -0.4637205
            ],
            [
              100.4126183,
              -0.4637223
            ],
            [
              100.4126413,
              -0.4637303
            ],
            [
              100.4126557,
              -0.4637385
            ],
            [
              100.412667,
              -0.4637502
            ],
            [
              100.412682,
              -0.4637664
            ],
            [
              100.4126949,
              -0.4637859
            ],
            [
              100.4127211,
              -0.4638452
            ],
            [
              100.4127297,
              -0.4638673
            ],
            [
              100.4127392,
              -0.4638926
            ],
            [
              100.4127507,
              -0.4639152
            ],
            [
              100.4127611,
              -0.4639341
            ],
            [
              100.4127706,
              -0.4639503
            ],
            [
              100.4127878,
              -0.4639825
            ],
            [
              100.4128008,
              -0.4640076
            ],
            [
              100.412814,
              -0.4640387
            ],
            [
              100.4128379,
              -0.4641013
            ],
            [
              100.4128431,
              -0.4641152
            ],
            [
              100.4128475,
              -0.4641269
            ],
            [
              100.4128494,
              -0.4641485
            ],
            [
              100.412848,
              -0.4641678
            ],
            [
              100.4128426,
              -0.4641989
            ],
            [
              100.412833,
              -0.4642307
            ],
            [
              100.4128299,
              -0.4642385
            ],
            [
              100.4128208,
              -0.4642607
            ],
            [
              100.4128009,
              -0.4642913
            ],
            [
              100.4127746,
              -0.464318
            ],
            [
              100.4127471,
              -0.4643418
            ],
            [
              100.412626,
              -0.4644369
            ],
            [
              100.4126038,
              -0.4644532
            ],
            [
              100.412587,
              -0.4644656
            ],
            [
              100.4125691,
              -0.464481
            ],
            [
              100.4125571,
              -0.4644973
            ],
            [
              100.4125558,
              -0.4645
            ],
            [
              100.4125479,
              -0.4645163
            ],
            [
              100.4125398,
              -0.4645446
            ],
            [
              100.4125345,
              -0.4645626
            ],
            [
              100.4125298,
              -0.4645815
            ],
            [
              100.4125226,
              -0.4646017
            ],
            [
              100.4125121,
              -0.4646222
            ],
            [
              100.412499,
              -0.4646444
            ],
            [
              100.4124816,
              -0.4646689
            ],
            [
              100.4124726,
              -0.4646789
            ],
            [
              100.4124565,
              -0.4646968
            ],
            [
              100.4124365,
              -0.4647159
            ],
            [
              100.4124154,
              -0.4647337
            ],
            [
              100.4124106,
              -0.4647376
            ],
            [
              100.4123985,
              -0.4647472
            ],
            [
              100.4123815,
              -0.4647636
            ],
            [
              100.4123671,
              -0.4647801
            ],
            [
              100.4123538,
              -0.4647997
            ],
            [
              100.4123442,
              -0.4648198
            ],
            [
              100.412337,
              -0.4648345
            ],
            [
              100.4123305,
              -0.4648571
            ],
            [
              100.4123271,
              -0.4648777
            ],
            [
              100.4123262,
              -0.4648994
            ],
            [
              100.4123302,
              -0.4649227
            ],
            [
              100.4123453,
              -0.4649737
            ],
            [
              100.4123508,
              -0.4649853
            ],
            [
              100.4123611,
              -0.4650033
            ],
            [
              100.4123721,
              -0.4650147
            ],
            [
              100.4123847,
              -0.4650239
            ],
            [
              100.4123949,
              -0.4650288
            ],
            [
              100.4124088,
              -0.4650345
            ],
            [
              100.4124107,
              -0.4650349
            ],
            [
              100.4124286,
              -0.4650394
            ],
            [
              100.4124508,
              -0.4650423
            ],
            [
              100.4124737,
              -0.4650441
            ],
            [
              100.4124933,
              -0.4650443
            ],
            [
              100.4125698,
              -0.4650517
            ],
            [
              100.4125961,
              -0.4650553
            ],
            [
              100.4126166,
              -0.4650552
            ],
            [
              100.4126367,
              -0.4650534
            ],
            [
              100.4126695,
              -0.4650389
            ],
            [
              100.4126926,
              -0.4650263
            ],
            [
              100.4127204,
              -0.4650075
            ],
            [
              100.4127395,
              -0.4649965
            ],
            [
              100.4127616,
              -0.4649858
            ],
            [
              100.4127761,
              -0.4649808
            ],
            [
              100.4127863,
              -0.4649786
            ],
            [
              100.412795,
              -0.4649799
            ],
            [
              100.4128052,
              -0.4649834
            ],
            [
              100.4128164,
              -0.4649889
            ],
            [
              100.412827,
              -0.4649978
            ],
            [
              100.4128375,
              -0.4650158
            ],
            [
              100.4128503,
              -0.4650394
            ],
            [
              100.41288,
              -0.4651083
            ],
            [
              100.4128807,
              -0.4651102
            ],
            [
              100.4129129,
              -0.4651848
            ],
            [
              100.4129369,
              -0.465246
            ],
            [
              100.4129477,
              -0.4652824
            ],
            [
              100.4129609,
              -0.465317
            ],
            [
              100.4129669,
              -0.4653288
            ],
            [
              100.4129813,
              -0.4653468
            ],
            [
              100.4129931,
              -0.4653565
            ],
            [
              100.4130124,
              -0.4653708
            ],
            [
              100.4130179,
              -0.4653745
            ],
            [
              100.4130319,
              -0.4653805
            ],
            [
              100.4130385,
              -0.4653821
            ],
            [
              100.4130517,
              -0.4653828
            ],
            [
              100.4130598,
              -0.465381
            ],
            [
              100.4130673,
              -0.4653775
            ],
            [
              100.4130775,
              -0.4653718
            ],
            [
              100.4131161,
              -0.465343
            ],
            [
              100.4131316,
              -0.4653314
            ],
            [
              100.4131644,
              -0.4653048
            ],
            [
              100.4131851,
              -0.4652791
            ],
            [
              100.4131917,
              -0.4652674
            ],
            [
              100.4131994,
              -0.4652514
            ],
            [
              100.4132082,
              -0.4652216
            ],
            [
              100.4132115,
              -0.4652021
            ],
            [
              100.4132134,
              -0.4651852
            ],
            [
              100.4132161,
              -0.4651674
            ],
            [
              100.4132221,
              -0.4651481
            ],
            [
              100.4132289,
              -0.4651329
            ],
            [
              100.4132373,
              -0.4651166
            ],
            [
              100.4132464,
              -0.4650962
            ],
            [
              100.4132513,
              -0.4650801
            ],
            [
              100.4132657,
              -0.4650522
            ],
            [
              100.4132767,
              -0.4650386
            ],
            [
              100.4132984,
              -0.4650173
            ],
            [
              100.4133141,
              -0.465004
            ],
            [
              100.4133291,
              -0.464993
            ],
            [
              100.4133435,
              -0.4649861
            ],
            [
              100.41337,
              -0.4649787
            ],
            [
              100.4133851,
              -0.464977
            ],
            [
              100.4134005,
              -0.4649774
            ],
            [
              100.4134196,
              -0.4649784
            ],
            [
              100.413446,
              -0.4649798
            ],
            [
              100.41347,
              -0.4649833
            ],
            [
              100.4135224,
              -0.4649977
            ],
            [
              100.4135357,
              -0.4650039
            ],
            [
              100.4135573,
              -0.4650124
            ],
            [
              100.4135742,
              -0.4650205
            ],
            [
              100.4135909,
              -0.4650291
            ],
            [
              100.4136179,
              -0.4650449
            ],
            [
              100.4136342,
              -0.4650546
            ],
            [
              100.4136468,
              -0.4650632
            ],
            [
              100.4136529,
              -0.4650698
            ],
            [
              100.4136624,
              -0.4650832
            ],
            [
              100.4136772,
              -0.4651061
            ],
            [
              100.4136788,
              -0.4651152
            ],
            [
              100.4136896,
              -0.4651599
            ],
            [
              100.413694,
              -0.4651834
            ],
            [
              100.4136973,
              -0.4652131
            ],
            [
              100.4136996,
              -0.4652429
            ],
            [
              100.4137014,
              -0.4652723
            ],
            [
              100.4137015,
              -0.4652915
            ],
            [
              100.4136997,
              -0.4653187
            ],
            [
              100.4136981,
              -0.465339
            ],
            [
              100.4136973,
              -0.4653636
            ],
            [
              100.4136983,
              -0.4653923
            ],
            [
              100.4136996,
              -0.4654173
            ],
            [
              100.4137,
              -0.4654306
            ],
            [
              100.4137033,
              -0.4654539
            ],
            [
              100.4137095,
              -0.4654796
            ],
            [
              100.4137159,
              -0.4655035
            ],
            [
              100.413722,
              -0.4655282
            ],
            [
              100.4137425,
              -0.46562
            ],
            [
              100.4137502,
              -0.4656489
            ],
            [
              100.4137564,
              -0.4656689
            ],
            [
              100.4137593,
              -0.4656832
            ],
            [
              100.4137616,
              -0.4657073
            ],
            [
              100.4137582,
              -0.4657619
            ],
            [
              100.4137545,
              -0.4657853
            ],
            [
              100.413752,
              -0.4658093
            ],
            [
              100.4137516,
              -0.4658371
            ],
            [
              100.4137545,
              -0.4658617
            ],
            [
              100.4137576,
              -0.4658802
            ],
            [
              100.4137658,
              -0.4659095
            ],
            [
              100.4137761,
              -0.4659342
            ],
            [
              100.4137864,
              -0.4659559
            ],
            [
              100.4137965,
              -0.4659762
            ],
            [
              100.4138095,
              -0.4660056
            ],
            [
              100.413817,
              -0.4660272
            ],
            [
              100.4138213,
              -0.4660469
            ],
            [
              100.4138244,
              -0.4660691
            ],
            [
              100.413827,
              -0.4660981
            ],
            [
              100.4138272,
              -0.4661144
            ],
            [
              100.4138242,
              -0.4661436
            ],
            [
              100.4138204,
              -0.4661705
            ],
            [
              100.4138173,
              -0.4661874
            ],
            [
              100.4138134,
              -0.4662003
            ],
            [
              100.4138126,
              -0.4663938
            ],
            [
              100.4137877,
              -0.4665086
            ],
            [
              100.4137663,
              -0.4665589
            ],
            [
              100.4137214,
              -0.4665987
            ],
            [
              100.4136438,
              -0.4666234
            ],
            [
              100.4135943,
              -0.4666503
            ],
            [
              100.4135772,
              -0.4666732
            ],
            [
              100.4135734,
              -0.4666962
            ],
            [
              100.4135753,
              -0.4667115
            ],
            [
              100.4135773,
              -0.4667661
            ],
            [
              100.4135897,
              -0.4667859
            ],
            [
              100.4135964,
              -0.4668016
            ],
            [
              100.4135998,
              -0.4668181
            ],
            [
              100.4136001,
              -0.4668336
            ],
            [
              100.4136012,
              -0.4668516
            ],
            [
              100.413604,
              -0.4668712
            ],
            [
              100.4136093,
              -0.4668836
            ],
            [
              100.4136155,
              -0.4668926
            ],
            [
              100.4136268,
              -0.4669024
            ],
            [
              100.4136417,
              -0.4669123
            ],
            [
              100.4136538,
              -0.4669204
            ],
            [
              100.4136646,
              -0.4669325
            ],
            [
              100.4136805,
              -0.4669646
            ],
            [
              100.4136857,
              -0.466986
            ],
            [
              100.4136885,
              -0.4670091
            ],
            [
              100.4136877,
              -0.4670326
            ],
            [
              100.4136838,
              -0.4670633
            ],
            [
              100.4136797,
              -0.4670932
            ],
            [
              100.4136783,
              -0.4671171
            ],
            [
              100.4136819,
              -0.467143
            ],
            [
              100.4136879,
              -0.4671602
            ],
            [
              100.4136987,
              -0.4671835
            ],
            [
              100.4137385,
              -0.4672609
            ],
            [
              100.4137765,
              -0.4673415
            ],
            [
              100.413787,
              -0.4673609
            ],
            [
              100.4137987,
              -0.467381
            ],
            [
              100.4138106,
              -0.467396
            ],
            [
              100.4138228,
              -0.4674081
            ],
            [
              100.4138336,
              -0.4674181
            ],
            [
              100.4138471,
              -0.4674298
            ],
            [
              100.4138582,
              -0.4674367
            ],
            [
              100.4139176,
              -0.4674633
            ],
            [
              100.4139347,
              -0.4674705
            ],
            [
              100.4139523,
              -0.4674753
            ],
            [
              100.4139663,
              -0.4674777
            ],
            [
              100.4139822,
              -0.4674794
            ],
            [
              100.4139979,
              -0.4674804
            ],
            [
              100.4140115,
              -0.4674796
            ],
            [
              100.4140429,
              -0.4674763
            ],
            [
              100.4140596,
              -0.467475
            ],
            [
              100.4140782,
              -0.4674725
            ],
            [
              100.4141061,
              -0.4674682
            ],
            [
              100.4141458,
              -0.467467
            ],
            [
              100.4141652,
              -0.467466
            ],
            [
              100.4141883,
              -0.4674663
            ],
            [
              100.4142711,
              -0.4674731
            ],
            [
              100.4142843,
              -0.4674726
            ],
            [
              100.4143007,
              -0.4674727
            ],
            [
              100.4143074,
              -0.4674735
            ],
            [
              100.4143428,
              -0.4674755
            ],
            [
              100.4143798,
              -0.4674728
            ],
            [
              100.4143997,
              -0.4674706
            ],
            [
              100.4144157,
              -0.4674691
            ],
            [
              100.4144254,
              -0.4674691
            ],
            [
              100.4144486,
              -0.4674693
            ],
            [
              100.4144629,
              -0.4674691
            ],
            [
              100.41448,
              -0.467472
            ],
            [
              100.4144972,
              -0.4674771
            ],
            [
              100.414511,
              -0.4674827
            ],
            [
              100.4145238,
              -0.4674901
            ],
            [
              100.4145333,
              -0.4674996
            ],
            [
              100.4147344,
              -0.4674871
            ],
            [
              100.414772,
              -0.4674959
            ],
            [
              100.4147934,
              -0.4675294
            ],
            [
              100.4148171,
              -0.4675773
            ],
            [
              100.4148552,
              -0.4675964
            ],
            [
              100.4149265,
              -0.4676012
            ],
            [
              100.4149788,
              -0.467582
            ],
            [
              100.4150596,
              -0.4675294
            ],
            [
              100.4150881,
              -0.4675437
            ],
            [
              100.4151309,
              -0.4675533
            ],
            [
              100.4151689,
              -0.4675485
            ],
            [
              100.4152022,
              -0.4675365
            ],
            [
              100.4152331,
              -0.4675724
            ],
            [
              100.4152426,
              -0.4676346
            ],
            [
              100.4152403,
              -0.4676897
            ],
            [
              100.415226,
              -0.4677304
            ],
            [
              100.4152023,
              -0.4678117
            ],
            [
              100.4151975,
              -0.4678524
            ],
            [
              100.4152094,
              -0.4679074
            ],
            [
              100.4152356,
              -0.4679984
            ],
            [
              100.4153972,
              -0.4680007
            ],
            [
              100.4154091,
              -0.4679529
            ],
            [
              100.4154257,
              -0.4678811
            ],
            [
              100.4154471,
              -0.4678595
            ],
            [
              100.4155279,
              -0.4678332
            ],
            [
              100.4155755,
              -0.4678021
            ],
            [
              100.4156087,
              -0.467759
            ],
            [
              100.4156249,
              -0.4677221
            ],
            [
              100.415662,
              -0.4676977
            ],
            [
              100.4157604,
              -0.4677135
            ],
            [
              100.415749,
              -0.4677594
            ],
            [
              100.4157433,
              -0.4678054
            ],
            [
              100.4157447,
              -0.4678399
            ],
            [
              100.4157533,
              -0.4678657
            ],
            [
              100.4157619,
              -0.4679002
            ],
            [
              100.4157804,
              -0.467926
            ],
            [
              100.4158146,
              -0.4679447
            ],
            [
              100.415866,
              -0.467949
            ],
            [
              100.4159359,
              -0.467969
            ],
            [
              100.4159658,
              -0.4680035
            ],
            [
              100.4159887,
              -0.4680322
            ],
            [
              100.4160044,
              -0.4680652
            ],
            [
              100.4160099,
              -0.4680786
            ],
            [
              100.4160785,
              -0.4681214
            ],
            [
              100.4161189,
              -0.4681549
            ],
            [
              100.4161498,
              -0.4681932
            ],
            [
              100.4161593,
              -0.4682195
            ],
            [
              100.4161712,
              -0.4682363
            ],
            [
              100.4161878,
              -0.4682674
            ],
            [
              100.4162069,
              -0.4682841
            ],
            [
              100.4162378,
              -0.4682889
            ],
            [
              100.4162378,
              -0.4683128
            ],
            [
              100.4162277,
              -0.4683304
            ],
            [
              100.4162239,
              -0.4683534
            ],
            [
              100.4162239,
              -0.4683707
            ],
            [
              100.4162239,
              -0.4683955
            ],
            [
              100.4162182,
              -0.4684185
            ],
            [
              100.4162125,
              -0.4684396
            ],
            [
              100.4162182,
              -0.4684549
            ],
            [
              100.4162467,
              -0.4684779
            ],
            [
              100.4162943,
              -0.4684989
            ],
            [
              100.4163247,
              -0.4684932
            ],
            [
              100.4163614,
              -0.4684947
            ],
            [
              100.4164066,
              -0.4685042
            ],
            [
              100.4164494,
              -0.468533
            ],
            [
              100.4164874,
              -0.4685569
            ],
            [
              100.4165064,
              -0.4685976
            ],
            [
              100.4165088,
              -0.4686406
            ],
            [
              100.4165183,
              -0.4686622
            ],
            [
              100.4165421,
              -0.4687004
            ],
            [
              100.4165635,
              -0.46871
            ],
            [
              100.4165873,
              -0.4687292
            ],
            [
              100.4165992,
              -0.4687579
            ],
            [
              100.4166111,
              -0.4688105
            ],
            [
              100.4166134,
              -0.4688488
            ],
            [
              100.4166325,
              -0.4688871
            ],
            [
              100.4166586,
              -0.468899
            ],
            [
              100.4166776,
              -0.4689062
            ],
            [
              100.4166848,
              -0.4689445
            ],
            [
              100.4167252,
              -0.4689589
            ],
            [
              100.4168203,
              -0.4689636
            ],
            [
              100.4169106,
              -0.468966
            ],
            [
              100.4169724,
              -0.4689445
            ],
            [
              100.4169986,
              -0.4689349
            ],
            [
              100.417058,
              -0.4689014
            ],
            [
              100.4170889,
              -0.468887
            ],
            [
              100.417077,
              -0.4688607
            ],
            [
              100.417058,
              -0.4688128
            ],
            [
              100.4170722,
              -0.4687961
            ],
            [
              100.4171721,
              -0.4687793
            ],
            [
              100.4173313,
              -0.4687817
            ],
            [
              100.4174098,
              -0.4687721
            ],
            [
              100.4174787,
              -0.4687577
            ],
            [
              100.4175357,
              -0.4687744
            ],
            [
              100.4175762,
              -0.4687984
            ],
            [
              100.4176118,
              -0.4688127
            ],
            [
              100.417676,
              -0.468851
            ],
            [
              100.4176927,
              -0.4688653
            ],
            [
              100.4177568,
              -0.4688893
            ],
            [
              100.4178234,
              -0.4689036
            ],
            [
              100.4178852,
              -0.4689443
            ],
            [
              100.4179399,
              -0.4689897
            ],
            [
              100.4180074,
              -0.4689851
            ],
            [
              100.4180133,
              -0.4689313
            ],
            [
              100.4180905,
              -0.4687757
            ],
            [
              100.4181826,
              -0.4688445
            ],
            [
              100.4181529,
              -0.4688714
            ],
            [
              100.4182421,
              -0.4689222
            ],
            [
              100.4182267,
              -0.468948
            ],
            [
              100.4182213,
              -0.469015
            ],
            [
              100.4182243,
              -0.4690479
            ],
            [
              100.418251,
              -0.4690898
            ],
            [
              100.4182867,
              -0.4690688
            ],
            [
              100.4182867,
              -0.4690329
            ],
            [
              100.4183223,
              -0.4689821
            ],
            [
              100.4183732,
              -0.4689358
            ],
            [
              100.4184086,
              -0.4689328
            ],
            [
              100.4184858,
              -0.4689701
            ],
            [
              100.4185511,
              -0.4690089
            ],
            [
              100.4186343,
              -0.4689999
            ],
            [
              100.4187086,
              -0.4689909
            ],
            [
              100.418774,
              -0.468976
            ],
            [
              100.4188453,
              -0.4689431
            ],
            [
              100.4189072,
              -0.4689223
            ],
            [
              100.4189404,
              -0.4689071
            ],
            [
              100.4189998,
              -0.4688982
            ],
            [
              100.4190503,
              -0.4689101
            ],
            [
              100.41908,
              -0.468931
            ],
            [
              100.419187,
              -0.468946
            ],
            [
              100.4192256,
              -0.4689609
            ],
            [
              100.4192702,
              -0.4689759
            ],
            [
              100.4192969,
              -0.4689848
            ],
            [
              100.4193326,
              -0.4689789
            ],
            [
              100.4193712,
              -0.4690118
            ],
            [
              100.4194069,
              -0.4690536
            ],
            [
              100.4194634,
              -0.4691045
            ],
            [
              100.4194782,
              -0.4691344
            ],
            [
              100.4194901,
              -0.4691792
            ],
            [
              100.4194961,
              -0.4692092
            ],
            [
              100.419505,
              -0.469257
            ],
            [
              100.4195317,
              -0.4692809
            ],
            [
              100.4195823,
              -0.4692899
            ],
            [
              100.4196833,
              -0.4692659
            ],
            [
              100.4197813,
              -0.4692599
            ],
            [
              100.4198675,
              -0.469251
            ],
            [
              100.419924,
              -0.4692509
            ],
            [
              100.4200012,
              -0.4692629
            ],
            [
              100.4200933,
              -0.4692778
            ],
            [
              100.4202211,
              -0.4693197
            ],
            [
              100.4202984,
              -0.4693974
            ],
            [
              100.4203727,
              -0.4694573
            ],
            [
              100.420438,
              -0.4694722
            ],
            [
              100.4205064,
              -0.4694333
            ],
            [
              100.4205509,
              -0.4694094
            ],
            [
              100.4205777,
              -0.4693645
            ],
            [
              100.4206163,
              -0.4693136
            ],
            [
              100.4206549,
              -0.4692747
            ],
            [
              100.4207084,
              -0.4692538
            ],
            [
              100.4208005,
              -0.4692268
            ],
            [
              100.4208659,
              -0.4691849
            ],
            [
              100.4208777,
              -0.4691012
            ],
            [
              100.4209134,
              -0.4690055
            ],
            [
              100.4209817,
              -0.4689516
            ],
            [
              100.4210887,
              -0.4688768
            ],
            [
              100.421157,
              -0.4688648
            ],
            [
              100.4212283,
              -0.4688768
            ],
            [
              100.4212697,
              -0.4688845
            ],
            [
              100.4213196,
              -0.4688788
            ],
            [
              100.4213766,
              -0.4688601
            ],
            [
              100.4213875,
              -0.4688443
            ],
            [
              100.4214078,
              -0.4688558
            ],
            [
              100.4214389,
              -0.4688891
            ],
            [
              100.4214443,
              -0.4688934
            ],
            [
              100.4214647,
              -0.4689099
            ],
            [
              100.4214902,
              -0.4689257
            ],
            [
              100.4215087,
              -0.468933
            ],
            [
              100.4215422,
              -0.4689403
            ],
            [
              100.4215758,
              -0.4689476
            ],
            [
              100.421605,
              -0.4689497
            ],
            [
              100.421644,
              -0.4689476
            ],
            [
              100.4217143,
              -0.4689441
            ],
            [
              100.4217499,
              -0.4689395
            ],
            [
              100.4217672,
              -0.468936
            ],
            [
              100.4217921,
              -0.4689334
            ],
            [
              100.4218092,
              -0.4689344
            ],
            [
              100.4218654,
              -0.4689387
            ],
            [
              100.4218859,
              -0.468937
            ],
            [
              100.4219033,
              -0.4689345
            ],
            [
              100.4219044,
              -0.4689343
            ],
            [
              100.4219225,
              -0.4689325
            ],
            [
              100.4219434,
              -0.4689362
            ],
            [
              100.4219588,
              -0.4689473
            ],
            [
              100.4220218,
              -0.4689045
            ],
            [
              100.4221858,
              -0.4688327
            ],
            [
              100.4222642,
              -0.4687824
            ],
            [
              100.4223391,
              -0.4687214
            ],
            [
              100.4226564,
              -0.4685454
            ],
            [
              100.4228347,
              -0.46847
            ],
            [
              100.4230379,
              -0.4684269
            ],
            [
              100.4232616,
              -0.4684312
            ],
            [
              100.4235069,
              -0.4684215
            ],
            [
              100.4236286,
              -0.4684273
            ],
            [
              100.4237408,
              -0.4684234
            ],
            [
              100.423853,
              -0.4684253
            ],
            [
              100.4239131,
              -0.4684335
            ],
            [
              100.4239348,
              -0.4684961
            ],
            [
              100.4239718,
              -0.4686038
            ],
            [
              100.4240639,
              -0.4688879
            ],
            [
              100.4241114,
              -0.4690211
            ],
            [
              100.4242064,
              -0.4690031
            ],
            [
              100.4243877,
              -0.4689193
            ],
            [
              100.4244798,
              -0.4688655
            ],
            [
              100.4245386,
              -0.4688182
            ],
            [
              100.4246028,
              -0.4687464
            ],
            [
              100.4246562,
              -0.468671
            ],
            [
              100.4246954,
              -0.4686028
            ],
            [
              100.4247168,
              -0.4685525
            ],
            [
              100.424756,
              -0.4684951
            ],
            [
              100.4248202,
              -0.4684197
            ],
            [
              100.4248772,
              -0.4683622
            ],
            [
              100.4249485,
              -0.4683048
            ],
            [
              100.4249878,
              -0.4682474
            ],
            [
              100.4249378,
              -0.4681612
            ],
            [
              100.4248665,
              -0.4680751
            ],
            [
              100.4248166,
              -0.4680033
            ],
            [
              100.4248094,
              -0.4679172
            ],
            [
              100.4248094,
              -0.467831
            ],
            [
              100.4248735,
              -0.4676443
            ],
            [
              100.4249163,
              -0.4675223
            ],
            [
              100.4249585,
              -0.4674355
            ],
            [
              100.4250162,
              -0.4673685
            ],
            [
              100.4250697,
              -0.4673057
            ],
            [
              100.4251232,
              -0.4672578
            ],
            [
              100.4251707,
              -0.467183
            ],
            [
              100.4252004,
              -0.4671322
            ],
            [
              100.4252233,
              -0.4669871
            ],
            [
              100.4252951,
              -0.4668755
            ],
            [
              100.425373,
              -0.4668092
            ],
            [
              100.4254279,
              -0.4667237
            ],
            [
              100.4254316,
              -0.4667194
            ],
            [
              100.4255598,
              -0.4666505
            ],
            [
              100.4257619,
              -0.4665129
            ],
            [
              100.4259193,
              -0.4663782
            ],
            [
              100.4261362,
              -0.4661598
            ],
            [
              100.4262491,
              -0.4660192
            ],
            [
              100.4263441,
              -0.4658876
            ],
            [
              100.4263768,
              -0.4657978
            ],
            [
              100.4264005,
              -0.465741
            ],
            [
              100.4264273,
              -0.4656782
            ],
            [
              100.426454,
              -0.4656093
            ],
            [
              100.4264748,
              -0.4655555
            ],
            [
              100.4264956,
              -0.4655076
            ],
            [
              100.4265372,
              -0.4653581
            ],
            [
              100.4265579,
              -0.4653162
            ],
            [
              100.4266055,
              -0.4652653
            ],
            [
              100.426656,
              -0.4651845
            ],
            [
              100.4267069,
              -0.4651292
            ],
            [
              100.426743,
              -0.4650574
            ],
            [
              100.4267496,
              -0.4649954
            ],
            [
              100.4267712,
              -0.4647923
            ],
            [
              100.4267637,
              -0.4645336
            ],
            [
              100.4267755,
              -0.4642225
            ],
            [
              100.4267684,
              -0.4641028
            ],
            [
              100.4267612,
              -0.4639927
            ],
            [
              100.4267517,
              -0.4638898
            ],
            [
              100.4267892,
              -0.4637793
            ],
            [
              100.4268191,
              -0.4637343
            ],
            [
              100.4268296,
              -0.4636285
            ],
            [
              100.4268106,
              -0.4635424
            ],
            [
              100.4267963,
              -0.4634897
            ],
            [
              100.4267559,
              -0.463394
            ],
            [
              100.4267344,
              -0.4633492
            ],
            [
              100.4267132,
              -0.4633527
            ],
            [
              100.4267094,
              -0.4633532
            ],
            [
              100.4266743,
              -0.4633579
            ],
            [
              100.4266452,
              -0.463354
            ],
            [
              100.4266233,
              -0.4633465
            ],
            [
              100.4265894,
              -0.4633255
            ],
            [
              100.4265676,
              -0.4632983
            ],
            [
              100.4265471,
              -0.4632618
            ],
            [
              100.4265348,
              -0.463232
            ],
            [
              100.4265309,
              -0.4632103
            ],
            [
              100.4265322,
              -0.4631895
            ],
            [
              100.4265386,
              -0.4631627
            ],
            [
              100.4265498,
              -0.4631387
            ],
            [
              100.4265663,
              -0.4631021
            ],
            [
              100.4265696,
              -0.4630923
            ],
            [
              100.4265737,
              -0.4630802
            ],
            [
              100.4265773,
              -0.4630563
            ],
            [
              100.4265764,
              -0.4630322
            ],
            [
              100.4265662,
              -0.4629937
            ],
            [
              100.4265581,
              -0.4629658
            ],
            [
              100.426554,
              -0.4629536
            ],
            [
              100.4265463,
              -0.4629308
            ],
            [
              100.426534,
              -0.4629025
            ],
            [
              100.4265206,
              -0.4628757
            ],
            [
              100.426507,
              -0.4628495
            ],
            [
              100.4265052,
              -0.462844
            ],
            [
              100.4264855,
              -0.4627843
            ],
            [
              100.4264715,
              -0.4627525
            ],
            [
              100.4264597,
              -0.4627243
            ],
            [
              100.4264472,
              -0.4626976
            ],
            [
              100.426434,
              -0.4626679
            ],
            [
              100.426424,
              -0.4626443
            ],
            [
              100.4264136,
              -0.4626124
            ],
            [
              100.4264063,
              -0.4625801
            ],
            [
              100.4264008,
              -0.4625545
            ],
            [
              100.4263975,
              -0.4625325
            ],
            [
              100.4263905,
              -0.4625098
            ],
            [
              100.4263804,
              -0.462486
            ],
            [
              100.4263742,
              -0.4624633
            ],
            [
              100.4263675,
              -0.4624341
            ],
            [
              100.4263679,
              -0.4624045
            ],
            [
              100.4263726,
              -0.4623773
            ],
            [
              100.4263773,
              -0.4623474
            ],
            [
              100.4263841,
              -0.4623254
            ],
            [
              100.4263841,
              -0.4623253
            ],
            [
              100.4263934,
              -0.4623053
            ],
            [
              100.4264061,
              -0.4622639
            ],
            [
              100.4264092,
              -0.462235
            ],
            [
              100.4264103,
              -0.4622149
            ],
            [
              100.4264159,
              -0.4621861
            ],
            [
              100.4264212,
              -0.462161
            ],
            [
              100.4264252,
              -0.4621489
            ],
            [
              100.4264096,
              -0.4620828
            ],
            [
              100.4264331,
              -0.4619843
            ],
            [
              100.4264545,
              -0.4618949
            ],
            [
              100.4264583,
              -0.4618625
            ],
            [
              100.4264601,
              -0.4618302
            ],
            [
              100.4264545,
              -0.4618093
            ],
            [
              100.4264404,
              -0.4617862
            ],
            [
              100.4263977,
              -0.4617161
            ],
            [
              100.4263259,
              -0.4616152
            ],
            [
              100.4262975,
              -0.4615769
            ],
            [
              100.4262844,
              -0.4615526
            ],
            [
              100.4262083,
              -0.4612301
            ],
            [
              100.4262082,
              -0.4612436
            ],
            [
              100.4262049,
              -0.4612329
            ],
            [
              100.4261957,
              -0.4612053
            ],
            [
              100.4261952,
              -0.4612037
            ],
            [
              100.4261855,
              -0.4611765
            ],
            [
              100.426168,
              -0.4610704
            ],
            [
              100.4261654,
              -0.4610485
            ],
            [
              100.4261653,
              -0.461048
            ],
            [
              100.4261433,
              -0.4609548
            ],
            [
              100.4261326,
              -0.4609095
            ],
            [
              100.4261273,
              -0.4608987
            ],
            [
              100.4261136,
              -0.4608745
            ],
            [
              100.4261021,
              -0.4608594
            ],
            [
              100.4260858,
              -0.4608496
            ],
            [
              100.4260656,
              -0.4608381
            ],
            [
              100.4260445,
              -0.4608239
            ],
            [
              100.4260128,
              -0.4607922
            ],
            [
              100.4260007,
              -0.4607659
            ],
            [
              100.4259907,
              -0.460735
            ],
            [
              100.4259797,
              -0.4607066
            ],
            [
              100.4259703,
              -0.4606816
            ],
            [
              100.4259588,
              -0.4606525
            ],
            [
              100.4259507,
              -0.460625
            ],
            [
              100.4259387,
              -0.4605944
            ],
            [
              100.4259259,
              -0.4605689
            ],
            [
              100.4259073,
              -0.460538
            ],
            [
              100.4259066,
              -0.4605369
            ],
            [
              100.4258842,
              -0.4605051
            ],
            [
              100.4258254,
              -0.4604436
            ],
            [
              100.4258021,
              -0.4604272
            ],
            [
              100.4257699,
              -0.4604122
            ],
            [
              100.4257485,
              -0.4604037
            ],
            [
              100.4257336,
              -0.460397
            ],
            [
              100.4257183,
              -0.4603902
            ],
            [
              100.4256934,
              -0.460373
            ],
            [
              100.4256695,
              -0.4603475
            ],
            [
              100.4256523,
              -0.4603218
            ],
            [
              100.4256398,
              -0.4602911
            ],
            [
              100.4256322,
              -0.4602637
            ],
            [
              100.4256315,
              -0.4602384
            ],
            [
              100.4256327,
              -0.4602147
            ],
            [
              100.4256331,
              -0.4601889
            ],
            [
              100.4256323,
              -0.4601584
            ],
            [
              100.4256338,
              -0.460131
            ],
            [
              100.4256322,
              -0.4600956
            ],
            [
              100.4256243,
              -0.4600724
            ],
            [
              100.4256103,
              -0.4600521
            ],
            [
              100.4255957,
              -0.4600415
            ],
            [
              100.4255794,
              -0.4600339
            ],
            [
              100.4255639,
              -0.4600282
            ],
            [
              100.4255489,
              -0.4600202
            ],
            [
              100.4255143,
              -0.4600068
            ],
            [
              100.425503,
              -0.4600027
            ],
            [
              100.4254917,
              -0.4600036
            ],
            [
              100.4254748,
              -0.4600055
            ],
            [
              100.4254596,
              -0.4600086
            ],
            [
              100.4254448,
              -0.4600134
            ],
            [
              100.4254119,
              -0.4600148
            ],
            [
              100.4253816,
              -0.4600144
            ],
            [
              100.4253601,
              -0.4600079
            ],
            [
              100.4253462,
              -0.4600002
            ],
            [
              100.4253334,
              -0.4599927
            ],
            [
              100.4253211,
              -0.4599813
            ],
            [
              100.4253111,
              -0.4599661
            ],
            [
              100.4253085,
              -0.4599598
            ],
            [
              100.4253037,
              -0.4599494
            ],
            [
              100.4252948,
              -0.4599276
            ],
            [
              100.4252875,
              -0.4599092
            ],
            [
              100.4252818,
              -0.4598913
            ],
            [
              100.4252774,
              -0.4598665
            ],
            [
              100.4252739,
              -0.4598114
            ]
          ]
        ]
      },
      "id": "relation/17857396"
    }
  ]
}