{
  "type": "FeatureCollection",
  "generator": "overpass-turbo",
  "copyright": "The data included in this document is from www.openstreetmap.org. The data is made available under ODbL.",
  "timestamp": "2025-07-15T05:13:00Z",
  "features": [
    {
      "type": "Feature",
      "properties": {
        "@id": "relation/17857400",
        "admin_level": "7",
        "boundary": "administrative",
        "is_in:city": "Kota Padang Panjang",
        "is_in:district": "Padang Panjang Timur",
        "is_in:province": "Sumatera Barat",
        "name": "Guguk Malintang",
        "official_name": "Kelurahan Guguk Malintang",
        "place": "subdistrict",
        "type": "boundary"
      },
      "geometry": {
        "type": "Polygon",
        "coordinates": [
          [
            [
              100.4011309,
              -0.4620058
            ],
            [
              100.4016481,
              -0.4610091
            ],
            [
              100.4019528,
              -0.4611652
            ],
            [
              100.4019908,
              -0.4611531
            ],
            [
              100.4020146,
              -0.4611555
            ],
            [
              100.4020883,
              -0.461189
            ],
            [
              100.4022975,
              -0.4613038
            ],
            [
              100.4027873,
              -0.4615739
            ],
            [
              100.4028667,
              -0.4616177
            ],
            [
              100.4029486,
              -0.4616676
            ],
            [
              100.4030338,
              -0.4617352
            ],
            [
              100.4030663,
              -0.4617609
            ],
            [
              100.4031614,
              -0.4618435
            ],
            [
              100.4032672,
              -0.4619356
            ],
            [
              100.4034619,
              -0.4620833
            ],
            [
              100.4037041,
              -0.4622013
            ],
            [
              100.4037472,
              -0.4622223
            ],
            [
              100.403784,
              -0.4622402
            ],
            [
              100.403818,
              -0.4622568
            ],
            [
              100.4038482,
              -0.4622715
            ],
            [
              100.4039335,
              -0.4623131
            ],
            [
              100.403982,
              -0.4623367
            ],
            [
              100.4039831,
              -0.4623368
            ],
            [
              100.404001,
              -0.4623387
            ],
            [
              100.4042272,
              -0.4623622
            ],
            [
              100.4042543,
              -0.462365
            ],
            [
              100.4043128,
              -0.4623711
            ],
            [
              100.4043881,
              -0.4623789
            ],
            [
              100.4044104,
              -0.4623813
            ],
            [
              100.4044533,
              -0.4623857
            ],
            [
              100.4045242,
              -0.4623968
            ],
            [
              100.4045323,
              -0.4623648
            ],
            [
              100.4045362,
              -0.4623496
            ],
            [
              100.4045373,
              -0.4623453
            ],
            [
              100.4045467,
              -0.4623082
            ],
            [
              100.4045497,
              -0.4622965
            ],
            [
              100.4045541,
              -0.4622863
            ],
            [
              100.4045604,
              -0.4622626
            ],
            [
              100.4045684,
              -0.4622531
            ],
            [
              100.4045699,
              -0.4622499
            ],
            [
              100.4046002,
              -0.4621985
            ],
            [
              100.4046031,
              -0.4621936
            ],
            [
              100.4046221,
              -0.4621673
            ],
            [
              100.4047081,
              -0.4621795
            ],
            [
              100.4047232,
              -0.4621816
            ],
            [
              100.4047553,
              -0.4621869
            ],
            [
              100.4049148,
              -0.4621947
            ],
            [
              100.404996,
              -0.4621988
            ],
            [
              100.4050358,
              -0.4622007
            ],
            [
              100.4050583,
              -0.462178
            ],
            [
              100.4050601,
              -0.4621728
            ],
            [
              100.4050797,
              -0.4621134
            ],
            [
              100.4050975,
              -0.4620224
            ],
            [
              100.4051165,
              -0.4620105
            ],
            [
              100.4051688,
              -0.4620104
            ],
            [
              100.4052818,
              -0.462042
            ],
            [
              100.4052848,
              -0.4621059
            ],
            [
              100.4052887,
              -0.4621894
            ],
            [
              100.4052914,
              -0.4622478
            ],
            [
              100.4052872,
              -0.4625144
            ],
            [
              100.4052796,
              -0.4627499
            ],
            [
              100.4052336,
              -0.4628824
            ],
            [
              100.4052264,
              -0.462903
            ],
            [
              100.405194,
              -0.4629958
            ],
            [
              100.405177,
              -0.4630447
            ],
            [
              100.4051719,
              -0.463067
            ],
            [
              100.40517,
              -0.4630754
            ],
            [
              100.4051523,
              -0.4631538
            ],
            [
              100.4051412,
              -0.4632109
            ],
            [
              100.4051352,
              -0.4632419
            ],
            [
              100.4051375,
              -0.463252
            ],
            [
              100.4051465,
              -0.4632904
            ],
            [
              100.4051483,
              -0.4632977
            ],
            [
              100.4051497,
              -0.463304
            ],
            [
              100.4051751,
              -0.4634123
            ],
            [
              100.4052011,
              -0.4634896
            ],
            [
              100.4052208,
              -0.4635482
            ],
            [
              100.4052798,
              -0.4636401
            ],
            [
              100.4052874,
              -0.4637885
            ],
            [
              100.4047942,
              -0.4637805
            ],
            [
              100.4047732,
              -0.463992
            ],
            [
              100.4047476,
              -0.4641015
            ],
            [
              100.4045791,
              -0.4644999
            ],
            [
              100.4046596,
              -0.4645119
            ],
            [
              100.4046741,
              -0.4645141
            ],
            [
              100.4047461,
              -0.4645248
            ],
            [
              100.4047463,
              -0.4645248
            ],
            [
              100.4047468,
              -0.4645249
            ],
            [
              100.4047992,
              -0.4645327
            ],
            [
              100.4048692,
              -0.4645431
            ],
            [
              100.4049088,
              -0.4645491
            ],
            [
              100.4049787,
              -0.4645562
            ],
            [
              100.4050727,
              -0.4645657
            ],
            [
              100.4051192,
              -0.4645704
            ],
            [
              100.405168,
              -0.4645703
            ],
            [
              100.4051989,
              -0.4647797
            ],
            [
              100.4052596,
              -0.4650932
            ],
            [
              100.4053512,
              -0.4655143
            ],
            [
              100.4053751,
              -0.4656543
            ],
            [
              100.4053833,
              -0.4656979
            ],
            [
              100.4056552,
              -0.4656347
            ],
            [
              100.4057314,
              -0.4659352
            ],
            [
              100.4058418,
              -0.4664291
            ],
            [
              100.4059255,
              -0.4668292
            ],
            [
              100.4063119,
              -0.4685102
            ],
            [
              100.4064564,
              -0.4684597
            ],
            [
              100.40745,
              -0.4681127
            ],
            [
              100.4074707,
              -0.4681196
            ],
            [
              100.4075647,
              -0.4681512
            ],
            [
              100.4075725,
              -0.4681512
            ],
            [
              100.4076018,
              -0.4681511
            ],
            [
              100.4076029,
              -0.4681511
            ],
            [
              100.4076258,
              -0.4681511
            ],
            [
              100.4078612,
              -0.4680854
            ],
            [
              100.4081769,
              -0.468026
            ],
            [
              100.4082662,
              -0.4680317
            ],
            [
              100.408592,
              -0.4680318
            ],
            [
              100.4086026,
              -0.4680358
            ],
            [
              100.4087538,
              -0.4681068
            ],
            [
              100.4087558,
              -0.4681077
            ],
            [
              100.4087787,
              -0.4681185
            ],
            [
              100.4087802,
              -0.4681194
            ],
            [
              100.4088687,
              -0.4681736
            ],
            [
              100.4088791,
              -0.4681856
            ],
            [
              100.408947,
              -0.4682642
            ],
            [
              100.4089674,
              -0.4683004
            ],
            [
              100.4090004,
              -0.4683588
            ],
            [
              100.4090292,
              -0.4684099
            ],
            [
              100.4091192,
              -0.468595
            ],
            [
              100.4091371,
              -0.4686445
            ],
            [
              100.4091773,
              -0.4687557
            ],
            [
              100.4091975,
              -0.4688117
            ],
            [
              100.409221,
              -0.468981
            ],
            [
              100.409268,
              -0.4691622
            ],
            [
              100.4092876,
              -0.4693552
            ],
            [
              100.4093053,
              -0.4695325
            ],
            [
              100.4093297,
              -0.4704003
            ],
            [
              100.410139,
              -0.4703764
            ],
            [
              100.4102167,
              -0.4703784
            ],
            [
              100.4104176,
              -0.4703742
            ],
            [
              100.410565,
              -0.4703718
            ],
            [
              100.4107302,
              -0.4703801
            ],
            [
              100.4110841,
              -0.4704228
            ],
            [
              100.4111226,
              -0.4704353
            ],
            [
              100.4112498,
              -0.4704664
            ],
            [
              100.4112743,
              -0.4704719
            ],
            [
              100.4113782,
              -0.4704951
            ],
            [
              100.4113876,
              -0.4704874
            ],
            [
              100.4113952,
              -0.4704644
            ],
            [
              100.4114047,
              -0.4704032
            ],
            [
              100.4114294,
              -0.4703477
            ],
            [
              100.4114693,
              -0.4702577
            ],
            [
              100.4114712,
              -0.4702041
            ],
            [
              100.4114674,
              -0.4701696
            ],
            [
              100.4114578,
              -0.4701428
            ],
            [
              100.4114293,
              -0.4701179
            ],
            [
              100.4114217,
              -0.4701084
            ],
            [
              100.4114122,
              -0.4700739
            ],
            [
              100.411397,
              -0.4700222
            ],
            [
              100.4113684,
              -0.469961
            ],
            [
              100.4113323,
              -0.4699361
            ],
            [
              100.4113019,
              -0.4699227
            ],
            [
              100.41126,
              -0.4699112
            ],
            [
              100.4112201,
              -0.4698825
            ],
            [
              100.4112049,
              -0.4698557
            ],
            [
              100.4112049,
              -0.4698232
            ],
            [
              100.411203,
              -0.4697849
            ],
            [
              100.4111991,
              -0.4697466
            ],
            [
              100.4111877,
              -0.4696738
            ],
            [
              100.4111877,
              -0.4695896
            ],
            [
              100.4111763,
              -0.4695111
            ],
            [
              100.4111363,
              -0.4694556
            ],
            [
              100.4111116,
              -0.4694097
            ],
            [
              100.4110716,
              -0.4693407
            ],
            [
              100.4110545,
              -0.4693063
            ],
            [
              100.4110279,
              -0.4692718
            ],
            [
              100.4109765,
              -0.4692412
            ],
            [
              100.4109499,
              -0.4692144
            ],
            [
              100.4109252,
              -0.4691876
            ],
            [
              100.4108948,
              -0.4691627
            ],
            [
              100.4108719,
              -0.469134
            ],
            [
              100.4108491,
              -0.4690957
            ],
            [
              100.4108377,
              -0.4690747
            ],
            [
              100.4108225,
              -0.4690307
            ],
            [
              100.4108206,
              -0.4690039
            ],
            [
              100.4108167,
              -0.4689579
            ],
            [
              100.4108243,
              -0.468933
            ],
            [
              100.4108396,
              -0.468889
            ],
            [
              100.4108376,
              -0.4688507
            ],
            [
              100.4108319,
              -0.4688258
            ],
            [
              100.4107559,
              -0.4688124
            ],
            [
              100.4105257,
              -0.468757
            ],
            [
              100.4104858,
              -0.4686976
            ],
            [
              100.4105694,
              -0.4685578
            ],
            [
              100.410617,
              -0.46842
            ],
            [
              100.4104933,
              -0.4683626
            ],
            [
              100.4104534,
              -0.4683186
            ],
            [
              100.4103925,
              -0.468265
            ],
            [
              100.4103564,
              -0.4682229
            ],
            [
              100.4102898,
              -0.4681827
            ],
            [
              100.4102194,
              -0.4681099
            ],
            [
              100.4101529,
              -0.4680429
            ],
            [
              100.4101567,
              -0.4679855
            ],
            [
              100.4101623,
              -0.4678783
            ],
            [
              100.4101566,
              -0.4678343
            ],
            [
              100.4101205,
              -0.4677845
            ],
            [
              100.4100958,
              -0.4677481
            ],
            [
              100.410033,
              -0.4677041
            ],
            [
              100.409995,
              -0.4676888
            ],
            [
              100.4099417,
              -0.4676582
            ],
            [
              100.409898,
              -0.4676295
            ],
            [
              100.4098618,
              -0.467595
            ],
            [
              100.4098466,
              -0.4675223
            ],
            [
              100.4098466,
              -0.4674419
            ],
            [
              100.4098333,
              -0.4673538
            ],
            [
              100.4098123,
              -0.467327
            ],
            [
              100.4098062,
              -0.4672858
            ],
            [
              100.4098047,
              -0.4672409
            ],
            [
              100.4098066,
              -0.4671796
            ],
            [
              100.4098123,
              -0.4670532
            ],
            [
              100.4098255,
              -0.4668531
            ],
            [
              100.4098034,
              -0.4667046
            ],
            [
              100.4099318,
              -0.4666734
            ],
            [
              100.4100126,
              -0.4666351
            ],
            [
              100.4099935,
              -0.4665131
            ],
            [
              100.4099412,
              -0.4663863
            ],
            [
              100.4098794,
              -0.4662571
            ],
            [
              100.4097367,
              -0.4660824
            ],
            [
              100.4096083,
              -0.4659317
            ],
            [
              100.4094395,
              -0.4657546
            ],
            [
              100.4093353,
              -0.4656257
            ],
            [
              100.409545,
              -0.465551
            ],
            [
              100.4100611,
              -0.4654804
            ],
            [
              100.4105612,
              -0.4654421
            ],
            [
              100.4108198,
              -0.4654286
            ],
            [
              100.4110233,
              -0.465419
            ],
            [
              100.4110918,
              -0.4654247
            ],
            [
              100.411358,
              -0.465484
            ],
            [
              100.4116184,
              -0.465551
            ],
            [
              100.4118395,
              -0.4655984
            ],
            [
              100.4120292,
              -0.4656199
            ],
            [
              100.4122151,
              -0.465635
            ],
            [
              100.4124575,
              -0.4656637
            ],
            [
              100.4125507,
              -0.4656752
            ],
            [
              100.4126268,
              -0.4656685
            ],
            [
              100.4127219,
              -0.4656512
            ],
            [
              100.4128226,
              -0.4656359
            ],
            [
              100.4129719,
              -0.4656167
            ],
            [
              100.4130613,
              -0.4656243
            ],
            [
              100.413125,
              -0.4656454
            ],
            [
              100.4131982,
              -0.4656865
            ],
            [
              100.4132753,
              -0.465766
            ],
            [
              100.4133574,
              -0.4658689
            ],
            [
              100.4134089,
              -0.4659698
            ],
            [
              100.4135781,
              -0.4663103
            ],
            [
              100.4137214,
              -0.4665987
            ],
            [
              100.4137663,
              -0.4665589
            ],
            [
              100.4137877,
              -0.4665086
            ],
            [
              100.4138126,
              -0.4663938
            ],
            [
              100.4138134,
              -0.4662003
            ],
            [
              100.4138173,
              -0.4661874
            ],
            [
              100.4138204,
              -0.4661705
            ],
            [
              100.4138242,
              -0.4661436
            ],
            [
              100.4138272,
              -0.4661144
            ],
            [
              100.413827,
              -0.4660981
            ],
            [
              100.4138244,
              -0.4660691
            ],
            [
              100.4138213,
              -0.4660469
            ],
            [
              100.413817,
              -0.4660272
            ],
            [
              100.4138095,
              -0.4660056
            ],
            [
              100.4137965,
              -0.4659762
            ],
            [
              100.4137864,
              -0.4659559
            ],
            [
              100.4137761,
              -0.4659342
            ],
            [
              100.4137658,
              -0.4659095
            ],
            [
              100.4137576,
              -0.4658802
            ],
            [
              100.4137545,
              -0.4658617
            ],
            [
              100.4137516,
              -0.4658371
            ],
            [
              100.413752,
              -0.4658093
            ],
            [
              100.4137545,
              -0.4657853
            ],
            [
              100.4137582,
              -0.4657619
            ],
            [
              100.4137616,
              -0.4657073
            ],
            [
              100.4137593,
              -0.4656832
            ],
            [
              100.4137564,
              -0.4656689
            ],
            [
              100.4137502,
              -0.4656489
            ],
            [
              100.4137425,
              -0.46562
            ],
            [
              100.413722,
              -0.4655282
            ],
            [
              100.4137159,
              -0.4655035
            ],
            [
              100.4137095,
              -0.4654796
            ],
            [
              100.4137033,
              -0.4654539
            ],
            [
              100.4137,
              -0.4654306
            ],
            [
              100.4136996,
              -0.4654173
            ],
            [
              100.4136983,
              -0.4653923
            ],
            [
              100.4136973,
              -0.4653636
            ],
            [
              100.4136981,
              -0.465339
            ],
            [
              100.4136997,
              -0.4653187
            ],
            [
              100.4137015,
              -0.4652915
            ],
            [
              100.4137014,
              -0.4652723
            ],
            [
              100.4136996,
              -0.4652429
            ],
            [
              100.4136973,
              -0.4652131
            ],
            [
              100.413694,
              -0.4651834
            ],
            [
              100.4136896,
              -0.4651599
            ],
            [
              100.4136788,
              -0.4651152
            ],
            [
              100.4136772,
              -0.4651061
            ],
            [
              100.4136624,
              -0.4650832
            ],
            [
              100.4136529,
              -0.4650698
            ],
            [
              100.4136468,
              -0.4650632
            ],
            [
              100.4136342,
              -0.4650546
            ],
            [
              100.4136179,
              -0.4650449
            ],
            [
              100.4135909,
              -0.4650291
            ],
            [
              100.4135742,
              -0.4650205
            ],
            [
              100.4135573,
              -0.4650124
            ],
            [
              100.4135357,
              -0.4650039
            ],
            [
              100.4135224,
              -0.4649977
            ],
            [
              100.41347,
              -0.4649833
            ],
            [
              100.413446,
              -0.4649798
            ],
            [
              100.4134196,
              -0.4649784
            ],
            [
              100.4134005,
              -0.4649774
            ],
            [
              100.4133851,
              -0.464977
            ],
            [
              100.41337,
              -0.4649787
            ],
            [
              100.4133435,
              -0.4649861
            ],
            [
              100.4133291,
              -0.464993
            ],
            [
              100.4133141,
              -0.465004
            ],
            [
              100.4132984,
              -0.4650173
            ],
            [
              100.4132767,
              -0.4650386
            ],
            [
              100.4132657,
              -0.4650522
            ],
            [
              100.4132513,
              -0.4650801
            ],
            [
              100.4132464,
              -0.4650962
            ],
            [
              100.4132373,
              -0.4651166
            ],
            [
              100.4132289,
              -0.4651329
            ],
            [
              100.4132221,
              -0.4651481
            ],
            [
              100.4132161,
              -0.4651674
            ],
            [
              100.4132134,
              -0.4651852
            ],
            [
              100.4132115,
              -0.4652021
            ],
            [
              100.4132082,
              -0.4652216
            ],
            [
              100.4131994,
              -0.4652514
            ],
            [
              100.4131917,
              -0.4652674
            ],
            [
              100.4131851,
              -0.4652791
            ],
            [
              100.4131644,
              -0.4653048
            ],
            [
              100.4131316,
              -0.4653314
            ],
            [
              100.4131161,
              -0.465343
            ],
            [
              100.4130775,
              -0.4653718
            ],
            [
              100.4130673,
              -0.4653775
            ],
            [
              100.4130598,
              -0.465381
            ],
            [
              100.4130517,
              -0.4653828
            ],
            [
              100.4130385,
              -0.4653821
            ],
            [
              100.4130319,
              -0.4653805
            ],
            [
              100.4130179,
              -0.4653745
            ],
            [
              100.4130124,
              -0.4653708
            ],
            [
              100.4129931,
              -0.4653565
            ],
            [
              100.4129813,
              -0.4653468
            ],
            [
              100.4129669,
              -0.4653288
            ],
            [
              100.4129609,
              -0.465317
            ],
            [
              100.4129477,
              -0.4652824
            ],
            [
              100.4129369,
              -0.465246
            ],
            [
              100.4129129,
              -0.4651848
            ],
            [
              100.4128807,
              -0.4651102
            ],
            [
              100.41288,
              -0.4651083
            ],
            [
              100.4128503,
              -0.4650394
            ],
            [
              100.4128375,
              -0.4650158
            ],
            [
              100.412827,
              -0.4649978
            ],
            [
              100.4128164,
              -0.4649889
            ],
            [
              100.4128052,
              -0.4649834
            ],
            [
              100.412795,
              -0.4649799
            ],
            [
              100.4127863,
              -0.4649786
            ],
            [
              100.4127761,
              -0.4649808
            ],
            [
              100.4127616,
              -0.4649858
            ],
            [
              100.4127395,
              -0.4649965
            ],
            [
              100.4127204,
              -0.4650075
            ],
            [
              100.4126926,
              -0.4650263
            ],
            [
              100.4126695,
              -0.4650389
            ],
            [
              100.4126367,
              -0.4650534
            ],
            [
              100.4126166,
              -0.4650552
            ],
            [
              100.4125961,
              -0.4650553
            ],
            [
              100.4125698,
              -0.4650517
            ],
            [
              100.4124933,
              -0.4650443
            ],
            [
              100.4124737,
              -0.4650441
            ],
            [
              100.4124508,
              -0.4650423
            ],
            [
              100.4124286,
              -0.4650394
            ],
            [
              100.4124107,
              -0.4650349
            ],
            [
              100.4124088,
              -0.4650345
            ],
            [
              100.4123949,
              -0.4650288
            ],
            [
              100.4123847,
              -0.4650239
            ],
            [
              100.4123721,
              -0.4650147
            ],
            [
              100.4123611,
              -0.4650033
            ],
            [
              100.4123508,
              -0.4649853
            ],
            [
              100.4123453,
              -0.4649737
            ],
            [
              100.4123302,
              -0.4649227
            ],
            [
              100.4123262,
              -0.4648994
            ],
            [
              100.4123271,
              -0.4648777
            ],
            [
              100.4123305,
              -0.4648571
            ],
            [
              100.412337,
              -0.4648345
            ],
            [
              100.4123442,
              -0.4648198
            ],
            [
              100.4123538,
              -0.4647997
            ],
            [
              100.4123671,
              -0.4647801
            ],
            [
              100.4123815,
              -0.4647636
            ],
            [
              100.4123985,
              -0.4647472
            ],
            [
              100.4124106,
              -0.4647376
            ],
            [
              100.4124154,
              -0.4647337
            ],
            [
              100.4124365,
              -0.4647159
            ],
            [
              100.4124565,
              -0.4646968
            ],
            [
              100.4124726,
              -0.4646789
            ],
            [
              100.4124816,
              -0.4646689
            ],
            [
              100.412499,
              -0.4646444
            ],
            [
              100.4125121,
              -0.4646222
            ],
            [
              100.4125226,
              -0.4646017
            ],
            [
              100.4125298,
              -0.4645815
            ],
            [
              100.4125345,
              -0.4645626
            ],
            [
              100.4125398,
              -0.4645446
            ],
            [
              100.4125479,
              -0.4645163
            ],
            [
              100.4125558,
              -0.4645
            ],
            [
              100.4125571,
              -0.4644973
            ],
            [
              100.4125691,
              -0.464481
            ],
            [
              100.412587,
              -0.4644656
            ],
            [
              100.4126038,
              -0.4644532
            ],
            [
              100.412626,
              -0.4644369
            ],
            [
              100.4127471,
              -0.4643418
            ],
            [
              100.4127746,
              -0.464318
            ],
            [
              100.4128009,
              -0.4642913
            ],
            [
              100.4128208,
              -0.4642607
            ],
            [
              100.4128299,
              -0.4642385
            ],
            [
              100.412833,
              -0.4642307
            ],
            [
              100.4128426,
              -0.4641989
            ],
            [
              100.412848,
              -0.4641678
            ],
            [
              100.4128494,
              -0.4641485
            ],
            [
              100.4128475,
              -0.4641269
            ],
            [
              100.4128431,
              -0.4641152
            ],
            [
              100.4128379,
              -0.4641013
            ],
            [
              100.412814,
              -0.4640387
            ],
            [
              100.4128008,
              -0.4640076
            ],
            [
              100.4127878,
              -0.4639825
            ],
            [
              100.4127706,
              -0.4639503
            ],
            [
              100.4127611,
              -0.4639341
            ],
            [
              100.4127507,
              -0.4639152
            ],
            [
              100.4127392,
              -0.4638926
            ],
            [
              100.4127297,
              -0.4638673
            ],
            [
              100.4127211,
              -0.4638452
            ],
            [
              100.4126949,
              -0.4637859
            ],
            [
              100.412682,
              -0.4637664
            ],
            [
              100.412667,
              -0.4637502
            ],
            [
              100.4126557,
              -0.4637385
            ],
            [
              100.4126413,
              -0.4637303
            ],
            [
              100.4126183,
              -0.4637223
            ],
            [
              100.412606,
              -0.4637205
            ],
            [
              100.4125917,
              -0.4637217
            ],
            [
              100.4125801,
              -0.4637249
            ],
            [
              100.412571,
              -0.4637286
            ],
            [
              100.4125666,
              -0.4637305
            ],
            [
              100.4125593,
              -0.4637341
            ],
            [
              100.4125408,
              -0.4637467
            ],
            [
              100.412529,
              -0.4637596
            ],
            [
              100.4125196,
              -0.4637734
            ],
            [
              100.4125112,
              -0.4637889
            ],
            [
              100.4125022,
              -0.4638055
            ],
            [
              100.4124936,
              -0.4638206
            ],
            [
              100.4124835,
              -0.4638396
            ],
            [
              100.4124716,
              -0.4638585
            ],
            [
              100.4124575,
              -0.4638776
            ],
            [
              100.412444,
              -0.4638956
            ],
            [
              100.412432,
              -0.4639095
            ],
            [
              100.4124273,
              -0.4639149
            ],
            [
              100.4124089,
              -0.4639342
            ],
            [
              100.4123961,
              -0.4639452
            ],
            [
              100.4123555,
              -0.4639717
            ],
            [
              100.4123456,
              -0.463978
            ],
            [
              100.4122809,
              -0.4640218
            ],
            [
              100.4122736,
              -0.4640249
            ],
            [
              100.4121946,
              -0.4640591
            ],
            [
              100.4121922,
              -0.4640598
            ],
            [
              100.4121407,
              -0.4640758
            ],
            [
              100.4121195,
              -0.4640783
            ],
            [
              100.4121038,
              -0.4640799
            ],
            [
              100.4120892,
              -0.4640787
            ],
            [
              100.4120733,
              -0.4640766
            ],
            [
              100.4120487,
              -0.4640716
            ],
            [
              100.4120348,
              -0.4640686
            ],
            [
              100.4120231,
              -0.4640645
            ],
            [
              100.4120106,
              -0.4640598
            ],
            [
              100.4120086,
              -0.4640591
            ],
            [
              100.4119966,
              -0.4640566
            ],
            [
              100.4119857,
              -0.4640542
            ],
            [
              100.4119693,
              -0.4640519
            ],
            [
              100.4119592,
              -0.4640505
            ],
            [
              100.4118427,
              -0.4640438
            ],
            [
              100.4118048,
              -0.4640376
            ],
            [
              100.411785,
              -0.4640317
            ],
            [
              100.41177,
              -0.4640257
            ],
            [
              100.4117584,
              -0.4640202
            ],
            [
              100.4117451,
              -0.4640106
            ],
            [
              100.4117354,
              -0.4639984
            ],
            [
              100.4117244,
              -0.4639848
            ],
            [
              100.4117187,
              -0.4639761
            ],
            [
              100.4117128,
              -0.4639644
            ],
            [
              100.4117078,
              -0.4639524
            ],
            [
              100.4117043,
              -0.4639418
            ],
            [
              100.4117037,
              -0.46394
            ],
            [
              100.4116977,
              -0.4639276
            ],
            [
              100.4116899,
              -0.4639155
            ],
            [
              100.4116827,
              -0.4639049
            ],
            [
              100.4116744,
              -0.4638892
            ],
            [
              100.4116692,
              -0.4638728
            ],
            [
              100.4116676,
              -0.4638492
            ],
            [
              100.4116808,
              -0.4637557
            ],
            [
              100.4116863,
              -0.4637168
            ],
            [
              100.4116868,
              -0.4637132
            ],
            [
              100.4116892,
              -0.4636978
            ],
            [
              100.4116898,
              -0.4636939
            ],
            [
              100.4116957,
              -0.4636374
            ],
            [
              100.4116999,
              -0.4636144
            ],
            [
              100.4117055,
              -0.4635934
            ],
            [
              100.411712,
              -0.4635725
            ],
            [
              100.4117204,
              -0.4635491
            ],
            [
              100.4117314,
              -0.4635253
            ],
            [
              100.4117393,
              -0.4635093
            ],
            [
              100.4117416,
              -0.4635046
            ],
            [
              100.4117462,
              -0.4634954
            ],
            [
              100.4117617,
              -0.4634642
            ],
            [
              100.4117719,
              -0.4634426
            ],
            [
              100.4117814,
              -0.4634195
            ],
            [
              100.4117903,
              -0.4633962
            ],
            [
              100.4117916,
              -0.4633925
            ],
            [
              100.4117974,
              -0.4633756
            ],
            [
              100.4118009,
              -0.4633577
            ],
            [
              100.4118003,
              -0.4633478
            ],
            [
              100.4117993,
              -0.4633308
            ],
            [
              100.4117983,
              -0.4633179
            ],
            [
              100.4117817,
              -0.4633091
            ],
            [
              100.4115188,
              -0.4631706
            ],
            [
              100.4114051,
              -0.4631062
            ],
            [
              100.4113597,
              -0.4630805
            ],
            [
              100.411283,
              -0.4630371
            ],
            [
              100.411282,
              -0.4630363
            ],
            [
              100.4112815,
              -0.4630359
            ],
            [
              100.4112569,
              -0.4630164
            ],
            [
              100.411224,
              -0.462989
            ],
            [
              100.4111997,
              -0.4629666
            ],
            [
              100.4111873,
              -0.4629516
            ],
            [
              100.4111679,
              -0.4629208
            ],
            [
              100.4111477,
              -0.4628644
            ],
            [
              100.4111189,
              -0.4627924
            ],
            [
              100.4110895,
              -0.4627229
            ],
            [
              100.4110432,
              -0.4626394
            ],
            [
              100.4110056,
              -0.4625714
            ],
            [
              100.4109975,
              -0.4625567
            ],
            [
              100.4109764,
              -0.4625219
            ],
            [
              100.4109413,
              -0.4624776
            ],
            [
              100.4109244,
              -0.4624641
            ],
            [
              100.4108627,
              -0.4624407
            ],
            [
              100.4108264,
              -0.462437
            ],
            [
              100.4108124,
              -0.4624379
            ],
            [
              100.4107701,
              -0.4624467
            ],
            [
              100.4107138,
              -0.46247
            ],
            [
              100.4107041,
              -0.4624768
            ],
            [
              100.4106925,
              -0.4624877
            ],
            [
              100.4106842,
              -0.4625004
            ],
            [
              100.410678,
              -0.4625199
            ],
            [
              100.4106769,
              -0.4625327
            ],
            [
              100.4106757,
              -0.4625462
            ],
            [
              100.4106756,
              -0.4625766
            ],
            [
              100.4106749,
              -0.4626084
            ],
            [
              100.410669,
              -0.4626456
            ],
            [
              100.4106584,
              -0.4626845
            ],
            [
              100.4106472,
              -0.4627096
            ],
            [
              100.4106334,
              -0.4627338
            ],
            [
              100.410617,
              -0.4627549
            ],
            [
              100.4105998,
              -0.4627739
            ],
            [
              100.4105516,
              -0.4628005
            ],
            [
              100.4105352,
              -0.4628081
            ],
            [
              100.4104968,
              -0.4628257
            ],
            [
              100.4104779,
              -0.462834
            ],
            [
              100.410462,
              -0.462838
            ],
            [
              100.4104493,
              -0.4628384
            ],
            [
              100.4104341,
              -0.4628379
            ],
            [
              100.4104176,
              -0.4628369
            ],
            [
              100.4103962,
              -0.4628341
            ],
            [
              100.4103789,
              -0.4628312
            ],
            [
              100.4103596,
              -0.4628293
            ],
            [
              100.4103352,
              -0.4628267
            ],
            [
              100.4103084,
              -0.4628232
            ],
            [
              100.4102824,
              -0.4628181
            ],
            [
              100.4102295,
              -0.462805
            ],
            [
              100.4101605,
              -0.4627874
            ],
            [
              100.4101454,
              -0.462785
            ],
            [
              100.410122,
              -0.4627819
            ],
            [
              100.410097,
              -0.462781
            ],
            [
              100.4100763,
              -0.462782
            ],
            [
              100.4100525,
              -0.4627853
            ],
            [
              100.4100231,
              -0.4627948
            ],
            [
              100.4100217,
              -0.4627955
            ],
            [
              100.4100098,
              -0.4628017
            ],
            [
              100.4099936,
              -0.4628134
            ],
            [
              100.4099817,
              -0.4628248
            ],
            [
              100.4099509,
              -0.4628557
            ],
            [
              100.4099117,
              -0.4628957
            ],
            [
              100.40989,
              -0.4629237
            ],
            [
              100.4098778,
              -0.4629393
            ],
            [
              100.4098643,
              -0.4629605
            ],
            [
              100.4098489,
              -0.4629785
            ],
            [
              100.4098377,
              -0.4629859
            ],
            [
              100.4098292,
              -0.4629893
            ],
            [
              100.40982,
              -0.4629906
            ],
            [
              100.4098071,
              -0.4629903
            ],
            [
              100.4097813,
              -0.4629842
            ],
            [
              100.4097677,
              -0.4629807
            ],
            [
              100.4097487,
              -0.4629681
            ],
            [
              100.409741,
              -0.4629545
            ],
            [
              100.4097415,
              -0.4629453
            ],
            [
              100.409754,
              -0.462923
            ],
            [
              100.4097632,
              -0.4629105
            ],
            [
              100.4097764,
              -0.4628918
            ],
            [
              100.4097945,
              -0.4628565
            ],
            [
              100.4098095,
              -0.462825
            ],
            [
              100.4098153,
              -0.4628065
            ],
            [
              100.4098184,
              -0.4627841
            ],
            [
              100.4098198,
              -0.4627587
            ],
            [
              100.4098207,
              -0.46272
            ],
            [
              100.4098192,
              -0.4626608
            ],
            [
              100.4098185,
              -0.4626406
            ],
            [
              100.4098093,
              -0.4625668
            ],
            [
              100.4097983,
              -0.4624755
            ],
            [
              100.4097964,
              -0.4624528
            ],
            [
              100.4097911,
              -0.4624174
            ],
            [
              100.4097873,
              -0.4623862
            ],
            [
              100.4097852,
              -0.4623578
            ],
            [
              100.4097827,
              -0.462335
            ],
            [
              100.4097805,
              -0.4623089
            ],
            [
              100.4097812,
              -0.4622807
            ],
            [
              100.4097837,
              -0.4622512
            ],
            [
              100.4097855,
              -0.4622227
            ],
            [
              100.4097849,
              -0.4621974
            ],
            [
              100.4097812,
              -0.4621723
            ],
            [
              100.4097783,
              -0.4621584
            ],
            [
              100.4097711,
              -0.462133
            ],
            [
              100.4097626,
              -0.4621059
            ],
            [
              100.4097571,
              -0.462084
            ],
            [
              100.4097524,
              -0.4620569
            ],
            [
              100.4097492,
              -0.4620342
            ],
            [
              100.4097481,
              -0.4620088
            ],
            [
              100.4097506,
              -0.4619889
            ],
            [
              100.4097539,
              -0.4619712
            ],
            [
              100.4097579,
              -0.4619569
            ],
            [
              100.4097589,
              -0.461931
            ],
            [
              100.4097568,
              -0.4619202
            ],
            [
              100.4097518,
              -0.4619036
            ],
            [
              100.4097443,
              -0.4618873
            ],
            [
              100.409738,
              -0.4618728
            ],
            [
              100.4097334,
              -0.4618537
            ],
            [
              100.4097283,
              -0.4618251
            ],
            [
              100.40972,
              -0.4617646
            ],
            [
              100.4097084,
              -0.4616788
            ],
            [
              100.4097076,
              -0.461673
            ],
            [
              100.4097037,
              -0.4616447
            ],
            [
              100.4096975,
              -0.4616148
            ],
            [
              100.4096892,
              -0.4615806
            ],
            [
              100.4096793,
              -0.4615548
            ],
            [
              100.40967,
              -0.4615339
            ],
            [
              100.4096579,
              -0.4615133
            ],
            [
              100.4096417,
              -0.46149
            ],
            [
              100.4096049,
              -0.4614562
            ],
            [
              100.4095855,
              -0.4614414
            ],
            [
              100.4095476,
              -0.4614124
            ],
            [
              100.4095123,
              -0.4613852
            ],
            [
              100.4094717,
              -0.4613541
            ],
            [
              100.4094351,
              -0.4613356
            ],
            [
              100.409417,
              -0.4613301
            ],
            [
              100.4093882,
              -0.4613262
            ],
            [
              100.4093651,
              -0.4613259
            ],
            [
              100.4093435,
              -0.461327
            ],
            [
              100.4093236,
              -0.461329
            ],
            [
              100.4093108,
              -0.4613312
            ],
            [
              100.4092663,
              -0.4613429
            ],
            [
              100.4092436,
              -0.4613477
            ],
            [
              100.4092241,
              -0.46135
            ],
            [
              100.4092088,
              -0.4613487
            ],
            [
              100.4091936,
              -0.461346
            ],
            [
              100.409137,
              -0.4613297
            ],
            [
              100.4091277,
              -0.4613267
            ],
            [
              100.4091167,
              -0.4613231
            ],
            [
              100.4090251,
              -0.4612921
            ],
            [
              100.4089701,
              -0.4612676
            ],
            [
              100.4089629,
              -0.4612623
            ],
            [
              100.4089586,
              -0.4612573
            ],
            [
              100.4089538,
              -0.4612473
            ],
            [
              100.4089521,
              -0.4612353
            ],
            [
              100.4089505,
              -0.4612107
            ],
            [
              100.4089509,
              -0.4611963
            ],
            [
              100.4089511,
              -0.4611955
            ],
            [
              100.4089538,
              -0.4611825
            ],
            [
              100.4089579,
              -0.4611717
            ],
            [
              100.4089672,
              -0.4611542
            ],
            [
              100.4089777,
              -0.4611354
            ],
            [
              100.4089863,
              -0.4611206
            ],
            [
              100.4090027,
              -0.4610911
            ],
            [
              100.409014,
              -0.461073
            ],
            [
              100.4090246,
              -0.4610579
            ],
            [
              100.40904,
              -0.4610382
            ],
            [
              100.4090467,
              -0.4610311
            ],
            [
              100.4090675,
              -0.461009
            ],
            [
              100.4091398,
              -0.4609397
            ],
            [
              100.4091763,
              -0.4609037
            ],
            [
              100.4092053,
              -0.4608751
            ],
            [
              100.409229,
              -0.4608511
            ],
            [
              100.4092473,
              -0.4608302
            ],
            [
              100.4092656,
              -0.4608082
            ],
            [
              100.4092851,
              -0.460785
            ],
            [
              100.4092921,
              -0.4607777
            ],
            [
              100.4093151,
              -0.4607557
            ],
            [
              100.4093529,
              -0.4607193
            ],
            [
              100.4094409,
              -0.460628
            ],
            [
              100.4094178,
              -0.4605336
            ],
            [
              100.4088271,
              -0.4601325
            ],
            [
              100.4087195,
              -0.459969
            ],
            [
              100.4088241,
              -0.4597872
            ],
            [
              100.4088445,
              -0.4596686
            ],
            [
              100.4088028,
              -0.4595315
            ],
            [
              100.4086618,
              -0.4594123
            ],
            [
              100.4086527,
              -0.4591633
            ],
            [
              100.408885,
              -0.4588171
            ],
            [
              100.4089664,
              -0.458589
            ],
            [
              100.4089421,
              -0.4584598
            ],
            [
              100.4087061,
              -0.458277
            ],
            [
              100.4083449,
              -0.4582875
            ],
            [
              100.408263,
              -0.4582408
            ],
            [
              100.4081994,
              -0.4579473
            ],
            [
              100.4080552,
              -0.4577659
            ],
            [
              100.4081657,
              -0.4575202
            ],
            [
              100.4081254,
              -0.4573408
            ],
            [
              100.4080157,
              -0.4573128
            ],
            [
              100.4076743,
              -0.4573987
            ],
            [
              100.4075492,
              -0.4574631
            ],
            [
              100.4074679,
              -0.4574296
            ],
            [
              100.4073709,
              -0.457322
            ],
            [
              100.4074062,
              -0.4570486
            ],
            [
              100.4075856,
              -0.4567694
            ],
            [
              100.4073795,
              -0.4565176
            ],
            [
              100.407362,
              -0.45642
            ],
            [
              100.4075227,
              -0.4563333
            ],
            [
              100.4078464,
              -0.4563204
            ],
            [
              100.4079126,
              -0.4562732
            ],
            [
              100.4079251,
              -0.4561983
            ],
            [
              100.4077742,
              -0.4558124
            ],
            [
              100.407672,
              -0.4556468
            ],
            [
              100.4075205,
              -0.4554817
            ],
            [
              100.4072263,
              -0.4553534
            ],
            [
              100.407112,
              -0.455102
            ],
            [
              100.4071359,
              -0.4549551
            ],
            [
              100.4072468,
              -0.4548125
            ],
            [
              100.4072079,
              -0.454527
            ],
            [
              100.4072582,
              -0.4543649
            ],
            [
              100.40773,
              -0.4540315
            ],
            [
              100.4075709,
              -0.4536671
            ],
            [
              100.4074887,
              -0.4535671
            ],
            [
              100.4073798,
              -0.4534927
            ],
            [
              100.4071637,
              -0.4534244
            ],
            [
              100.4061222,
              -0.453271
            ],
            [
              100.4053692,
              -0.4531025
            ],
            [
              100.4048908,
              -0.4530579
            ],
            [
              100.4048681,
              -0.4533261
            ],
            [
              100.4048145,
              -0.4534173
            ],
            [
              100.4047099,
              -0.4535568
            ],
            [
              100.4046804,
              -0.4537016
            ],
            [
              100.4046026,
              -0.4538357
            ],
            [
              100.4046026,
              -0.4539886
            ],
            [
              100.4046831,
              -0.4541147
            ],
            [
              100.4046428,
              -0.4542381
            ],
            [
              100.404557,
              -0.4543293
            ],
            [
              100.4044497,
              -0.4543829
            ],
            [
              100.4043505,
              -0.4545331
            ],
            [
              100.4044014,
              -0.454694
            ],
            [
              100.4044336,
              -0.4547745
            ],
            [
              100.404498,
              -0.4549005
            ],
            [
              100.4044792,
              -0.4550454
            ],
            [
              100.4044202,
              -0.4551554
            ],
            [
              100.404152,
              -0.4553753
            ],
            [
              100.4038358,
              -0.4555499
            ],
            [
              100.40378,
              -0.4556621
            ],
            [
              100.4038015,
              -0.4557268
            ],
            [
              100.4037972,
              -0.4557959
            ],
            [
              100.4036258,
              -0.4558175
            ],
            [
              100.40348,
              -0.4558305
            ],
            [
              100.4032486,
              -0.4559298
            ],
            [
              100.4031028,
              -0.4560722
            ],
            [
              100.40309,
              -0.4561585
            ],
            [
              100.40309,
              -0.4562017
            ],
            [
              100.4030386,
              -0.456288
            ],
            [
              100.4030086,
              -0.4563743
            ],
            [
              100.4028971,
              -0.4564779
            ],
            [
              100.40285,
              -0.456534
            ],
            [
              100.40282,
              -0.4566505
            ],
            [
              100.4026959,
              -0.4568966
            ],
            [
              100.4026531,
              -0.4569197
            ],
            [
              100.402636,
              -0.4569458
            ],
            [
              100.4026397,
              -0.4569743
            ],
            [
              100.402686,
              -0.457113
            ],
            [
              100.402688,
              -0.4571308
            ],
            [
              100.402688,
              -0.4571513
            ],
            [
              100.4026837,
              -0.4571666
            ],
            [
              100.4026618,
              -0.4572149
            ],
            [
              100.4026425,
              -0.4572399
            ],
            [
              100.4026005,
              -0.4572713
            ],
            [
              100.4024607,
              -0.4573399
            ],
            [
              100.4023861,
              -0.4573878
            ],
            [
              100.4023452,
              -0.4574315
            ],
            [
              100.4023025,
              -0.4574662
            ],
            [
              100.4022539,
              -0.4575218
            ],
            [
              100.4021157,
              -0.4578103
            ],
            [
              100.4020989,
              -0.4578466
            ],
            [
              100.4020793,
              -0.4578829
            ],
            [
              100.402067,
              -0.4579029
            ],
            [
              100.4020548,
              -0.4579229
            ],
            [
              100.402044,
              -0.457936
            ],
            [
              100.4020089,
              -0.4579865
            ],
            [
              100.402006,
              -0.4579914
            ],
            [
              100.4019933,
              -0.4580089
            ],
            [
              100.4019628,
              -0.4580555
            ],
            [
              100.4019643,
              -0.458123
            ],
            [
              100.401974,
              -0.4581905
            ],
            [
              100.4019786,
              -0.4582155
            ],
            [
              100.401979,
              -0.4582517
            ],
            [
              100.4019765,
              -0.4582715
            ],
            [
              100.4019749,
              -0.4582925
            ],
            [
              100.4019736,
              -0.458317
            ],
            [
              100.4019712,
              -0.4583333
            ],
            [
              100.4019712,
              -0.4583334
            ],
            [
              100.4019615,
              -0.45835
            ],
            [
              100.4019519,
              -0.4583666
            ],
            [
              100.4019371,
              -0.4583832
            ],
            [
              100.4019275,
              -0.4583915
            ],
            [
              100.4019197,
              -0.4583995
            ],
            [
              100.4018692,
              -0.4584536
            ],
            [
              100.4018578,
              -0.4584659
            ],
            [
              100.4018321,
              -0.4584842
            ],
            [
              100.4017744,
              -0.4585323
            ],
            [
              100.4017298,
              -0.458585
            ],
            [
              100.4017249,
              -0.4586119
            ],
            [
              100.4017472,
              -0.4586449
            ],
            [
              100.4017603,
              -0.458663
            ],
            [
              100.4017835,
              -0.4586949
            ],
            [
              100.4018112,
              -0.4587319
            ],
            [
              100.4018254,
              -0.4587504
            ],
            [
              100.4018307,
              -0.4587662
            ],
            [
              100.4018295,
              -0.4587789
            ],
            [
              100.4018137,
              -0.4588812
            ],
            [
              100.4018055,
              -0.4589346
            ],
            [
              100.4017835,
              -0.4590775
            ],
            [
              100.4017699,
              -0.4591662
            ],
            [
              100.401766,
              -0.4591917
            ],
            [
              100.401755,
              -0.4592646
            ],
            [
              100.401737,
              -0.4593375
            ],
            [
              100.4017196,
              -0.459366
            ],
            [
              100.401711,
              -0.4593819
            ],
            [
              100.4017042,
              -0.4593932
            ],
            [
              100.4016883,
              -0.4594111
            ],
            [
              100.4016204,
              -0.4594609
            ],
            [
              100.4015656,
              -0.4595067
            ],
            [
              100.4015364,
              -0.459539
            ],
            [
              100.401529,
              -0.4595672
            ],
            [
              100.401537,
              -0.4596041
            ],
            [
              100.4015575,
              -0.4596356
            ],
            [
              100.4015893,
              -0.4596686
            ],
            [
              100.4016038,
              -0.4596836
            ],
            [
              100.4016097,
              -0.4596897
            ],
            [
              100.40163,
              -0.4597108
            ],
            [
              100.4016506,
              -0.459738
            ],
            [
              100.4016672,
              -0.4597722
            ],
            [
              100.4016733,
              -0.4597914
            ],
            [
              100.4016774,
              -0.4598048
            ],
            [
              100.4016979,
              -0.4598717
            ],
            [
              100.4017065,
              -0.4598997
            ],
            [
              100.4017129,
              -0.4599316
            ],
            [
              100.4017192,
              -0.4599634
            ],
            [
              100.4017209,
              -0.4599823
            ],
            [
              100.4017214,
              -0.4600003
            ],
            [
              100.4017177,
              -0.4600366
            ],
            [
              100.4016985,
              -0.4601024
            ],
            [
              100.4016793,
              -0.4601682
            ],
            [
              100.4016725,
              -0.4601777
            ],
            [
              100.4016656,
              -0.4601847
            ],
            [
              100.4016574,
              -0.4601903
            ],
            [
              100.4016486,
              -0.4601958
            ],
            [
              100.4015934,
              -0.4602301
            ],
            [
              100.4015915,
              -0.4602312
            ],
            [
              100.4015642,
              -0.460248
            ],
            [
              100.4015407,
              -0.4602992
            ],
            [
              100.401535,
              -0.4603773
            ],
            [
              100.4015591,
              -0.4604666
            ],
            [
              100.4015779,
              -0.4605258
            ],
            [
              100.4015914,
              -0.4605606
            ],
            [
              100.4016052,
              -0.4605958
            ],
            [
              100.4016139,
              -0.4606164
            ],
            [
              100.4016181,
              -0.4606293
            ],
            [
              100.4016207,
              -0.4606412
            ],
            [
              100.401621,
              -0.460656
            ],
            [
              100.4016194,
              -0.4606694
            ],
            [
              100.4016148,
              -0.4606834
            ],
            [
              100.4015878,
              -0.460758
            ],
            [
              100.4015339,
              -0.4608735
            ],
            [
              100.4015228,
              -0.4608945
            ],
            [
              100.4015173,
              -0.4609016
            ],
            [
              100.4015082,
              -0.4609078
            ],
            [
              100.4014492,
              -0.4609517
            ],
            [
              100.4013754,
              -0.46103
            ],
            [
              100.4013615,
              -0.4610478
            ],
            [
              100.4013111,
              -0.4611177
            ],
            [
              100.4012864,
              -0.461177
            ],
            [
              100.4012759,
              -0.4612383
            ],
            [
              100.4012626,
              -0.4613417
            ],
            [
              100.4012617,
              -0.4613933
            ],
            [
              100.4012617,
              -0.4614249
            ],
            [
              100.4012541,
              -0.461446
            ],
            [
              100.4012398,
              -0.4614814
            ],
            [
              100.4012018,
              -0.4615609
            ],
            [
              100.4011562,
              -0.4616193
            ],
            [
              100.4010916,
              -0.461714
            ],
            [
              100.4010184,
              -0.461804
            ],
            [
              100.401015,
              -0.4618089
            ],
            [
              100.4010085,
              -0.4618216
            ],
            [
              100.4009903,
              -0.4618445
            ],
            [
              100.4009832,
              -0.4618548
            ],
            [
              100.4009365,
              -0.4619153
            ],
            [
              100.4011309,
              -0.4620058
            ]
          ]
        ]
      },
      "id": "relation/17857400"
    }
  ]
}