{
  "type": "FeatureCollection",
  "generator": "overpass-turbo",
  "copyright": "The data included in this document is from www.openstreetmap.org. The data is made available under ODbL.",
  "timestamp": "2025-07-15T05:15:01Z",
  "features": [
    {
      "type": "Feature",
      "properties": {
        "@id": "relation/17857402",
        "admin_level": "7",
        "boundary": "administrative",
        "is_in:city": "Kota Padang Panjang",
        "is_in:district": "Padang Panjang Timur",
        "is_in:province": "Sumatera Barat",
        "name": "Koto Katik",
        "official_name": "Kelurahan Koto Katik",
        "place": "subdistrict",
        "type": "boundary"
      },
      "geometry": {
        "type": "Polygon",
        "coordinates": [
          [
            [
              100.4135743,
              -0.4736178
            ],
            [
              100.4135701,
              -0.4736211
            ],
            [
              100.4135618,
              -0.4736255
            ],
            [
              100.4135536,
              -0.47363
            ],
            [
              100.4135415,
              -0.473638
            ],
            [
              100.4135309,
              -0.4736418
            ],
            [
              100.413521,
              -0.4736443
            ],
            [
              100.4135214,
              -0.4736444
            ],
            [
              100.41351,
              -0.4736463
            ],
            [
              100.4135082,
              -0.4736465
            ],
            [
              100.4134269,
              -0.4736597
            ],
            [
              100.4133805,
              -0.4736671
            ],
            [
              100.4132995,
              -0.4736802
            ],
            [
              100.41325,
              -0.4736963
            ],
            [
              100.4131479,
              -0.4737295
            ],
            [
              100.4131245,
              -0.4737371
            ],
            [
              100.4131061,
              -0.4737431
            ],
            [
              100.4130394,
              -0.4737636
            ],
            [
              100.4129126,
              -0.4738027
            ],
            [
              100.4128673,
              -0.4738182
            ],
            [
              100.4128474,
              -0.473825
            ],
            [
              100.4127098,
              -0.4738719
            ],
            [
              100.4126693,
              -0.4738939
            ],
            [
              100.4126037,
              -0.4739379
            ],
            [
              100.412563,
              -0.4739604
            ],
            [
              100.4125414,
              -0.4739724
            ],
            [
              100.4124477,
              -0.4739976
            ],
            [
              100.4124131,
              -0.4740097
            ],
            [
              100.412444,
              -0.474105
            ],
            [
              100.4124482,
              -0.4741218
            ],
            [
              100.4122657,
              -0.4741994
            ],
            [
              100.412106,
              -0.4742712
            ],
            [
              100.4120161,
              -0.4743171
            ],
            [
              100.4118775,
              -0.4743844
            ],
            [
              100.4118921,
              -0.4744422
            ],
            [
              100.4119052,
              -0.4744979
            ],
            [
              100.4116389,
              -0.4745649
            ],
            [
              100.4115497,
              -0.4746044
            ],
            [
              100.4114963,
              -0.474626
            ],
            [
              100.4114963,
              -0.4746726
            ],
            [
              100.4115034,
              -0.4747767
            ],
            [
              100.4115177,
              -0.4749279
            ],
            [
              100.4115436,
              -0.475005
            ],
            [
              100.4115674,
              -0.4751055
            ],
            [
              100.4115627,
              -0.4751821
            ],
            [
              100.4115437,
              -0.4752491
            ],
            [
              100.4115199,
              -0.4753353
            ],
            [
              100.4114914,
              -0.4753831
            ],
            [
              100.4114201,
              -0.4754214
            ],
            [
              100.4113535,
              -0.4754597
            ],
            [
              100.4112822,
              -0.4754645
            ],
            [
              100.4112372,
              -0.4754182
            ],
            [
              100.4112421,
              -0.4753128
            ],
            [
              100.4112313,
              -0.4752231
            ],
            [
              100.4112064,
              -0.4751585
            ],
            [
              100.4111671,
              -0.475119
            ],
            [
              100.4110602,
              -0.4750724
            ],
            [
              100.4110316,
              -0.4750436
            ],
            [
              100.4109853,
              -0.4750221
            ],
            [
              100.4109068,
              -0.4750185
            ],
            [
              100.4108404,
              -0.4750098
            ],
            [
              100.4107499,
              -0.4750078
            ],
            [
              100.4107214,
              -0.4750509
            ],
            [
              100.4106929,
              -0.4750688
            ],
            [
              100.4105966,
              -0.4751048
            ],
            [
              100.4105396,
              -0.4750904
            ],
            [
              100.4104968,
              -0.4750581
            ],
            [
              100.4104718,
              -0.4750222
            ],
            [
              100.4104448,
              -0.474993
            ],
            [
              100.4104138,
              -0.4750304
            ],
            [
              100.4103605,
              -0.4750945
            ],
            [
              100.410397,
              -0.4751945
            ],
            [
              100.4104778,
              -0.4752769
            ],
            [
              100.4104479,
              -0.4752913
            ],
            [
              100.4104225,
              -0.4752998
            ],
            [
              100.4104002,
              -0.475303
            ],
            [
              100.4103747,
              -0.4753063
            ],
            [
              100.4103496,
              -0.4753101
            ],
            [
              100.4103133,
              -0.4753145
            ],
            [
              100.4102851,
              -0.4753215
            ],
            [
              100.4102552,
              -0.4753335
            ],
            [
              100.4102236,
              -0.4753445
            ],
            [
              100.41019,
              -0.4753563
            ],
            [
              100.4101743,
              -0.4753625
            ],
            [
              100.4101555,
              -0.47537
            ],
            [
              100.4101311,
              -0.4753765
            ],
            [
              100.4101101,
              -0.4753818
            ],
            [
              100.4100865,
              -0.4753901
            ],
            [
              100.4100673,
              -0.4753986
            ],
            [
              100.4100546,
              -0.4754091
            ],
            [
              100.4100432,
              -0.4754252
            ],
            [
              100.4100357,
              -0.4754446
            ],
            [
              100.4100262,
              -0.4754744
            ],
            [
              100.4100152,
              -0.4755097
            ],
            [
              100.4100075,
              -0.4755386
            ],
            [
              100.4100054,
              -0.4755456
            ],
            [
              100.4099987,
              -0.4755672
            ],
            [
              100.4099854,
              -0.4755927
            ],
            [
              100.4099709,
              -0.4756202
            ],
            [
              100.4099549,
              -0.4756432
            ],
            [
              100.4099357,
              -0.4756647
            ],
            [
              100.409911,
              -0.4756841
            ],
            [
              100.4098904,
              -0.4756993
            ],
            [
              100.4098699,
              -0.4757154
            ],
            [
              100.4098516,
              -0.475732
            ],
            [
              100.4098332,
              -0.475753
            ],
            [
              100.4098124,
              -0.475778
            ],
            [
              100.4097962,
              -0.4758012
            ],
            [
              100.4097837,
              -0.4758164
            ],
            [
              100.4097695,
              -0.4758321
            ],
            [
              100.409758,
              -0.4758442
            ],
            [
              100.4097461,
              -0.4758527
            ],
            [
              100.4097364,
              -0.4758567
            ],
            [
              100.4097274,
              -0.4758578
            ],
            [
              100.4097165,
              -0.4758576
            ],
            [
              100.4097052,
              -0.475856
            ],
            [
              100.4096947,
              -0.4758517
            ],
            [
              100.4096823,
              -0.475843
            ],
            [
              100.4096772,
              -0.4758362
            ],
            [
              100.4096635,
              -0.4758437
            ],
            [
              100.4095739,
              -0.4759227
            ],
            [
              100.4095353,
              -0.4760034
            ],
            [
              100.4094848,
              -0.4761021
            ],
            [
              100.4093066,
              -0.476153
            ],
            [
              100.4092694,
              -0.4761735
            ],
            [
              100.4091878,
              -0.4762188
            ],
            [
              100.4091398,
              -0.4762492
            ],
            [
              100.4090126,
              -0.47633
            ],
            [
              100.4090182,
              -0.4763728
            ],
            [
              100.4090538,
              -0.4765283
            ],
            [
              100.4092733,
              -0.4767487
            ],
            [
              100.4093439,
              -0.4769002
            ],
            [
              100.409305,
              -0.477077
            ],
            [
              100.4092734,
              -0.4772398
            ],
            [
              100.4092562,
              -0.4773181
            ],
            [
              100.409239,
              -0.4773964
            ],
            [
              100.4091968,
              -0.4775256
            ],
            [
              100.4091637,
              -0.477587
            ],
            [
              100.4093321,
              -0.4777019
            ],
            [
              100.4093131,
              -0.4777434
            ],
            [
              100.4092689,
              -0.4778375
            ],
            [
              100.40922,
              -0.4779394
            ],
            [
              100.4091675,
              -0.4780463
            ],
            [
              100.4091122,
              -0.4781552
            ],
            [
              100.4090553,
              -0.4782632
            ],
            [
              100.4090095,
              -0.4783466
            ],
            [
              100.4089593,
              -0.4784355
            ],
            [
              100.4089065,
              -0.4785275
            ],
            [
              100.4088526,
              -0.4786205
            ],
            [
              100.4087992,
              -0.4787121
            ],
            [
              100.4087479,
              -0.4788001
            ],
            [
              100.4087002,
              -0.4788821
            ],
            [
              100.4086576,
              -0.4789559
            ],
            [
              100.4085969,
              -0.479064
            ],
            [
              100.4085402,
              -0.4791679
            ],
            [
              100.4084873,
              -0.4792681
            ],
            [
              100.4084374,
              -0.4793651
            ],
            [
              100.4084315,
              -0.4793769
            ],
            [
              100.4083904,
              -0.4794592
            ],
            [
              100.40835,
              -0.4795415
            ],
            [
              100.4083035,
              -0.4796345
            ],
            [
              100.4082551,
              -0.4797311
            ],
            [
              100.4082069,
              -0.4798264
            ],
            [
              100.4081612,
              -0.4799158
            ],
            [
              100.4081195,
              -0.4799952
            ],
            [
              100.408061,
              -0.4801019
            ],
            [
              100.4080031,
              -0.4802036
            ],
            [
              100.4079474,
              -0.480301
            ],
            [
              100.4078955,
              -0.4803948
            ],
            [
              100.4078539,
              -0.4804739
            ],
            [
              100.4078289,
              -0.480523
            ],
            [
              100.4078095,
              -0.4805611
            ],
            [
              100.4078028,
              -0.4805746
            ],
            [
              100.4077641,
              -0.4806515
            ],
            [
              100.4077193,
              -0.4807404
            ],
            [
              100.4076992,
              -0.4807795
            ],
            [
              100.4074289,
              -0.4811714
            ],
            [
              100.4079424,
              -0.4815111
            ],
            [
              100.4084064,
              -0.481888
            ],
            [
              100.4094679,
              -0.4824633
            ],
            [
              100.4099977,
              -0.482604
            ],
            [
              100.4113997,
              -0.4827853
            ],
            [
              100.4117717,
              -0.4826808
            ],
            [
              100.4118891,
              -0.4826008
            ],
            [
              100.4121843,
              -0.4826537
            ],
            [
              100.4122603,
              -0.4828039
            ],
            [
              100.4124095,
              -0.48277
            ],
            [
              100.4125824,
              -0.4826639
            ],
            [
              100.4126308,
              -0.4827268
            ],
            [
              100.4125939,
              -0.4829307
            ],
            [
              100.4127502,
              -0.4830802
            ],
            [
              100.4128544,
              -0.4831262
            ],
            [
              100.4131273,
              -0.4831422
            ],
            [
              100.4132185,
              -0.483254
            ],
            [
              100.4137053,
              -0.4836555
            ],
            [
              100.4149392,
              -0.484488
            ],
            [
              100.4151531,
              -0.4845741
            ],
            [
              100.4157379,
              -0.4847032
            ],
            [
              100.416061,
              -0.4847013
            ],
            [
              100.4165482,
              -0.4848074
            ],
            [
              100.4168089,
              -0.4849449
            ],
            [
              100.4172735,
              -0.4850737
            ],
            [
              100.417386,
              -0.4852966
            ],
            [
              100.4175361,
              -0.4853897
            ],
            [
              100.4176735,
              -0.4856345
            ],
            [
              100.4178766,
              -0.4857336
            ],
            [
              100.417913,
              -0.4858499
            ],
            [
              100.4179624,
              -0.4858367
            ],
            [
              100.417997,
              -0.4857086
            ],
            [
              100.4180476,
              -0.4857864
            ],
            [
              100.4186885,
              -0.485928
            ],
            [
              100.4187747,
              -0.4860851
            ],
            [
              100.4191368,
              -0.4863532
            ],
            [
              100.4192782,
              -0.4863409
            ],
            [
              100.4195644,
              -0.4862182
            ],
            [
              100.4197059,
              -0.4862733
            ],
            [
              100.4197614,
              -0.4862623
            ],
            [
              100.4198391,
              -0.4861485
            ],
            [
              100.4198849,
              -0.4857873
            ],
            [
              100.4201244,
              -0.4856325
            ],
            [
              100.4202822,
              -0.4854818
            ],
            [
              100.420367,
              -0.4853327
            ],
            [
              100.4204885,
              -0.485261
            ],
            [
              100.4207313,
              -0.485193
            ],
            [
              100.4207027,
              -0.4850466
            ],
            [
              100.4207641,
              -0.4849748
            ],
            [
              100.4208511,
              -0.4849446
            ],
            [
              100.420988,
              -0.4849761
            ],
            [
              100.4211752,
              -0.4845499
            ],
            [
              100.4210933,
              -0.4844312
            ],
            [
              100.4212481,
              -0.4843422
            ],
            [
              100.4212495,
              -0.4842359
            ],
            [
              100.421124,
              -0.4840105
            ],
            [
              100.4211029,
              -0.4838612
            ],
            [
              100.4210445,
              -0.4837548
            ],
            [
              100.4210204,
              -0.4836073
            ],
            [
              100.4210231,
              -0.4834356
            ],
            [
              100.4210392,
              -0.4831674
            ],
            [
              100.4210687,
              -0.483036
            ],
            [
              100.4211223,
              -0.4829367
            ],
            [
              100.421412,
              -0.482454
            ],
            [
              100.4214066,
              -0.4823762
            ],
            [
              100.4213691,
              -0.4822823
            ],
            [
              100.4212296,
              -0.4822394
            ],
            [
              100.4209641,
              -0.4822206
            ],
            [
              100.4208299,
              -0.4821455
            ],
            [
              100.4206556,
              -0.482049
            ],
            [
              100.4205242,
              -0.4820516
            ],
            [
              100.4203096,
              -0.4820865
            ],
            [
              100.4201379,
              -0.4820597
            ],
            [
              100.4200575,
              -0.4820114
            ],
            [
              100.4200038,
              -0.4819363
            ],
            [
              100.4200494,
              -0.4816332
            ],
            [
              100.4199421,
              -0.4815662
            ],
            [
              100.4198295,
              -0.481593
            ],
            [
              100.4197951,
              -0.4816262
            ],
            [
              100.4197553,
              -0.4816525
            ],
            [
              100.4197113,
              -0.4816712
            ],
            [
              100.4196647,
              -0.4816814
            ],
            [
              100.419617,
              -0.481683
            ],
            [
              100.4195698,
              -0.4816759
            ],
            [
              100.4195247,
              -0.4816602
            ],
            [
              100.4194832,
              -0.4816366
            ],
            [
              100.4194467,
              -0.4816058
            ],
            [
              100.4194164,
              -0.4815689
            ],
            [
              100.419395,
              -0.4815305
            ],
            [
              100.4193803,
              -0.4814892
            ],
            [
              100.4193728,
              -0.4814459
            ],
            [
              100.4193727,
              -0.481402
            ],
            [
              100.4193799,
              -0.4813587
            ],
            [
              100.4193943,
              -0.4813173
            ],
            [
              100.4194155,
              -0.4812788
            ],
            [
              100.4194165,
              -0.4812707
            ],
            [
              100.4194192,
              -0.4812532
            ],
            [
              100.4194219,
              -0.4812285
            ],
            [
              100.4194223,
              -0.4812036
            ],
            [
              100.4194365,
              -0.4811494
            ],
            [
              100.419441,
              -0.4811251
            ],
            [
              100.4194446,
              -0.4811064
            ],
            [
              100.4194489,
              -0.4810898
            ],
            [
              100.4194557,
              -0.4810769
            ],
            [
              100.4194636,
              -0.4810653
            ],
            [
              100.4194722,
              -0.481057
            ],
            [
              100.4194825,
              -0.4810409
            ],
            [
              100.4194889,
              -0.4810266
            ],
            [
              100.4194972,
              -0.4810128
            ],
            [
              100.4195117,
              -0.480993
            ],
            [
              100.4195256,
              -0.4809708
            ],
            [
              100.4195317,
              -0.4809621
            ],
            [
              100.4195343,
              -0.4809584
            ],
            [
              100.4195571,
              -0.4809114
            ],
            [
              100.4195672,
              -0.4808923
            ],
            [
              100.4195778,
              -0.4808694
            ],
            [
              100.4195866,
              -0.480846
            ],
            [
              100.4195925,
              -0.4808279
            ],
            [
              100.4195976,
              -0.4808083
            ],
            [
              100.4196085,
              -0.4807844
            ],
            [
              100.4196149,
              -0.4807659
            ],
            [
              100.4196187,
              -0.4807498
            ],
            [
              100.419622,
              -0.4807307
            ],
            [
              100.4196213,
              -0.4807108
            ],
            [
              100.4196163,
              -0.4806961
            ],
            [
              100.4196079,
              -0.4806794
            ],
            [
              100.4195955,
              -0.4806607
            ],
            [
              100.4195858,
              -0.4806511
            ],
            [
              100.4195818,
              -0.4806473
            ],
            [
              100.4195659,
              -0.4806374
            ],
            [
              100.4195385,
              -0.4806224
            ],
            [
              100.4195212,
              -0.4806131
            ],
            [
              100.4195062,
              -0.4806111
            ],
            [
              100.4194929,
              -0.4806098
            ],
            [
              100.4194738,
              -0.4806083
            ],
            [
              100.4194495,
              -0.4806069
            ],
            [
              100.4194214,
              -0.4806056
            ],
            [
              100.4194041,
              -0.4806043
            ],
            [
              100.4193815,
              -0.4806067
            ],
            [
              100.4193653,
              -0.4806119
            ],
            [
              100.4193467,
              -0.4806202
            ],
            [
              100.4193116,
              -0.4806357
            ],
            [
              100.4192992,
              -0.4806412
            ],
            [
              100.419283,
              -0.4806495
            ],
            [
              100.4192601,
              -0.4806615
            ],
            [
              100.4192237,
              -0.4806753
            ],
            [
              100.4192015,
              -0.4806867
            ],
            [
              100.4191838,
              -0.4806957
            ],
            [
              100.4191655,
              -0.4807062
            ],
            [
              100.4191528,
              -0.4807176
            ],
            [
              100.4191121,
              -0.4807467
            ],
            [
              100.4190873,
              -0.4807704
            ],
            [
              100.4190699,
              -0.4807801
            ],
            [
              100.4190673,
              -0.4807816
            ],
            [
              100.4190501,
              -0.4807899
            ],
            [
              100.4190467,
              -0.480791
            ],
            [
              100.4190212,
              -0.4807993
            ],
            [
              100.4189927,
              -0.4807969
            ],
            [
              100.418968,
              -0.480797
            ],
            [
              100.418948,
              -0.4807939
            ],
            [
              100.4189299,
              -0.4807885
            ],
            [
              100.4189128,
              -0.480779
            ],
            [
              100.4188935,
              -0.4807697
            ],
            [
              100.418876,
              -0.4807582
            ],
            [
              100.4188463,
              -0.4807376
            ],
            [
              100.4188353,
              -0.480724
            ],
            [
              100.4188248,
              -0.4807121
            ],
            [
              100.4188067,
              -0.4806977
            ],
            [
              100.4187927,
              -0.480687
            ],
            [
              100.4187659,
              -0.4806639
            ],
            [
              100.4187433,
              -0.4806413
            ],
            [
              100.4187272,
              -0.4806297
            ],
            [
              100.4187046,
              -0.4806152
            ],
            [
              100.4186875,
              -0.4806064
            ],
            [
              100.4186574,
              -0.4805899
            ],
            [
              100.4186365,
              -0.4805776
            ],
            [
              100.4186163,
              -0.4805644
            ],
            [
              100.4185989,
              -0.4805513
            ],
            [
              100.418558,
              -0.4805196
            ],
            [
              100.4185218,
              -0.4804972
            ],
            [
              100.4184957,
              -0.4804815
            ],
            [
              100.4184407,
              -0.4804481
            ],
            [
              100.4184211,
              -0.4804353
            ],
            [
              100.4184068,
              -0.4804247
            ],
            [
              100.4183946,
              -0.480418
            ],
            [
              100.4183767,
              -0.48041
            ],
            [
              100.4183572,
              -0.480402
            ],
            [
              100.4183395,
              -0.4803982
            ],
            [
              100.4183185,
              -0.4803929
            ],
            [
              100.4182949,
              -0.4803839
            ],
            [
              100.4182564,
              -0.4803648
            ],
            [
              100.4182399,
              -0.4803572
            ],
            [
              100.4182274,
              -0.4803516
            ],
            [
              100.4182126,
              -0.4803504
            ],
            [
              100.4181901,
              -0.4803525
            ],
            [
              100.4181755,
              -0.4803561
            ],
            [
              100.418162,
              -0.4803607
            ],
            [
              100.4181454,
              -0.4803656
            ],
            [
              100.4180956,
              -0.4803778
            ],
            [
              100.4180737,
              -0.4803842
            ],
            [
              100.4180516,
              -0.4803928
            ],
            [
              100.4180121,
              -0.4804109
            ],
            [
              100.4179949,
              -0.4804235
            ],
            [
              100.4179777,
              -0.4804395
            ],
            [
              100.4179611,
              -0.4804623
            ],
            [
              100.4179522,
              -0.4804795
            ],
            [
              100.4179431,
              -0.4804936
            ],
            [
              100.4179318,
              -0.480506
            ],
            [
              100.4179004,
              -0.4805262
            ],
            [
              100.4178758,
              -0.480542
            ],
            [
              100.4178366,
              -0.4805718
            ],
            [
              100.4178238,
              -0.480579
            ],
            [
              100.4177902,
              -0.4805901
            ],
            [
              100.4177661,
              -0.480599
            ],
            [
              100.4177501,
              -0.4806049
            ],
            [
              100.4177029,
              -0.4806069
            ],
            [
              100.4176826,
              -0.4806031
            ],
            [
              100.4176659,
              -0.480601
            ],
            [
              100.417649,
              -0.4805991
            ],
            [
              100.4176273,
              -0.4805986
            ],
            [
              100.4176023,
              -0.4805952
            ],
            [
              100.4175713,
              -0.4805907
            ],
            [
              100.4175488,
              -0.4805836
            ],
            [
              100.4175322,
              -0.4805758
            ],
            [
              100.4175161,
              -0.4805681
            ],
            [
              100.4174969,
              -0.4805597
            ],
            [
              100.4174765,
              -0.4805544
            ],
            [
              100.4174549,
              -0.4805477
            ],
            [
              100.4174372,
              -0.4805425
            ],
            [
              100.4173882,
              -0.4805329
            ],
            [
              100.4173752,
              -0.4805298
            ],
            [
              100.4173573,
              -0.4805274
            ],
            [
              100.4173417,
              -0.4805281
            ],
            [
              100.4173196,
              -0.4805308
            ],
            [
              100.4173013,
              -0.4805326
            ],
            [
              100.4172726,
              -0.4805355
            ],
            [
              100.4172368,
              -0.4805372
            ],
            [
              100.4171768,
              -0.4805386
            ],
            [
              100.4171601,
              -0.4805393
            ],
            [
              100.4171399,
              -0.4805405
            ],
            [
              100.4171159,
              -0.4805429
            ],
            [
              100.4170649,
              -0.4805431
            ],
            [
              100.4170439,
              -0.4805433
            ],
            [
              100.4170202,
              -0.4805371
            ],
            [
              100.4169929,
              -0.4805274
            ],
            [
              100.416959,
              -0.4805181
            ],
            [
              100.4169417,
              -0.4805106
            ],
            [
              100.4169287,
              -0.4805084
            ],
            [
              100.4169085,
              -0.4805139
            ],
            [
              100.4168729,
              -0.4805311
            ],
            [
              100.416845,
              -0.4805375
            ],
            [
              100.4168174,
              -0.4805397
            ],
            [
              100.4167973,
              -0.4805418
            ],
            [
              100.4167589,
              -0.4805426
            ],
            [
              100.416739,
              -0.4805412
            ],
            [
              100.416718,
              -0.4805358
            ],
            [
              100.4167056,
              -0.4805294
            ],
            [
              100.4166853,
              -0.4805141
            ],
            [
              100.4166743,
              -0.4805038
            ],
            [
              100.4166673,
              -0.4804904
            ],
            [
              100.4166652,
              -0.4804756
            ],
            [
              100.4166675,
              -0.4804586
            ],
            [
              100.4166694,
              -0.4804477
            ],
            [
              100.4166738,
              -0.4804344
            ],
            [
              100.4166775,
              -0.4804175
            ],
            [
              100.4166801,
              -0.4803968
            ],
            [
              100.4166836,
              -0.4803691
            ],
            [
              100.4166858,
              -0.4803469
            ],
            [
              100.4166876,
              -0.4803261
            ],
            [
              100.4166942,
              -0.4802738
            ],
            [
              100.4166998,
              -0.4802471
            ],
            [
              100.4167019,
              -0.4802381
            ],
            [
              100.416706,
              -0.4802241
            ],
            [
              100.4167088,
              -0.480214
            ],
            [
              100.4167154,
              -0.4801921
            ],
            [
              100.4167227,
              -0.4801681
            ],
            [
              100.4167289,
              -0.4801498
            ],
            [
              100.4167368,
              -0.4801318
            ],
            [
              100.4167459,
              -0.4801136
            ],
            [
              100.4167535,
              -0.4801006
            ],
            [
              100.4167667,
              -0.4800821
            ],
            [
              100.4168014,
              -0.4800384
            ],
            [
              100.4168099,
              -0.4800241
            ],
            [
              100.416815,
              -0.4800127
            ],
            [
              100.4168193,
              -0.4800016
            ],
            [
              100.4168268,
              -0.4799901
            ],
            [
              100.4168388,
              -0.4799739
            ],
            [
              100.4168461,
              -0.479965
            ],
            [
              100.4168543,
              -0.4799532
            ],
            [
              100.4168617,
              -0.4799402
            ],
            [
              100.4168684,
              -0.4799295
            ],
            [
              100.4168744,
              -0.4799179
            ],
            [
              100.416883,
              -0.4799018
            ],
            [
              100.4168916,
              -0.4798887
            ],
            [
              100.4169066,
              -0.4798739
            ],
            [
              100.4169234,
              -0.4798604
            ],
            [
              100.4169401,
              -0.4798511
            ],
            [
              100.4169562,
              -0.4798416
            ],
            [
              100.4169931,
              -0.4798159
            ],
            [
              100.4170099,
              -0.4798012
            ],
            [
              100.4170195,
              -0.4797886
            ],
            [
              100.4170278,
              -0.4797755
            ],
            [
              100.4170378,
              -0.4797599
            ],
            [
              100.4170506,
              -0.4797422
            ],
            [
              100.4170645,
              -0.4797312
            ],
            [
              100.4170797,
              -0.4797212
            ],
            [
              100.417093,
              -0.4797145
            ],
            [
              100.4171096,
              -0.479707
            ],
            [
              100.4171191,
              -0.4797012
            ],
            [
              100.41716,
              -0.4796447
            ],
            [
              100.4172153,
              -0.4795754
            ],
            [
              100.4172574,
              -0.4795136
            ],
            [
              100.4172611,
              -0.4795012
            ],
            [
              100.4172625,
              -0.47949
            ],
            [
              100.4172612,
              -0.4794758
            ],
            [
              100.4172596,
              -0.4794634
            ],
            [
              100.4172587,
              -0.4794436
            ],
            [
              100.4172614,
              -0.4794242
            ],
            [
              100.4172678,
              -0.4794042
            ],
            [
              100.4172815,
              -0.479373
            ],
            [
              100.4172896,
              -0.4793506
            ],
            [
              100.4172953,
              -0.4793355
            ],
            [
              100.417296,
              -0.4793072
            ],
            [
              100.417298,
              -0.4792847
            ],
            [
              100.4173003,
              -0.4792643
            ],
            [
              100.4173026,
              -0.4792409
            ],
            [
              100.4173046,
              -0.4792216
            ],
            [
              100.4173054,
              -0.4791989
            ],
            [
              100.4173062,
              -0.4791757
            ],
            [
              100.4173075,
              -0.4791536
            ],
            [
              100.4173104,
              -0.4791348
            ],
            [
              100.4173105,
              -0.4791083
            ],
            [
              100.4173096,
              -0.4790906
            ],
            [
              100.4173126,
              -0.4790505
            ],
            [
              100.4173132,
              -0.479036
            ],
            [
              100.4173138,
              -0.4790176
            ],
            [
              100.4173119,
              -0.4789913
            ],
            [
              100.4173114,
              -0.4789724
            ],
            [
              100.4173104,
              -0.478948
            ],
            [
              100.4173063,
              -0.4789298
            ],
            [
              100.4173009,
              -0.4789097
            ],
            [
              100.4172918,
              -0.4788681
            ],
            [
              100.4172824,
              -0.4788102
            ],
            [
              100.4172724,
              -0.4787836
            ],
            [
              100.4172719,
              -0.4787648
            ],
            [
              100.4172753,
              -0.4787316
            ],
            [
              100.4172754,
              -0.4787304
            ],
            [
              100.4172776,
              -0.478702
            ],
            [
              100.4172785,
              -0.4786754
            ],
            [
              100.4172804,
              -0.478657
            ],
            [
              100.4172791,
              -0.4786364
            ],
            [
              100.4172768,
              -0.4786149
            ],
            [
              100.4172726,
              -0.4785916
            ],
            [
              100.4172672,
              -0.4785697
            ],
            [
              100.4172589,
              -0.4785482
            ],
            [
              100.4172494,
              -0.4785288
            ],
            [
              100.4172306,
              -0.4784945
            ],
            [
              100.4172188,
              -0.4784709
            ],
            [
              100.4173798,
              -0.4784382
            ],
            [
              100.417444,
              -0.4784382
            ],
            [
              100.4174796,
              -0.4784095
            ],
            [
              100.417501,
              -0.4783449
            ],
            [
              100.417501,
              -0.4782587
            ],
            [
              100.4175224,
              -0.4781869
            ],
            [
              100.4175509,
              -0.4781223
            ],
            [
              100.4176079,
              -0.4781007
            ],
            [
              100.4175865,
              -0.4779859
            ],
            [
              100.4175651,
              -0.4778638
            ],
            [
              100.4175223,
              -0.4777992
            ],
            [
              100.4172798,
              -0.4777275
            ],
            [
              100.4169517,
              -0.477584
            ],
            [
              100.4168804,
              -0.4776199
            ],
            [
              100.4167592,
              -0.4776917
            ],
            [
              100.4165596,
              -0.4777994
            ],
            [
              100.4163385,
              -0.4779143
            ],
            [
              100.4160737,
              -0.478121
            ],
            [
              100.4160435,
              -0.4781461
            ],
            [
              100.4160149,
              -0.4781727
            ],
            [
              100.4159885,
              -0.4782036
            ],
            [
              100.4159881,
              -0.4782041
            ],
            [
              100.415958,
              -0.4782373
            ],
            [
              100.4158922,
              -0.4783051
            ],
            [
              100.415813,
              -0.4783808
            ],
            [
              100.4157816,
              -0.4784
            ],
            [
              100.4157474,
              -0.4784215
            ],
            [
              100.4157171,
              -0.4784367
            ],
            [
              100.4156813,
              -0.4784485
            ],
            [
              100.4156452,
              -0.4784559
            ],
            [
              100.4156132,
              -0.4784593
            ],
            [
              100.4155721,
              -0.4784599
            ],
            [
              100.4155331,
              -0.4784583
            ],
            [
              100.4155198,
              -0.4784562
            ],
            [
              100.4154943,
              -0.4784521
            ],
            [
              100.4154576,
              -0.478444
            ],
            [
              100.4154222,
              -0.4784355
            ],
            [
              100.4153825,
              -0.4784254
            ],
            [
              100.4153431,
              -0.4784129
            ],
            [
              100.4153056,
              -0.4784002
            ],
            [
              100.4152666,
              -0.4783885
            ],
            [
              100.4152481,
              -0.4783171
            ],
            [
              100.4152473,
              -0.4783091
            ],
            [
              100.4152469,
              -0.4782984
            ],
            [
              100.4152475,
              -0.4782897
            ],
            [
              100.4152504,
              -0.4782737
            ],
            [
              100.4152528,
              -0.478265
            ],
            [
              100.4152598,
              -0.4782437
            ],
            [
              100.4152786,
              -0.4781887
            ],
            [
              100.4152799,
              -0.4781841
            ],
            [
              100.4152828,
              -0.4781735
            ],
            [
              100.4152885,
              -0.4781606
            ],
            [
              100.415295,
              -0.4781495
            ],
            [
              100.4153041,
              -0.4781354
            ],
            [
              100.4153119,
              -0.4781251
            ],
            [
              100.4153218,
              -0.4781145
            ],
            [
              100.4153336,
              -0.4781029
            ],
            [
              100.4153536,
              -0.4780838
            ],
            [
              100.4153649,
              -0.4780698
            ],
            [
              100.4153749,
              -0.478056
            ],
            [
              100.4153844,
              -0.4780399
            ],
            [
              100.4153911,
              -0.4780281
            ],
            [
              100.4153948,
              -0.4780193
            ],
            [
              100.4154005,
              -0.4780067
            ],
            [
              100.4154033,
              -0.4779981
            ],
            [
              100.4154051,
              -0.4779906
            ],
            [
              100.4154061,
              -0.4779849
            ],
            [
              100.4154065,
              -0.4779779
            ],
            [
              100.4154056,
              -0.4779621
            ],
            [
              100.4154034,
              -0.4779462
            ],
            [
              100.4154023,
              -0.4779229
            ],
            [
              100.4154021,
              -0.4779131
            ],
            [
              100.4154004,
              -0.477896
            ],
            [
              100.4153977,
              -0.4778812
            ],
            [
              100.4153915,
              -0.4778479
            ],
            [
              100.4153823,
              -0.4778046
            ],
            [
              100.4153773,
              -0.4777788
            ],
            [
              100.4153734,
              -0.4777584
            ],
            [
              100.4153695,
              -0.4777371
            ],
            [
              100.4153611,
              -0.4777053
            ],
            [
              100.4153555,
              -0.4776831
            ],
            [
              100.4153484,
              -0.4776567
            ],
            [
              100.415345,
              -0.4776439
            ],
            [
              100.4153383,
              -0.477622
            ],
            [
              100.4153328,
              -0.477604
            ],
            [
              100.4153259,
              -0.4775823
            ],
            [
              100.41532,
              -0.4775583
            ],
            [
              100.415315,
              -0.477538
            ],
            [
              100.4153109,
              -0.4775041
            ],
            [
              100.4153099,
              -0.4774925
            ],
            [
              100.415313,
              -0.4774654
            ],
            [
              100.4153152,
              -0.4774514
            ],
            [
              100.415322,
              -0.4774114
            ],
            [
              100.4153239,
              -0.47739
            ],
            [
              100.415324,
              -0.4773793
            ],
            [
              100.4153234,
              -0.4773643
            ],
            [
              100.4153209,
              -0.4773493
            ],
            [
              100.415318,
              -0.4773344
            ],
            [
              100.4153154,
              -0.4773264
            ],
            [
              100.4153097,
              -0.4773132
            ],
            [
              100.4153073,
              -0.4773081
            ],
            [
              100.4153039,
              -0.477301
            ],
            [
              100.4153002,
              -0.4772945
            ],
            [
              100.4152961,
              -0.4772881
            ],
            [
              100.4152903,
              -0.4772807
            ],
            [
              100.4152823,
              -0.477273
            ],
            [
              100.4152744,
              -0.4772687
            ],
            [
              100.4152686,
              -0.4772666
            ],
            [
              100.4152602,
              -0.4772634
            ],
            [
              100.4152526,
              -0.4772615
            ],
            [
              100.415245,
              -0.4772599
            ],
            [
              100.4152368,
              -0.477258
            ],
            [
              100.4152069,
              -0.4772579
            ],
            [
              100.415183,
              -0.4772578
            ],
            [
              100.4151617,
              -0.4772579
            ],
            [
              100.415115,
              -0.4772573
            ],
            [
              100.4151081,
              -0.4772572
            ],
            [
              100.4150314,
              -0.4772536
            ],
            [
              100.4149972,
              -0.4772499
            ],
            [
              100.4149782,
              -0.4772472
            ],
            [
              100.4149521,
              -0.4772435
            ],
            [
              100.4149336,
              -0.4772424
            ],
            [
              100.4149166,
              -0.4772425
            ],
            [
              100.4149018,
              -0.4772425
            ],
            [
              100.4148872,
              -0.4772426
            ],
            [
              100.414877,
              -0.477243
            ],
            [
              100.4148038,
              -0.4772508
            ],
            [
              100.4147876,
              -0.4772522
            ],
            [
              100.4147787,
              -0.4772523
            ],
            [
              100.4147632,
              -0.4772502
            ],
            [
              100.4147498,
              -0.4772473
            ],
            [
              100.4147356,
              -0.4772413
            ],
            [
              100.4147186,
              -0.4772325
            ],
            [
              100.4147153,
              -0.4772305
            ],
            [
              100.4146598,
              -0.4771968
            ],
            [
              100.4146454,
              -0.477185
            ],
            [
              100.4146333,
              -0.4771749
            ],
            [
              100.4146261,
              -0.4771677
            ],
            [
              100.4146146,
              -0.4771542
            ],
            [
              100.4146043,
              -0.4771378
            ],
            [
              100.4145933,
              -0.4771141
            ],
            [
              100.41459,
              -0.4771023
            ],
            [
              100.4145893,
              -0.4770929
            ],
            [
              100.4145899,
              -0.4770838
            ],
            [
              100.4145939,
              -0.4770715
            ],
            [
              100.4145995,
              -0.4770615
            ],
            [
              100.4146057,
              -0.4770517
            ],
            [
              100.4146122,
              -0.4770422
            ],
            [
              100.4146165,
              -0.4770359
            ],
            [
              100.4146206,
              -0.4770283
            ],
            [
              100.4146237,
              -0.4770185
            ],
            [
              100.414625,
              -0.4770089
            ],
            [
              100.4146267,
              -0.4769895
            ],
            [
              100.414636,
              -0.4769092
            ],
            [
              100.4146381,
              -0.4768908
            ],
            [
              100.414643,
              -0.4768535
            ],
            [
              100.4146441,
              -0.4768449
            ],
            [
              100.414651,
              -0.4768084
            ],
            [
              100.4146567,
              -0.4767834
            ],
            [
              100.4146604,
              -0.4767651
            ],
            [
              100.4146631,
              -0.4767469
            ],
            [
              100.414666,
              -0.4767204
            ],
            [
              100.4146681,
              -0.4766977
            ],
            [
              100.4146729,
              -0.4766413
            ],
            [
              100.4146833,
              -0.4765655
            ],
            [
              100.4146948,
              -0.476506
            ],
            [
              100.4146984,
              -0.4764836
            ],
            [
              100.4146993,
              -0.4764636
            ],
            [
              100.414698,
              -0.4764499
            ],
            [
              100.414697,
              -0.4764468
            ],
            [
              100.4146938,
              -0.4764366
            ],
            [
              100.4146884,
              -0.4764257
            ],
            [
              100.4146819,
              -0.4764179
            ],
            [
              100.4146735,
              -0.4764118
            ],
            [
              100.4146624,
              -0.4764069
            ],
            [
              100.4146524,
              -0.4764045
            ],
            [
              100.4146509,
              -0.4764041
            ],
            [
              100.4146423,
              -0.4764026
            ],
            [
              100.4146308,
              -0.4763999
            ],
            [
              100.414608,
              -0.4763957
            ],
            [
              100.4145764,
              -0.4763899
            ],
            [
              100.414574,
              -0.4763894
            ],
            [
              100.4145591,
              -0.4763861
            ],
            [
              100.4145405,
              -0.4763805
            ],
            [
              100.4145247,
              -0.4763751
            ],
            [
              100.4145032,
              -0.4763681
            ],
            [
              100.4144913,
              -0.4763641
            ],
            [
              100.4144609,
              -0.4763543
            ],
            [
              100.4144478,
              -0.4763501
            ],
            [
              100.4144038,
              -0.4763359
            ],
            [
              100.4143909,
              -0.4763322
            ],
            [
              100.414382,
              -0.4763292
            ],
            [
              100.414379,
              -0.4763282
            ],
            [
              100.4143684,
              -0.476324
            ],
            [
              100.4143604,
              -0.4763201
            ],
            [
              100.4143513,
              -0.4763142
            ],
            [
              100.4143444,
              -0.4763088
            ],
            [
              100.4143379,
              -0.4762991
            ],
            [
              100.4143306,
              -0.4762863
            ],
            [
              100.4143229,
              -0.4762682
            ],
            [
              100.4143228,
              -0.4762678
            ],
            [
              100.4143198,
              -0.4762498
            ],
            [
              100.4143197,
              -0.4762233
            ],
            [
              100.4143213,
              -0.4762079
            ],
            [
              100.4143216,
              -0.4762048
            ],
            [
              100.4143235,
              -0.4761855
            ],
            [
              100.4143244,
              -0.4761702
            ],
            [
              100.4143263,
              -0.4761088
            ],
            [
              100.4143264,
              -0.4761051
            ],
            [
              100.4143251,
              -0.4760865
            ],
            [
              100.414325,
              -0.4760729
            ],
            [
              100.4143249,
              -0.476068
            ],
            [
              100.4143254,
              -0.4760502
            ],
            [
              100.4143256,
              -0.4760444
            ],
            [
              100.4143288,
              -0.4760119
            ],
            [
              100.4143288,
              -0.4760118
            ],
            [
              100.4143309,
              -0.4759882
            ],
            [
              100.4143327,
              -0.4759635
            ],
            [
              100.4143332,
              -0.4759573
            ],
            [
              100.4143364,
              -0.4759292
            ],
            [
              100.4143403,
              -0.4759008
            ],
            [
              100.4143425,
              -0.4758876
            ],
            [
              100.4143438,
              -0.4758799
            ],
            [
              100.4143468,
              -0.4758629
            ],
            [
              100.4143502,
              -0.4758421
            ],
            [
              100.4143528,
              -0.4758203
            ],
            [
              100.414353,
              -0.4758012
            ],
            [
              100.4143524,
              -0.4757828
            ],
            [
              100.4143507,
              -0.4757619
            ],
            [
              100.4143495,
              -0.4757463
            ],
            [
              100.4143494,
              -0.4757451
            ],
            [
              100.4143506,
              -0.4757125
            ],
            [
              100.4143522,
              -0.4756808
            ],
            [
              100.4143563,
              -0.4756612
            ],
            [
              100.41436,
              -0.4756471
            ],
            [
              100.414364,
              -0.4756339
            ],
            [
              100.4143694,
              -0.4756165
            ],
            [
              100.4143749,
              -0.4755989
            ],
            [
              100.4143788,
              -0.4755874
            ],
            [
              100.4143814,
              -0.4755796
            ],
            [
              100.4143872,
              -0.4755635
            ],
            [
              100.4143952,
              -0.4755451
            ],
            [
              100.4144018,
              -0.4755277
            ],
            [
              100.4144042,
              -0.4755132
            ],
            [
              100.4144046,
              -0.4755111
            ],
            [
              100.4144066,
              -0.4754918
            ],
            [
              100.4144073,
              -0.4754776
            ],
            [
              100.4144075,
              -0.4754725
            ],
            [
              100.4144069,
              -0.4754577
            ],
            [
              100.4144058,
              -0.4754461
            ],
            [
              100.4144032,
              -0.475431
            ],
            [
              100.4143946,
              -0.4754097
            ],
            [
              100.4143795,
              -0.4753837
            ],
            [
              100.4143753,
              -0.4753765
            ],
            [
              100.4143696,
              -0.4753685
            ],
            [
              100.4143579,
              -0.4753549
            ],
            [
              100.414347,
              -0.4753444
            ],
            [
              100.4143387,
              -0.4753363
            ],
            [
              100.4143267,
              -0.4753259
            ],
            [
              100.4143206,
              -0.4753146
            ],
            [
              100.4143009,
              -0.4752906
            ],
            [
              100.4142888,
              -0.475279
            ],
            [
              100.4142743,
              -0.4752678
            ],
            [
              100.4142372,
              -0.4752457
            ],
            [
              100.4141919,
              -0.4752269
            ],
            [
              100.4141699,
              -0.4752208
            ],
            [
              100.4141175,
              -0.4752112
            ],
            [
              100.4140945,
              -0.4752053
            ],
            [
              100.4140389,
              -0.4751863
            ],
            [
              100.4140336,
              -0.4751819
            ],
            [
              100.414027,
              -0.4751729
            ],
            [
              100.4140077,
              -0.4751418
            ],
            [
              100.4140018,
              -0.4751312
            ],
            [
              100.4140004,
              -0.4751284
            ],
            [
              100.4139926,
              -0.4751132
            ],
            [
              100.4139797,
              -0.4750803
            ],
            [
              100.4139762,
              -0.4750653
            ],
            [
              100.4139729,
              -0.4750496
            ],
            [
              100.4139705,
              -0.4750386
            ],
            [
              100.4139661,
              -0.475026
            ],
            [
              100.4139601,
              -0.4750123
            ],
            [
              100.4139507,
              -0.4749909
            ],
            [
              100.413948,
              -0.4749826
            ],
            [
              100.4139442,
              -0.4749674
            ],
            [
              100.4139414,
              -0.4749417
            ],
            [
              100.4139409,
              -0.4749081
            ],
            [
              100.4139416,
              -0.4748343
            ],
            [
              100.4139449,
              -0.4747709
            ],
            [
              100.413945,
              -0.4747683
            ],
            [
              100.4139477,
              -0.4747449
            ],
            [
              100.41395,
              -0.474713
            ],
            [
              100.4139558,
              -0.4746629
            ],
            [
              100.4139691,
              -0.4745715
            ],
            [
              100.4139863,
              -0.4744731
            ],
            [
              100.4139897,
              -0.4744496
            ],
            [
              100.413993,
              -0.4744341
            ],
            [
              100.4139952,
              -0.4744191
            ],
            [
              100.4139977,
              -0.4744007
            ],
            [
              100.4140009,
              -0.4743834
            ],
            [
              100.4140043,
              -0.4743702
            ],
            [
              100.4140072,
              -0.4743589
            ],
            [
              100.4140223,
              -0.4743148
            ],
            [
              100.4140251,
              -0.4743052
            ],
            [
              100.4140298,
              -0.4742892
            ],
            [
              100.4140377,
              -0.4742499
            ],
            [
              100.4140406,
              -0.4742203
            ],
            [
              100.4140422,
              -0.4741985
            ],
            [
              100.4140479,
              -0.474159
            ],
            [
              100.4140518,
              -0.4741032
            ],
            [
              100.4140545,
              -0.4740636
            ],
            [
              100.4140567,
              -0.4740305
            ],
            [
              100.414059,
              -0.4740049
            ],
            [
              100.4140635,
              -0.4739736
            ],
            [
              100.4140658,
              -0.4739584
            ],
            [
              100.4140574,
              -0.4739375
            ],
            [
              100.4140463,
              -0.4739041
            ],
            [
              100.4140414,
              -0.4738893
            ],
            [
              100.4140288,
              -0.4738802
            ],
            [
              100.4139873,
              -0.4738501
            ],
            [
              100.4138585,
              -0.4738037
            ],
            [
              100.4137934,
              -0.4737486
            ],
            [
              100.413768,
              -0.4737271
            ],
            [
              100.4137527,
              -0.4737127
            ],
            [
              100.4137413,
              -0.4736964
            ],
            [
              100.4137346,
              -0.4736875
            ],
            [
              100.4137273,
              -0.4736785
            ],
            [
              100.4137189,
              -0.4736696
            ],
            [
              100.413709,
              -0.4736612
            ],
            [
              100.4136961,
              -0.4736534
            ],
            [
              100.4136797,
              -0.4736448
            ],
            [
              100.4136664,
              -0.4736377
            ],
            [
              100.4136515,
              -0.4736298
            ],
            [
              100.4136379,
              -0.4736232
            ],
            [
              100.4136207,
              -0.4736159
            ],
            [
              100.4136068,
              -0.4736114
            ],
            [
              100.4135892,
              -0.4736091
            ],
            [
              100.4135799,
              -0.4736135
            ],
            [
              100.4135743,
              -0.4736178
            ]
          ]
        ]
      },
      "id": "relation/17857402"
    }
  ]
}