{
  "type": "FeatureCollection",
  "generator": "overpass-turbo",
  "copyright": "The data included in this document is from www.openstreetmap.org. The data is made available under ODbL.",
  "timestamp": "2025-07-15T05:15:01Z",
  "features": [
    {
      "type": "Feature",
      "properties": {
        "@id": "relation/17857405",
        "admin_level": "7",
        "boundary": "administrative",
        "is_in:city": "Kota Padang Panjang",
        "is_in:district": "Padang Panjang Timur",
        "is_in:province": "Sumatera Barat",
        "name": "Koto Panjang",
        "official_name": "Kelurahan Koto Panjang",
        "place": "subdistrict",
        "type": "boundary"
      },
      "geometry": {
        "type": "Polygon",
        "coordinates": [
          [
            [
              100.4135743,
              -0.4736178
            ],
            [
              100.4135633,
              -0.4736131
            ],
            [
              100.4135526,
              -0.4735999
            ],
            [
              100.4135395,
              -0.4735867
            ],
            [
              100.4135265,
              -0.473576
            ],
            [
              100.4135181,
              -0.4735664
            ],
            [
              100.4135122,
              -0.4735604
            ],
            [
              100.4135003,
              -0.4735389
            ],
            [
              100.4134872,
              -0.4735221
            ],
            [
              100.413473,
              -0.4735066
            ],
            [
              100.4134325,
              -0.4734839
            ],
            [
              100.4134088,
              -0.4734779
            ],
            [
              100.4133945,
              -0.4734707
            ],
            [
              100.4133909,
              -0.47346
            ],
            [
              100.4133909,
              -0.4734456
            ],
            [
              100.4133945,
              -0.4734241
            ],
            [
              100.4133957,
              -0.4734073
            ],
            [
              100.4133838,
              -0.4733894
            ],
            [
              100.4133636,
              -0.473369
            ],
            [
              100.4133291,
              -0.4733355
            ],
            [
              100.4132694,
              -0.4732698
            ],
            [
              100.4131767,
              -0.4731119
            ],
            [
              100.4130941,
              -0.4730122
            ],
            [
              100.4130138,
              -0.4729285
            ],
            [
              100.4129098,
              -0.4728627
            ],
            [
              100.4128563,
              -0.4727969
            ],
            [
              100.4126869,
              -0.4727341
            ],
            [
              100.4126453,
              -0.4727162
            ],
            [
              100.4125978,
              -0.4727072
            ],
            [
              100.4125592,
              -0.4726863
            ],
            [
              100.4125294,
              -0.4726504
            ],
            [
              100.4125057,
              -0.4726055
            ],
            [
              100.4124641,
              -0.4725846
            ],
            [
              100.4123927,
              -0.4725457
            ],
            [
              100.4123244,
              -0.4725069
            ],
            [
              100.4122323,
              -0.472477
            ],
            [
              100.4121164,
              -0.4724381
            ],
            [
              100.4120569,
              -0.4723544
            ],
            [
              100.4120331,
              -0.4723155
            ],
            [
              100.4119915,
              -0.4722706
            ],
            [
              100.411947,
              -0.4722258
            ],
            [
              100.4119083,
              -0.4721959
            ],
            [
              100.4118608,
              -0.472157
            ],
            [
              100.411834,
              -0.472133
            ],
            [
              100.4120156,
              -0.4720693
            ],
            [
              100.4119835,
              -0.471976
            ],
            [
              100.4118159,
              -0.4717857
            ],
            [
              100.4117517,
              -0.4716852
            ],
            [
              100.411716,
              -0.4715847
            ],
            [
              100.4116839,
              -0.471513
            ],
            [
              100.4116054,
              -0.4714017
            ],
            [
              100.4115448,
              -0.4713227
            ],
            [
              100.4114984,
              -0.4712761
            ],
            [
              100.4114485,
              -0.4712546
            ],
            [
              100.4113594,
              -0.4712438
            ],
            [
              100.4112738,
              -0.4712008
            ],
            [
              100.4112381,
              -0.4711541
            ],
            [
              100.4112251,
              -0.4710865
            ],
            [
              100.4112302,
              -0.4710695
            ],
            [
              100.4112558,
              -0.4710149
            ],
            [
              100.4112886,
              -0.4709704
            ],
            [
              100.4113071,
              -0.470923
            ],
            [
              100.4113171,
              -0.4708627
            ],
            [
              100.4113128,
              -0.4708081
            ],
            [
              100.4113028,
              -0.4707607
            ],
            [
              100.4113014,
              -0.4707162
            ],
            [
              100.4113057,
              -0.4706789
            ],
            [
              100.4113156,
              -0.4706574
            ],
            [
              100.4113313,
              -0.4706459
            ],
            [
              100.4113541,
              -0.4706344
            ],
            [
              100.4113684,
              -0.4706157
            ],
            [
              100.4113655,
              -0.4705956
            ],
            [
              100.4113556,
              -0.4705755
            ],
            [
              100.4113456,
              -0.4705698
            ],
            [
              100.4113199,
              -0.4705468
            ],
            [
              100.4112956,
              -0.4705253
            ],
            [
              100.4112828,
              -0.4705066
            ],
            [
              100.4112743,
              -0.4704719
            ],
            [
              100.4112498,
              -0.4704664
            ],
            [
              100.4111226,
              -0.4704353
            ],
            [
              100.4110841,
              -0.4704228
            ],
            [
              100.4107302,
              -0.4703801
            ],
            [
              100.410565,
              -0.4703718
            ],
            [
              100.4104176,
              -0.4703742
            ],
            [
              100.4102167,
              -0.4703784
            ],
            [
              100.410139,
              -0.4703764
            ],
            [
              100.4093297,
              -0.4704003
            ],
            [
              100.4080232,
              -0.4703016
            ],
            [
              100.4072401,
              -0.4702319
            ],
            [
              100.4072154,
              -0.4703218
            ],
            [
              100.4072154,
              -0.4703601
            ],
            [
              100.4072363,
              -0.4704156
            ],
            [
              100.4072478,
              -0.4704731
            ],
            [
              100.4072326,
              -0.4705228
            ],
            [
              100.4071945,
              -0.4705362
            ],
            [
              100.4071508,
              -0.4705343
            ],
            [
              100.4070994,
              -0.4705171
            ],
            [
              100.4070367,
              -0.4704827
            ],
            [
              100.4069815,
              -0.4704903
            ],
            [
              100.4069777,
              -0.4705382
            ],
            [
              100.406993,
              -0.4705803
            ],
            [
              100.4070253,
              -0.4706416
            ],
            [
              100.4070405,
              -0.4706818
            ],
            [
              100.4070386,
              -0.4707258
            ],
            [
              100.4070234,
              -0.470766
            ],
            [
              100.4069645,
              -0.4708062
            ],
            [
              100.4069167,
              -0.470825
            ],
            [
              100.4068066,
              -0.4708302
            ],
            [
              100.4066868,
              -0.4708417
            ],
            [
              100.4066054,
              -0.4708585
            ],
            [
              100.4065876,
              -0.4708633
            ],
            [
              100.4064377,
              -0.4709036
            ],
            [
              100.4063073,
              -0.4709224
            ],
            [
              100.4063036,
              -0.4707911
            ],
            [
              100.4062738,
              -0.4707611
            ],
            [
              100.4061582,
              -0.4707611
            ],
            [
              100.4060615,
              -0.4707861
            ],
            [
              100.4060365,
              -0.47077
            ],
            [
              100.4059994,
              -0.4707528
            ],
            [
              100.4059674,
              -0.4707367
            ],
            [
              100.4059142,
              -0.4706356
            ],
            [
              100.4057811,
              -0.4704777
            ],
            [
              100.405711,
              -0.4705211
            ],
            [
              100.4056337,
              -0.4705734
            ],
            [
              100.4054289,
              -0.470686
            ],
            [
              100.405282,
              -0.470753
            ],
            [
              100.4050948,
              -0.4708667
            ],
            [
              100.4049967,
              -0.4709415
            ],
            [
              100.4048215,
              -0.4710761
            ],
            [
              100.4047925,
              -0.4710926
            ],
            [
              100.4047077,
              -0.4709833
            ],
            [
              100.404683,
              -0.4709297
            ],
            [
              100.4046669,
              -0.4708885
            ],
            [
              100.4046745,
              -0.4708294
            ],
            [
              100.4046669,
              -0.470772
            ],
            [
              100.4046403,
              -0.4706982
            ],
            [
              100.4045934,
              -0.4702362
            ],
            [
              100.4047464,
              -0.4702349
            ],
            [
              100.4050049,
              -0.4702498
            ],
            [
              100.4052252,
              -0.4702472
            ],
            [
              100.4052302,
              -0.470176
            ],
            [
              100.4052898,
              -0.470131
            ],
            [
              100.4053569,
              -0.4700897
            ],
            [
              100.4054426,
              -0.4700747
            ],
            [
              100.4054733,
              -0.4700467
            ],
            [
              100.4053887,
              -0.4700376
            ],
            [
              100.4051998,
              -0.4699993
            ],
            [
              100.4049264,
              -0.4699336
            ],
            [
              100.404722,
              -0.4698639
            ],
            [
              100.4046899,
              -0.4698529
            ],
            [
              100.404631,
              -0.4698143
            ],
            [
              100.4043634,
              -0.4697732
            ],
            [
              100.40428,
              -0.4697488
            ],
            [
              100.4042592,
              -0.4697427
            ],
            [
              100.4031137,
              -0.4694018
            ],
            [
              100.4027282,
              -0.4692904
            ],
            [
              100.4025915,
              -0.46925
            ],
            [
              100.4022456,
              -0.4691476
            ],
            [
              100.4013823,
              -0.4688921
            ],
            [
              100.4013698,
              -0.4688874
            ],
            [
              100.4013179,
              -0.4690447
            ],
            [
              100.401264,
              -0.4692078
            ],
            [
              100.4013212,
              -0.4692252
            ],
            [
              100.4013154,
              -0.4692634
            ],
            [
              100.4013255,
              -0.469266
            ],
            [
              100.4013195,
              -0.4693201
            ],
            [
              100.401469,
              -0.4693324
            ],
            [
              100.4014776,
              -0.4695659
            ],
            [
              100.4014752,
              -0.4695676
            ],
            [
              100.4013768,
              -0.4696356
            ],
            [
              100.4013648,
              -0.469646
            ],
            [
              100.4013507,
              -0.4696588
            ],
            [
              100.4013496,
              -0.4696599
            ],
            [
              100.4013373,
              -0.4696718
            ],
            [
              100.401325,
              -0.4696846
            ],
            [
              100.4013205,
              -0.4696896
            ],
            [
              100.4013131,
              -0.4696979
            ],
            [
              100.4013009,
              -0.4697127
            ],
            [
              100.4012882,
              -0.4697288
            ],
            [
              100.4012753,
              -0.4697461
            ],
            [
              100.401272,
              -0.4697507
            ],
            [
              100.4012713,
              -0.469757
            ],
            [
              100.4012465,
              -0.4697869
            ],
            [
              100.4012411,
              -0.4697948
            ],
            [
              100.4012293,
              -0.4698125
            ],
            [
              100.401219,
              -0.4698282
            ],
            [
              100.4012172,
              -0.469831
            ],
            [
              100.4012052,
              -0.4698502
            ],
            [
              100.4012039,
              -0.4698523
            ],
            [
              100.4011964,
              -0.4698647
            ],
            [
              100.4011936,
              -0.4698694
            ],
            [
              100.4011838,
              -0.4698866
            ],
            [
              100.4011827,
              -0.4698885
            ],
            [
              100.4011735,
              -0.4699056
            ],
            [
              100.4011643,
              -0.4699238
            ],
            [
              100.401155,
              -0.4699426
            ],
            [
              100.401146,
              -0.4699618
            ],
            [
              100.4011374,
              -0.4699807
            ],
            [
              100.4011295,
              -0.4699991
            ],
            [
              100.4011221,
              -0.4700166
            ],
            [
              100.4011158,
              -0.4700326
            ],
            [
              100.4011069,
              -0.4700569
            ],
            [
              100.4011012,
              -0.4700739
            ],
            [
              100.4010989,
              -0.4700807
            ],
            [
              100.4010922,
              -0.4701032
            ],
            [
              100.4010867,
              -0.4701237
            ],
            [
              100.4010827,
              -0.4701416
            ],
            [
              100.4010793,
              -0.4701611
            ],
            [
              100.4010781,
              -0.4701679
            ],
            [
              100.4010766,
              -0.4701815
            ],
            [
              100.4010753,
              -0.4701929
            ],
            [
              100.4010733,
              -0.470216
            ],
            [
              100.4010719,
              -0.4702335
            ],
            [
              100.4010702,
              -0.4702524
            ],
            [
              100.4010686,
              -0.4702717
            ],
            [
              100.401067,
              -0.4702899
            ],
            [
              100.4010703,
              -0.4703239
            ],
            [
              100.4010704,
              -0.4703251
            ],
            [
              100.4010766,
              -0.4703891
            ],
            [
              100.4010766,
              -0.4703893
            ],
            [
              100.401074,
              -0.4704192
            ],
            [
              100.4010702,
              -0.4704625
            ],
            [
              100.40106,
              -0.4705786
            ],
            [
              100.4010594,
              -0.470585
            ],
            [
              100.4010566,
              -0.4705992
            ],
            [
              100.4010556,
              -0.4706042
            ],
            [
              100.4010263,
              -0.4707527
            ],
            [
              100.4010265,
              -0.4707483
            ],
            [
              100.4010225,
              -0.4707683
            ],
            [
              100.4010207,
              -0.4707776
            ],
            [
              100.4010187,
              -0.4707875
            ],
            [
              100.4010182,
              -0.4707975
            ],
            [
              100.401016,
              -0.4708354
            ],
            [
              100.4010149,
              -0.470854
            ],
            [
              100.4010209,
              -0.4708961
            ],
            [
              100.4010185,
              -0.4708982
            ],
            [
              100.4010213,
              -0.4709066
            ],
            [
              100.4010383,
              -0.4709562
            ],
            [
              100.4005006,
              -0.471356
            ],
            [
              100.3999409,
              -0.471763
            ],
            [
              100.4001192,
              -0.4719792
            ],
            [
              100.4003204,
              -0.4725497
            ],
            [
              100.400325,
              -0.4725681
            ],
            [
              100.401122,
              -0.4733702
            ],
            [
              100.4011225,
              -0.4733707
            ],
            [
              100.4010967,
              -0.4734675
            ],
            [
              100.4010683,
              -0.4735731
            ],
            [
              100.4010397,
              -0.4736792
            ],
            [
              100.401011,
              -0.4737854
            ],
            [
              100.4009821,
              -0.4738918
            ],
            [
              100.4009532,
              -0.4739979
            ],
            [
              100.4009242,
              -0.4741038
            ],
            [
              100.4008953,
              -0.474209
            ],
            [
              100.4008664,
              -0.4743134
            ],
            [
              100.4008377,
              -0.4744167
            ],
            [
              100.4008091,
              -0.4745188
            ],
            [
              100.400799,
              -0.4745547
            ],
            [
              100.4007808,
              -0.4746195
            ],
            [
              100.4007528,
              -0.4747185
            ],
            [
              100.4007251,
              -0.4748156
            ],
            [
              100.4006932,
              -0.4749266
            ],
            [
              100.4006607,
              -0.4750387
            ],
            [
              100.4006278,
              -0.4751518
            ],
            [
              100.4005944,
              -0.4752655
            ],
            [
              100.4005606,
              -0.4753798
            ],
            [
              100.4005435,
              -0.4754371
            ],
            [
              100.4005265,
              -0.4754943
            ],
            [
              100.4005222,
              -0.4755088
            ],
            [
              100.4004923,
              -0.4756089
            ],
            [
              100.4004579,
              -0.4757233
            ],
            [
              100.4004235,
              -0.4758374
            ],
            [
              100.4004142,
              -0.4758681
            ],
            [
              100.4004067,
              -0.4758904
            ],
            [
              100.4003884,
              -0.4759508
            ],
            [
              100.4003541,
              -0.4760636
            ],
            [
              100.4003199,
              -0.4761753
            ],
            [
              100.4003067,
              -0.4762184
            ],
            [
              100.400286,
              -0.4762858
            ],
            [
              100.4002852,
              -0.4762885
            ],
            [
              100.4002525,
              -0.4763949
            ],
            [
              100.4002193,
              -0.4765024
            ],
            [
              100.4001866,
              -0.476608
            ],
            [
              100.4001545,
              -0.4767116
            ],
            [
              100.4001229,
              -0.4768129
            ],
            [
              100.4000921,
              -0.4769117
            ],
            [
              100.4000621,
              -0.4770078
            ],
            [
              100.4000328,
              -0.4771011
            ],
            [
              100.4000046,
              -0.4771911
            ],
            [
              100.3999772,
              -0.4772779
            ],
            [
              100.399951,
              -0.4773612
            ],
            [
              100.3999259,
              -0.4774408
            ],
            [
              100.3999019,
              -0.4775164
            ],
            [
              100.3998989,
              -0.4775261
            ],
            [
              100.3998793,
              -0.477588
            ],
            [
              100.3998218,
              -0.4777688
            ],
            [
              100.3998147,
              -0.4777911
            ],
            [
              100.3997679,
              -0.4779381
            ],
            [
              100.3997248,
              -0.4780735
            ],
            [
              100.3997172,
              -0.4780972
            ],
            [
              100.3996692,
              -0.4782474
            ],
            [
              100.3996236,
              -0.4783902
            ],
            [
              100.3995802,
              -0.4785268
            ],
            [
              100.3995779,
              -0.4785341
            ],
            [
              100.3995383,
              -0.4786589
            ],
            [
              100.3994979,
              -0.4787875
            ],
            [
              100.3994685,
              -0.4788816
            ],
            [
              100.3994584,
              -0.4789142
            ],
            [
              100.3994197,
              -0.47904
            ],
            [
              100.3993949,
              -0.4791213
            ],
            [
              100.3993789,
              -0.4791747
            ],
            [
              100.399347,
              -0.4792193
            ],
            [
              100.399227,
              -0.4794864
            ],
            [
              100.3991775,
              -0.4795878
            ],
            [
              100.3990247,
              -0.4799006
            ],
            [
              100.3988779,
              -0.4800471
            ],
            [
              100.3988743,
              -0.4800507
            ],
            [
              100.3988441,
              -0.4800987
            ],
            [
              100.3988013,
              -0.4801578
            ],
            [
              100.3987622,
              -0.4801977
            ],
            [
              100.3987088,
              -0.4804279
            ],
            [
              100.3986792,
              -0.4806839
            ],
            [
              100.3986568,
              -0.4809334
            ],
            [
              100.3986479,
              -0.4809771
            ],
            [
              100.3986432,
              -0.4809988
            ],
            [
              100.3981281,
              -0.482806
            ],
            [
              100.3979936,
              -0.4834582
            ],
            [
              100.3984356,
              -0.4834134
            ],
            [
              100.4008272,
              -0.4832659
            ],
            [
              100.4012081,
              -0.4833218
            ],
            [
              100.4015184,
              -0.4834313
            ],
            [
              100.4019015,
              -0.4834784
            ],
            [
              100.4020325,
              -0.4835733
            ],
            [
              100.4022162,
              -0.4837828
            ],
            [
              100.4026713,
              -0.4837177
            ],
            [
              100.4027939,
              -0.4834768
            ],
            [
              100.403188,
              -0.4830893
            ],
            [
              100.4033861,
              -0.4826926
            ],
            [
              100.4036464,
              -0.4825052
            ],
            [
              100.4037138,
              -0.4822651
            ],
            [
              100.4037738,
              -0.4822255
            ],
            [
              100.4039412,
              -0.4822431
            ],
            [
              100.4040859,
              -0.482216
            ],
            [
              100.4044604,
              -0.4816884
            ],
            [
              100.4048881,
              -0.4814042
            ],
            [
              100.4051169,
              -0.481131
            ],
            [
              100.4050281,
              -0.4809812
            ],
            [
              100.4050558,
              -0.4809402
            ],
            [
              100.4050439,
              -0.4808015
            ],
            [
              100.4052476,
              -0.4806783
            ],
            [
              100.4058505,
              -0.4800558
            ],
            [
              100.4065326,
              -0.48048
            ],
            [
              100.4074289,
              -0.4811714
            ],
            [
              100.4076992,
              -0.4807795
            ],
            [
              100.4077193,
              -0.4807404
            ],
            [
              100.4077641,
              -0.4806515
            ],
            [
              100.4078028,
              -0.4805746
            ],
            [
              100.4078095,
              -0.4805611
            ],
            [
              100.4078289,
              -0.480523
            ],
            [
              100.4078539,
              -0.4804739
            ],
            [
              100.4078955,
              -0.4803948
            ],
            [
              100.4079474,
              -0.480301
            ],
            [
              100.4080031,
              -0.4802036
            ],
            [
              100.408061,
              -0.4801019
            ],
            [
              100.4081195,
              -0.4799952
            ],
            [
              100.4081612,
              -0.4799158
            ],
            [
              100.4082069,
              -0.4798264
            ],
            [
              100.4082551,
              -0.4797311
            ],
            [
              100.4083035,
              -0.4796345
            ],
            [
              100.40835,
              -0.4795415
            ],
            [
              100.4083904,
              -0.4794592
            ],
            [
              100.4084315,
              -0.4793769
            ],
            [
              100.4084374,
              -0.4793651
            ],
            [
              100.4084873,
              -0.4792681
            ],
            [
              100.4085402,
              -0.4791679
            ],
            [
              100.4085969,
              -0.479064
            ],
            [
              100.4086576,
              -0.4789559
            ],
            [
              100.4087002,
              -0.4788821
            ],
            [
              100.4087479,
              -0.4788001
            ],
            [
              100.4087992,
              -0.4787121
            ],
            [
              100.4088526,
              -0.4786205
            ],
            [
              100.4089065,
              -0.4785275
            ],
            [
              100.4089593,
              -0.4784355
            ],
            [
              100.4090095,
              -0.4783466
            ],
            [
              100.4090553,
              -0.4782632
            ],
            [
              100.4091122,
              -0.4781552
            ],
            [
              100.4091675,
              -0.4780463
            ],
            [
              100.40922,
              -0.4779394
            ],
            [
              100.4092689,
              -0.4778375
            ],
            [
              100.4093131,
              -0.4777434
            ],
            [
              100.4093321,
              -0.4777019
            ],
            [
              100.4091637,
              -0.477587
            ],
            [
              100.4091968,
              -0.4775256
            ],
            [
              100.409239,
              -0.4773964
            ],
            [
              100.4092562,
              -0.4773181
            ],
            [
              100.4092734,
              -0.4772398
            ],
            [
              100.409305,
              -0.477077
            ],
            [
              100.4093439,
              -0.4769002
            ],
            [
              100.4092733,
              -0.4767487
            ],
            [
              100.4090538,
              -0.4765283
            ],
            [
              100.4090182,
              -0.4763728
            ],
            [
              100.4090126,
              -0.47633
            ],
            [
              100.4091398,
              -0.4762492
            ],
            [
              100.4091878,
              -0.4762188
            ],
            [
              100.4092694,
              -0.4761735
            ],
            [
              100.4093066,
              -0.476153
            ],
            [
              100.4094848,
              -0.4761021
            ],
            [
              100.4095353,
              -0.4760034
            ],
            [
              100.4095739,
              -0.4759227
            ],
            [
              100.4096635,
              -0.4758437
            ],
            [
              100.4096772,
              -0.4758362
            ],
            [
              100.4096823,
              -0.475843
            ],
            [
              100.4096947,
              -0.4758517
            ],
            [
              100.4097052,
              -0.475856
            ],
            [
              100.4097165,
              -0.4758576
            ],
            [
              100.4097274,
              -0.4758578
            ],
            [
              100.4097364,
              -0.4758567
            ],
            [
              100.4097461,
              -0.4758527
            ],
            [
              100.409758,
              -0.4758442
            ],
            [
              100.4097695,
              -0.4758321
            ],
            [
              100.4097837,
              -0.4758164
            ],
            [
              100.4097962,
              -0.4758012
            ],
            [
              100.4098124,
              -0.475778
            ],
            [
              100.4098332,
              -0.475753
            ],
            [
              100.4098516,
              -0.475732
            ],
            [
              100.4098699,
              -0.4757154
            ],
            [
              100.4098904,
              -0.4756993
            ],
            [
              100.409911,
              -0.4756841
            ],
            [
              100.4099357,
              -0.4756647
            ],
            [
              100.4099549,
              -0.4756432
            ],
            [
              100.4099709,
              -0.4756202
            ],
            [
              100.4099854,
              -0.4755927
            ],
            [
              100.4099987,
              -0.4755672
            ],
            [
              100.4100054,
              -0.4755456
            ],
            [
              100.4100075,
              -0.4755386
            ],
            [
              100.4100152,
              -0.4755097
            ],
            [
              100.4100262,
              -0.4754744
            ],
            [
              100.4100357,
              -0.4754446
            ],
            [
              100.4100432,
              -0.4754252
            ],
            [
              100.4100546,
              -0.4754091
            ],
            [
              100.4100673,
              -0.4753986
            ],
            [
              100.4100865,
              -0.4753901
            ],
            [
              100.4101101,
              -0.4753818
            ],
            [
              100.4101311,
              -0.4753765
            ],
            [
              100.4101555,
              -0.47537
            ],
            [
              100.4101743,
              -0.4753625
            ],
            [
              100.41019,
              -0.4753563
            ],
            [
              100.4102236,
              -0.4753445
            ],
            [
              100.4102552,
              -0.4753335
            ],
            [
              100.4102851,
              -0.4753215
            ],
            [
              100.4103133,
              -0.4753145
            ],
            [
              100.4103496,
              -0.4753101
            ],
            [
              100.4103747,
              -0.4753063
            ],
            [
              100.4104002,
              -0.475303
            ],
            [
              100.4104225,
              -0.4752998
            ],
            [
              100.4104479,
              -0.4752913
            ],
            [
              100.4104778,
              -0.4752769
            ],
            [
              100.410397,
              -0.4751945
            ],
            [
              100.4103605,
              -0.4750945
            ],
            [
              100.4104138,
              -0.4750304
            ],
            [
              100.4104448,
              -0.474993
            ],
            [
              100.4104718,
              -0.4750222
            ],
            [
              100.4104968,
              -0.4750581
            ],
            [
              100.4105396,
              -0.4750904
            ],
            [
              100.4105966,
              -0.4751048
            ],
            [
              100.4106929,
              -0.4750688
            ],
            [
              100.4107214,
              -0.4750509
            ],
            [
              100.4107499,
              -0.4750078
            ],
            [
              100.4108404,
              -0.4750098
            ],
            [
              100.4109068,
              -0.4750185
            ],
            [
              100.4109853,
              -0.4750221
            ],
            [
              100.4110316,
              -0.4750436
            ],
            [
              100.4110602,
              -0.4750724
            ],
            [
              100.4111671,
              -0.475119
            ],
            [
              100.4112064,
              -0.4751585
            ],
            [
              100.4112313,
              -0.4752231
            ],
            [
              100.4112421,
              -0.4753128
            ],
            [
              100.4112372,
              -0.4754182
            ],
            [
              100.4112822,
              -0.4754645
            ],
            [
              100.4113535,
              -0.4754597
            ],
            [
              100.4114201,
              -0.4754214
            ],
            [
              100.4114914,
              -0.4753831
            ],
            [
              100.4115199,
              -0.4753353
            ],
            [
              100.4115437,
              -0.4752491
            ],
            [
              100.4115627,
              -0.4751821
            ],
            [
              100.4115674,
              -0.4751055
            ],
            [
              100.4115436,
              -0.475005
            ],
            [
              100.4115177,
              -0.4749279
            ],
            [
              100.4115034,
              -0.4747767
            ],
            [
              100.4114963,
              -0.4746726
            ],
            [
              100.4114963,
              -0.474626
            ],
            [
              100.4115497,
              -0.4746044
            ],
            [
              100.4116389,
              -0.4745649
            ],
            [
              100.4119052,
              -0.4744979
            ],
            [
              100.4118921,
              -0.4744422
            ],
            [
              100.4118775,
              -0.4743844
            ],
            [
              100.4120161,
              -0.4743171
            ],
            [
              100.412106,
              -0.4742712
            ],
            [
              100.4122657,
              -0.4741994
            ],
            [
              100.4124482,
              -0.4741218
            ],
            [
              100.412444,
              -0.474105
            ],
            [
              100.4124131,
              -0.4740097
            ],
            [
              100.4124477,
              -0.4739976
            ],
            [
              100.4125414,
              -0.4739724
            ],
            [
              100.412563,
              -0.4739604
            ],
            [
              100.4126037,
              -0.4739379
            ],
            [
              100.4126693,
              -0.4738939
            ],
            [
              100.4127098,
              -0.4738719
            ],
            [
              100.4128474,
              -0.473825
            ],
            [
              100.4128673,
              -0.4738182
            ],
            [
              100.4129126,
              -0.4738027
            ],
            [
              100.4130394,
              -0.4737636
            ],
            [
              100.4131061,
              -0.4737431
            ],
            [
              100.4131245,
              -0.4737371
            ],
            [
              100.4131479,
              -0.4737295
            ],
            [
              100.41325,
              -0.4736963
            ],
            [
              100.4132995,
              -0.4736802
            ],
            [
              100.4133805,
              -0.4736671
            ],
            [
              100.4134269,
              -0.4736597
            ],
            [
              100.4135082,
              -0.4736465
            ],
            [
              100.41351,
              -0.4736463
            ],
            [
              100.4135214,
              -0.4736444
            ],
            [
              100.413521,
              -0.4736443
            ],
            [
              100.4135309,
              -0.4736418
            ],
            [
              100.4135415,
              -0.473638
            ],
            [
              100.4135536,
              -0.47363
            ],
            [
              100.4135618,
              -0.4736255
            ],
            [
              100.4135701,
              -0.4736211
            ],
            [
              100.4135743,
              -0.4736178
            ]
          ]
        ]
      },
      "id": "relation/17857405"
    }
  ]
}