{
  "type": "FeatureCollection",
  "generator": "overpass-turbo",
  "copyright": "The data included in this document is from www.openstreetmap.org. The data is made available under ODbL.",
  "timestamp": "2025-07-15T05:15:01Z",
  "features": [
    {
      "type": "Feature",
      "properties": {
        "@id": "relation/17857398",
        "admin_level": "7",
        "boundary": "administrative",
        "is_in:city": "Kota Padang Panjang",
        "is_in:district": "Padang Panjang Timur",
        "is_in:province": "Sumatera Barat",
        "name": "Sigando",
        "official_name": "Kelurahan Sigando",
        "place": "subdistrict",
        "type": "boundary"
      },
      "geometry": {
        "type": "Polygon",
        "coordinates": [
          [
            [
              100.4229956,
              -0.4714561
            ],
            [
              100.4230351,
              -0.471466
            ],
            [
              100.423102,
              -0.4714827
            ],
            [
              100.4236858,
              -0.4715384
            ],
            [
              100.4241627,
              -0.4717047
            ],
            [
              100.4244527,
              -0.4718578
            ],
            [
              100.4246381,
              -0.4719487
            ],
            [
              100.4247475,
              -0.4719822
            ],
            [
              100.4248664,
              -0.4719869
            ],
            [
              100.4250137,
              -0.4719534
            ],
            [
              100.4251991,
              -0.4718337
            ],
            [
              100.4252942,
              -0.4717571
            ],
            [
              100.4253999,
              -0.471697
            ],
            [
              100.4255285,
              -0.4715414
            ],
            [
              100.4256521,
              -0.4714342
            ],
            [
              100.4257358,
              -0.4715433
            ],
            [
              100.425751,
              -0.4715739
            ],
            [
              100.4257491,
              -0.4716065
            ],
            [
              100.4257168,
              -0.4716352
            ],
            [
              100.4256959,
              -0.4716601
            ],
            [
              100.4256959,
              -0.4716965
            ],
            [
              100.4257068,
              -0.4717254
            ],
            [
              100.4257111,
              -0.4717367
            ],
            [
              100.4257397,
              -0.4717788
            ],
            [
              100.4257796,
              -0.4718132
            ],
            [
              100.4258614,
              -0.4718745
            ],
            [
              100.4259013,
              -0.471907
            ],
            [
              100.4259045,
              -0.4719483
            ],
            [
              100.4258986,
              -0.4719932
            ],
            [
              100.4259016,
              -0.472047
            ],
            [
              100.4259165,
              -0.4720889
            ],
            [
              100.4259313,
              -0.4721337
            ],
            [
              100.4259432,
              -0.4721666
            ],
            [
              100.425967,
              -0.4722175
            ],
            [
              100.4259997,
              -0.4722534
            ],
            [
              100.4260443,
              -0.4722952
            ],
            [
              100.426077,
              -0.4723251
            ],
            [
              100.4261097,
              -0.472376
            ],
            [
              100.4261394,
              -0.4724268
            ],
            [
              100.4261542,
              -0.4724597
            ],
            [
              100.4261967,
              -0.4724833
            ],
            [
              100.4262371,
              -0.4724905
            ],
            [
              100.4262727,
              -0.4724905
            ],
            [
              100.4263132,
              -0.4724905
            ],
            [
              100.4263441,
              -0.4725024
            ],
            [
              100.4263655,
              -0.4725335
            ],
            [
              100.426394,
              -0.4725718
            ],
            [
              100.4264106,
              -0.4726173
            ],
            [
              100.4264154,
              -0.4726508
            ],
            [
              100.4264107,
              -0.4726915
            ],
            [
              100.4264012,
              -0.4727345
            ],
            [
              100.4264131,
              -0.4727776
            ],
            [
              100.4265675,
              -0.4726986
            ],
            [
              100.426772,
              -0.4725885
            ],
            [
              100.4270144,
              -0.4724448
            ],
            [
              100.4273115,
              -0.4722797
            ],
            [
              100.4275801,
              -0.4721743
            ],
            [
              100.4277845,
              -0.4721264
            ],
            [
              100.4280745,
              -0.4720641
            ],
            [
              100.4285214,
              -0.4720353
            ],
            [
              100.4304658,
              -0.471944
            ],
            [
              100.4316634,
              -0.4718824
            ],
            [
              100.4316748,
              -0.4721264
            ],
            [
              100.4317105,
              -0.4721264
            ],
            [
              100.4317034,
              -0.4722169
            ],
            [
              100.4316977,
              -0.47226
            ],
            [
              100.4316696,
              -0.4723514
            ],
            [
              100.4316621,
              -0.4724165
            ],
            [
              100.4316697,
              -0.4724414
            ],
            [
              100.431664,
              -0.4724816
            ],
            [
              100.4320234,
              -0.4724279
            ],
            [
              100.432166,
              -0.472403
            ],
            [
              100.4322042,
              -0.4723981
            ],
            [
              100.43263,
              -0.4723435
            ],
            [
              100.4330738,
              -0.4722885
            ],
            [
              100.4335432,
              -0.4722286
            ],
            [
              100.4342385,
              -0.4721297
            ],
            [
              100.4348654,
              -0.471992
            ],
            [
              100.4356089,
              -0.4718194
            ],
            [
              100.4360167,
              -0.4717641
            ],
            [
              100.4362163,
              -0.4714051
            ],
            [
              100.436328,
              -0.4713381
            ],
            [
              100.4363647,
              -0.4712698
            ],
            [
              100.436847,
              -0.471175
            ],
            [
              100.4369324,
              -0.4710372
            ],
            [
              100.4370633,
              -0.4710147
            ],
            [
              100.437051,
              -0.4708883
            ],
            [
              100.4371544,
              -0.4708079
            ],
            [
              100.4371671,
              -0.4707044
            ],
            [
              100.4373746,
              -0.4704371
            ],
            [
              100.4373534,
              -0.4703335
            ],
            [
              100.437406,
              -0.470191
            ],
            [
              100.4372664,
              -0.4699298
            ],
            [
              100.4372072,
              -0.4693284
            ],
            [
              100.4372887,
              -0.4690396
            ],
            [
              100.4372563,
              -0.4689524
            ],
            [
              100.4372998,
              -0.4687971
            ],
            [
              100.4372728,
              -0.4686761
            ],
            [
              100.4371889,
              -0.4686987
            ],
            [
              100.4371625,
              -0.4686584
            ],
            [
              100.4373926,
              -0.4680795
            ],
            [
              100.4374034,
              -0.4679811
            ],
            [
              100.4373441,
              -0.4678467
            ],
            [
              100.4373385,
              -0.4676628
            ],
            [
              100.4374329,
              -0.4673786
            ],
            [
              100.4374976,
              -0.4669204
            ],
            [
              100.4374573,
              -0.4665522
            ],
            [
              100.437378,
              -0.4663701
            ],
            [
              100.4373019,
              -0.4659984
            ],
            [
              100.4371685,
              -0.4658793
            ],
            [
              100.4371575,
              -0.465947
            ],
            [
              100.4370676,
              -0.4660528
            ],
            [
              100.4369586,
              -0.4661377
            ],
            [
              100.4367154,
              -0.4663566
            ],
            [
              100.436645,
              -0.4665732
            ],
            [
              100.4365661,
              -0.4666269
            ],
            [
              100.4363787,
              -0.4666173
            ],
            [
              100.4361111,
              -0.4669341
            ],
            [
              100.4359177,
              -0.4670137
            ],
            [
              100.4358031,
              -0.4670207
            ],
            [
              100.4356815,
              -0.4669801
            ],
            [
              100.4354961,
              -0.4670218
            ],
            [
              100.4354722,
              -0.4669549
            ],
            [
              100.4355233,
              -0.4666954
            ],
            [
              100.4354728,
              -0.4665461
            ],
            [
              100.4354843,
              -0.4664424
            ],
            [
              100.4353722,
              -0.466276
            ],
            [
              100.4353231,
              -0.4660494
            ],
            [
              100.4352296,
              -0.4658705
            ],
            [
              100.4350471,
              -0.4657753
            ],
            [
              100.4349909,
              -0.4658053
            ],
            [
              100.4349368,
              -0.4659159
            ],
            [
              100.4348298,
              -0.4659015
            ],
            [
              100.4347086,
              -0.4659877
            ],
            [
              100.4346458,
              -0.4659174
            ],
            [
              100.434583,
              -0.4659131
            ],
            [
              100.4346101,
              -0.4657106
            ],
            [
              100.4345288,
              -0.4656891
            ],
            [
              100.4344033,
              -0.4657437
            ],
            [
              100.4342664,
              -0.4657451
            ],
            [
              100.4342093,
              -0.4656504
            ],
            [
              100.4338285,
              -0.4654564
            ],
            [
              100.4338443,
              -0.4653423
            ],
            [
              100.4340513,
              -0.4651138
            ],
            [
              100.4340422,
              -0.4650174
            ],
            [
              100.4335789,
              -0.4644623
            ],
            [
              100.4335346,
              -0.464327
            ],
            [
              100.4336254,
              -0.4640668
            ],
            [
              100.4334581,
              -0.4638935
            ],
            [
              100.4334198,
              -0.4637788
            ],
            [
              100.4332424,
              -0.4637666
            ],
            [
              100.433202,
              -0.4637247
            ],
            [
              100.4330546,
              -0.4636984
            ],
            [
              100.432994,
              -0.4636302
            ],
            [
              100.4330201,
              -0.4634926
            ],
            [
              100.4329939,
              -0.4634125
            ],
            [
              100.4327707,
              -0.4632608
            ],
            [
              100.432725,
              -0.4631344
            ],
            [
              100.4326356,
              -0.4630234
            ],
            [
              100.4326789,
              -0.4628974
            ],
            [
              100.4326142,
              -0.4627874
            ],
            [
              100.4325818,
              -0.4626017
            ],
            [
              100.4324962,
              -0.4625471
            ],
            [
              100.4324468,
              -0.4625759
            ],
            [
              100.4323118,
              -0.4625568
            ],
            [
              100.4320848,
              -0.4628182
            ],
            [
              100.4314285,
              -0.4623327
            ],
            [
              100.4305153,
              -0.4622992
            ],
            [
              100.4302111,
              -0.4618368
            ],
            [
              100.430135,
              -0.4616511
            ],
            [
              100.4301474,
              -0.4615803
            ],
            [
              100.4299868,
              -0.4614915
            ],
            [
              100.4299172,
              -0.4612937
            ],
            [
              100.4297472,
              -0.4610548
            ],
            [
              100.4298221,
              -0.4607239
            ],
            [
              100.4296733,
              -0.460582
            ],
            [
              100.4295675,
              -0.4603957
            ],
            [
              100.4293928,
              -0.4602687
            ],
            [
              100.4290258,
              -0.4601848
            ],
            [
              100.4288732,
              -0.460187
            ],
            [
              100.4285761,
              -0.4600622
            ],
            [
              100.4282909,
              -0.4600565
            ],
            [
              100.4281483,
              -0.4599833
            ],
            [
              100.4279485,
              -0.4598096
            ],
            [
              100.4279186,
              -0.4597335
            ],
            [
              100.427657,
              -0.4596242
            ],
            [
              100.4274597,
              -0.459696
            ],
            [
              100.427279,
              -0.4596721
            ],
            [
              100.4269439,
              -0.4597129
            ],
            [
              100.426654,
              -0.4598059
            ],
            [
              100.4264925,
              -0.4596675
            ],
            [
              100.4263191,
              -0.4596378
            ],
            [
              100.4252739,
              -0.4598114
            ],
            [
              100.4252774,
              -0.4598665
            ],
            [
              100.4252818,
              -0.4598913
            ],
            [
              100.4252875,
              -0.4599092
            ],
            [
              100.4252948,
              -0.4599276
            ],
            [
              100.4253037,
              -0.4599494
            ],
            [
              100.4253085,
              -0.4599598
            ],
            [
              100.4253111,
              -0.4599661
            ],
            [
              100.4253211,
              -0.4599813
            ],
            [
              100.4253334,
              -0.4599927
            ],
            [
              100.4253462,
              -0.4600002
            ],
            [
              100.4253601,
              -0.4600079
            ],
            [
              100.4253816,
              -0.4600144
            ],
            [
              100.4254119,
              -0.4600148
            ],
            [
              100.4254448,
              -0.4600134
            ],
            [
              100.4254596,
              -0.4600086
            ],
            [
              100.4254748,
              -0.4600055
            ],
            [
              100.4254917,
              -0.4600036
            ],
            [
              100.425503,
              -0.4600027
            ],
            [
              100.4255143,
              -0.4600068
            ],
            [
              100.4255489,
              -0.4600202
            ],
            [
              100.4255639,
              -0.4600282
            ],
            [
              100.4255794,
              -0.4600339
            ],
            [
              100.4255957,
              -0.4600415
            ],
            [
              100.4256103,
              -0.4600521
            ],
            [
              100.4256243,
              -0.4600724
            ],
            [
              100.4256322,
              -0.4600956
            ],
            [
              100.4256338,
              -0.460131
            ],
            [
              100.4256323,
              -0.4601584
            ],
            [
              100.4256331,
              -0.4601889
            ],
            [
              100.4256327,
              -0.4602147
            ],
            [
              100.4256315,
              -0.4602384
            ],
            [
              100.4256322,
              -0.4602637
            ],
            [
              100.4256398,
              -0.4602911
            ],
            [
              100.4256523,
              -0.4603218
            ],
            [
              100.4256695,
              -0.4603475
            ],
            [
              100.4256934,
              -0.460373
            ],
            [
              100.4257183,
              -0.4603902
            ],
            [
              100.4257336,
              -0.460397
            ],
            [
              100.4257485,
              -0.4604037
            ],
            [
              100.4257699,
              -0.4604122
            ],
            [
              100.4258021,
              -0.4604272
            ],
            [
              100.4258254,
              -0.4604436
            ],
            [
              100.4258842,
              -0.4605051
            ],
            [
              100.4259066,
              -0.4605369
            ],
            [
              100.4259073,
              -0.460538
            ],
            [
              100.4259259,
              -0.4605689
            ],
            [
              100.4259387,
              -0.4605944
            ],
            [
              100.4259507,
              -0.460625
            ],
            [
              100.4259588,
              -0.4606525
            ],
            [
              100.4259703,
              -0.4606816
            ],
            [
              100.4259797,
              -0.4607066
            ],
            [
              100.4259907,
              -0.460735
            ],
            [
              100.4260007,
              -0.4607659
            ],
            [
              100.4260128,
              -0.4607922
            ],
            [
              100.4260445,
              -0.4608239
            ],
            [
              100.4260656,
              -0.4608381
            ],
            [
              100.4260858,
              -0.4608496
            ],
            [
              100.4261021,
              -0.4608594
            ],
            [
              100.4261136,
              -0.4608745
            ],
            [
              100.4261273,
              -0.4608987
            ],
            [
              100.4261326,
              -0.4609095
            ],
            [
              100.4261433,
              -0.4609548
            ],
            [
              100.4261653,
              -0.461048
            ],
            [
              100.4261654,
              -0.4610485
            ],
            [
              100.426168,
              -0.4610704
            ],
            [
              100.4261855,
              -0.4611765
            ],
            [
              100.4261952,
              -0.4612037
            ],
            [
              100.4261957,
              -0.4612053
            ],
            [
              100.4262049,
              -0.4612329
            ],
            [
              100.4262082,
              -0.4612436
            ],
            [
              100.4262083,
              -0.4612301
            ],
            [
              100.4262844,
              -0.4615526
            ],
            [
              100.4262975,
              -0.4615769
            ],
            [
              100.4263259,
              -0.4616152
            ],
            [
              100.4263977,
              -0.4617161
            ],
            [
              100.4264404,
              -0.4617862
            ],
            [
              100.4264545,
              -0.4618093
            ],
            [
              100.4264601,
              -0.4618302
            ],
            [
              100.4264583,
              -0.4618625
            ],
            [
              100.4264545,
              -0.4618949
            ],
            [
              100.4264331,
              -0.4619843
            ],
            [
              100.4264096,
              -0.4620828
            ],
            [
              100.4264252,
              -0.4621489
            ],
            [
              100.4264212,
              -0.462161
            ],
            [
              100.4264159,
              -0.4621861
            ],
            [
              100.4264103,
              -0.4622149
            ],
            [
              100.4264092,
              -0.462235
            ],
            [
              100.4264061,
              -0.4622639
            ],
            [
              100.4263934,
              -0.4623053
            ],
            [
              100.4263841,
              -0.4623253
            ],
            [
              100.4263841,
              -0.4623254
            ],
            [
              100.4263773,
              -0.4623474
            ],
            [
              100.4263726,
              -0.4623773
            ],
            [
              100.4263679,
              -0.4624045
            ],
            [
              100.4263675,
              -0.4624341
            ],
            [
              100.4263742,
              -0.4624633
            ],
            [
              100.4263804,
              -0.462486
            ],
            [
              100.4263905,
              -0.4625098
            ],
            [
              100.4263975,
              -0.4625325
            ],
            [
              100.4264008,
              -0.4625545
            ],
            [
              100.4264063,
              -0.4625801
            ],
            [
              100.4264136,
              -0.4626124
            ],
            [
              100.426424,
              -0.4626443
            ],
            [
              100.426434,
              -0.4626679
            ],
            [
              100.4264472,
              -0.4626976
            ],
            [
              100.4264597,
              -0.4627243
            ],
            [
              100.4264715,
              -0.4627525
            ],
            [
              100.4264855,
              -0.4627843
            ],
            [
              100.4265052,
              -0.462844
            ],
            [
              100.426507,
              -0.4628495
            ],
            [
              100.4265206,
              -0.4628757
            ],
            [
              100.426534,
              -0.4629025
            ],
            [
              100.4265463,
              -0.4629308
            ],
            [
              100.426554,
              -0.4629536
            ],
            [
              100.4265581,
              -0.4629658
            ],
            [
              100.4265662,
              -0.4629937
            ],
            [
              100.4265764,
              -0.4630322
            ],
            [
              100.4265773,
              -0.4630563
            ],
            [
              100.4265737,
              -0.4630802
            ],
            [
              100.4265696,
              -0.4630923
            ],
            [
              100.4265663,
              -0.4631021
            ],
            [
              100.4265498,
              -0.4631387
            ],
            [
              100.4265386,
              -0.4631627
            ],
            [
              100.4265322,
              -0.4631895
            ],
            [
              100.4265309,
              -0.4632103
            ],
            [
              100.4265348,
              -0.463232
            ],
            [
              100.4265471,
              -0.4632618
            ],
            [
              100.4265676,
              -0.4632983
            ],
            [
              100.4265894,
              -0.4633255
            ],
            [
              100.4266233,
              -0.4633465
            ],
            [
              100.4266452,
              -0.463354
            ],
            [
              100.4266743,
              -0.4633579
            ],
            [
              100.4267094,
              -0.4633532
            ],
            [
              100.4267132,
              -0.4633527
            ],
            [
              100.4267344,
              -0.4633492
            ],
            [
              100.4267559,
              -0.463394
            ],
            [
              100.4267963,
              -0.4634897
            ],
            [
              100.4268106,
              -0.4635424
            ],
            [
              100.4268296,
              -0.4636285
            ],
            [
              100.4268191,
              -0.4637343
            ],
            [
              100.4267892,
              -0.4637793
            ],
            [
              100.4267517,
              -0.4638898
            ],
            [
              100.4267612,
              -0.4639927
            ],
            [
              100.4267684,
              -0.4641028
            ],
            [
              100.4267755,
              -0.4642225
            ],
            [
              100.4267637,
              -0.4645336
            ],
            [
              100.4267712,
              -0.4647923
            ],
            [
              100.4267496,
              -0.4649954
            ],
            [
              100.426743,
              -0.4650574
            ],
            [
              100.4267069,
              -0.4651292
            ],
            [
              100.426656,
              -0.4651845
            ],
            [
              100.4266055,
              -0.4652653
            ],
            [
              100.4265579,
              -0.4653162
            ],
            [
              100.4265372,
              -0.4653581
            ],
            [
              100.4264956,
              -0.4655076
            ],
            [
              100.4264748,
              -0.4655555
            ],
            [
              100.426454,
              -0.4656093
            ],
            [
              100.4264273,
              -0.4656782
            ],
            [
              100.4264005,
              -0.465741
            ],
            [
              100.4263768,
              -0.4657978
            ],
            [
              100.4263441,
              -0.4658876
            ],
            [
              100.4262491,
              -0.4660192
            ],
            [
              100.4261362,
              -0.4661598
            ],
            [
              100.4259193,
              -0.4663782
            ],
            [
              100.4257619,
              -0.4665129
            ],
            [
              100.4255598,
              -0.4666505
            ],
            [
              100.4254316,
              -0.4667194
            ],
            [
              100.4254279,
              -0.4667237
            ],
            [
              100.425373,
              -0.4668092
            ],
            [
              100.4252951,
              -0.4668755
            ],
            [
              100.4252233,
              -0.4669871
            ],
            [
              100.4252004,
              -0.4671322
            ],
            [
              100.4251707,
              -0.467183
            ],
            [
              100.4251232,
              -0.4672578
            ],
            [
              100.4250697,
              -0.4673057
            ],
            [
              100.4250162,
              -0.4673685
            ],
            [
              100.4249585,
              -0.4674355
            ],
            [
              100.4249163,
              -0.4675223
            ],
            [
              100.4248735,
              -0.4676443
            ],
            [
              100.4248094,
              -0.467831
            ],
            [
              100.4248094,
              -0.4679172
            ],
            [
              100.4248166,
              -0.4680033
            ],
            [
              100.4248665,
              -0.4680751
            ],
            [
              100.4249378,
              -0.4681612
            ],
            [
              100.4249878,
              -0.4682474
            ],
            [
              100.4249485,
              -0.4683048
            ],
            [
              100.4248772,
              -0.4683622
            ],
            [
              100.4248202,
              -0.4684197
            ],
            [
              100.424756,
              -0.4684951
            ],
            [
              100.4247168,
              -0.4685525
            ],
            [
              100.4246954,
              -0.4686028
            ],
            [
              100.4246562,
              -0.468671
            ],
            [
              100.4246028,
              -0.4687464
            ],
            [
              100.4245386,
              -0.4688182
            ],
            [
              100.4244798,
              -0.4688655
            ],
            [
              100.4243877,
              -0.4689193
            ],
            [
              100.4242064,
              -0.4690031
            ],
            [
              100.4241114,
              -0.4690211
            ],
            [
              100.4240639,
              -0.4688879
            ],
            [
              100.4239718,
              -0.4686038
            ],
            [
              100.4239348,
              -0.4684961
            ],
            [
              100.4239131,
              -0.4684335
            ],
            [
              100.423853,
              -0.4684253
            ],
            [
              100.4237408,
              -0.4684234
            ],
            [
              100.4236286,
              -0.4684273
            ],
            [
              100.4235069,
              -0.4684215
            ],
            [
              100.4232616,
              -0.4684312
            ],
            [
              100.4230379,
              -0.4684269
            ],
            [
              100.4228347,
              -0.46847
            ],
            [
              100.4226564,
              -0.4685454
            ],
            [
              100.4223391,
              -0.4687214
            ],
            [
              100.4222642,
              -0.4687824
            ],
            [
              100.4221858,
              -0.4688327
            ],
            [
              100.4220218,
              -0.4689045
            ],
            [
              100.4219588,
              -0.4689473
            ],
            [
              100.4219609,
              -0.4689674
            ],
            [
              100.4219565,
              -0.4689893
            ],
            [
              100.4219569,
              -0.4689945
            ],
            [
              100.421959,
              -0.4690185
            ],
            [
              100.4219692,
              -0.4690437
            ],
            [
              100.4219684,
              -0.4690616
            ],
            [
              100.4219954,
              -0.4691319
            ],
            [
              100.4219549,
              -0.4691225
            ],
            [
              100.4219593,
              -0.4691426
            ],
            [
              100.4219712,
              -0.469163
            ],
            [
              100.4219929,
              -0.4691889
            ],
            [
              100.4220094,
              -0.4692059
            ],
            [
              100.4220246,
              -0.4692291
            ],
            [
              100.4220403,
              -0.4692612
            ],
            [
              100.422049,
              -0.4692822
            ],
            [
              100.4220587,
              -0.4693085
            ],
            [
              100.4220603,
              -0.46931
            ],
            [
              100.4220834,
              -0.4693319
            ],
            [
              100.4220857,
              -0.4693327
            ],
            [
              100.4220971,
              -0.4693367
            ],
            [
              100.422115,
              -0.4693446
            ],
            [
              100.422134,
              -0.469358
            ],
            [
              100.4221418,
              -0.4693693
            ],
            [
              100.4221482,
              -0.4693785
            ],
            [
              100.4221625,
              -0.4694089
            ],
            [
              100.4221628,
              -0.4694094
            ],
            [
              100.4221729,
              -0.4694401
            ],
            [
              100.4221777,
              -0.4694577
            ],
            [
              100.4221812,
              -0.4694706
            ],
            [
              100.4221904,
              -0.4694963
            ],
            [
              100.4221999,
              -0.4695225
            ],
            [
              100.4222076,
              -0.4695416
            ],
            [
              100.4222289,
              -0.4695698
            ],
            [
              100.4222518,
              -0.4695893
            ],
            [
              100.4222706,
              -0.4696086
            ],
            [
              100.4222862,
              -0.4696324
            ],
            [
              100.4222995,
              -0.4696593
            ],
            [
              100.4223122,
              -0.4696913
            ],
            [
              100.4223154,
              -0.4697003
            ],
            [
              100.4223229,
              -0.4697212
            ],
            [
              100.4223249,
              -0.4697358
            ],
            [
              100.4223266,
              -0.4697489
            ],
            [
              100.4223289,
              -0.4697736
            ],
            [
              100.4223292,
              -0.4697764
            ],
            [
              100.4223286,
              -0.4697946
            ],
            [
              100.4223306,
              -0.4698275
            ],
            [
              100.4223318,
              -0.4698485
            ],
            [
              100.4223307,
              -0.4698752
            ],
            [
              100.4223304,
              -0.4698841
            ],
            [
              100.4223299,
              -0.4698936
            ],
            [
              100.4223293,
              -0.4699204
            ],
            [
              100.4223317,
              -0.4699393
            ],
            [
              100.422334,
              -0.4699584
            ],
            [
              100.4223382,
              -0.4699823
            ],
            [
              100.4223478,
              -0.4700141
            ],
            [
              100.4223592,
              -0.4700391
            ],
            [
              100.4223729,
              -0.4700805
            ],
            [
              100.4223725,
              -0.4700972
            ],
            [
              100.4223725,
              -0.4701122
            ],
            [
              100.4223746,
              -0.4701395
            ],
            [
              100.4223823,
              -0.4701598
            ],
            [
              100.422391,
              -0.470171
            ],
            [
              100.422398,
              -0.4702012
            ],
            [
              100.4223996,
              -0.4702062
            ],
            [
              100.4224071,
              -0.4702298
            ],
            [
              100.422417,
              -0.4702421
            ],
            [
              100.4224336,
              -0.4702521
            ],
            [
              100.4224569,
              -0.4702576
            ],
            [
              100.4224883,
              -0.470259
            ],
            [
              100.4225256,
              -0.4702557
            ],
            [
              100.4225527,
              -0.4702467
            ],
            [
              100.4225795,
              -0.470241
            ],
            [
              100.4226062,
              -0.4702353
            ],
            [
              100.4226348,
              -0.4702312
            ],
            [
              100.4226695,
              -0.470232
            ],
            [
              100.4227011,
              -0.4702389
            ],
            [
              100.4227174,
              -0.4702489
            ],
            [
              100.4227326,
              -0.4702674
            ],
            [
              100.4227499,
              -0.4702849
            ],
            [
              100.4227681,
              -0.47029
            ],
            [
              100.4227977,
              -0.470302
            ],
            [
              100.4228119,
              -0.4703105
            ],
            [
              100.4228337,
              -0.4703311
            ],
            [
              100.4228506,
              -0.4703579
            ],
            [
              100.4228725,
              -0.4703907
            ],
            [
              100.4228869,
              -0.4704178
            ],
            [
              100.4229027,
              -0.4704495
            ],
            [
              100.422917,
              -0.4704825
            ],
            [
              100.4229251,
              -0.4705061
            ],
            [
              100.4229295,
              -0.4705403
            ],
            [
              100.4229313,
              -0.4705809
            ],
            [
              100.4229269,
              -0.4706199
            ],
            [
              100.42292,
              -0.4706616
            ],
            [
              100.4229195,
              -0.4706694
            ],
            [
              100.4229171,
              -0.4707054
            ],
            [
              100.4229268,
              -0.4707389
            ],
            [
              100.4229376,
              -0.4707688
            ],
            [
              100.4229798,
              -0.4708282
            ],
            [
              100.4229975,
              -0.4708616
            ],
            [
              100.4230083,
              -0.4708869
            ],
            [
              100.4230169,
              -0.4709072
            ],
            [
              100.4230432,
              -0.4709908
            ],
            [
              100.4230468,
              -0.4710306
            ],
            [
              100.4230646,
              -0.4710757
            ],
            [
              100.4230655,
              -0.4710793
            ],
            [
              100.4230732,
              -0.4711075
            ],
            [
              100.4230775,
              -0.4711507
            ],
            [
              100.423075,
              -0.4711858
            ],
            [
              100.4230721,
              -0.4711948
            ],
            [
              100.423062,
              -0.4712263
            ],
            [
              100.4230492,
              -0.4712609
            ],
            [
              100.4230473,
              -0.4712922
            ],
            [
              100.4230463,
              -0.4713164
            ],
            [
              100.4230396,
              -0.4713423
            ],
            [
              100.4230272,
              -0.4713765
            ],
            [
              100.4230225,
              -0.4714001
            ],
            [
              100.4229956,
              -0.4714561
            ]
          ]
        ]
      },
      "id": "relation/17857398"
    }
  ]
}