{
  "type": "FeatureCollection",
  "generator": "overpass-turbo",
  "copyright": "The data included in this document is from www.openstreetmap.org. The data is made available under ODbL.",
  "timestamp": "2025-07-15T05:15:01Z",
  "features": [
    {
      "type": "Feature",
      "properties": {
        "@id": "relation/17857401",
        "admin_level": "7",
        "boundary": "administrative",
        "is_in:city": "Kota Padang Panjang",
        "is_in:district": "Padang Panjang Timur",
        "is_in:province": "Sumatera Barat",
        "name": "Tanah Pak Lambik",
        "official_name": "Kelurahan Tanah Pak Lambik",
        "place": "subdistrict",
        "type": "boundary"
      },
      "geometry": {
        "type": "Polygon",
        "coordinates": [
          [
            [
              100.404631,
              -0.4698143
            ],
            [
              100.4046899,
              -0.4698529
            ],
            [
              100.404722,
              -0.4698639
            ],
            [
              100.4049264,
              -0.4699336
            ],
            [
              100.4051998,
              -0.4699993
            ],
            [
              100.4053887,
              -0.4700376
            ],
            [
              100.4054733,
              -0.4700467
            ],
            [
              100.4054426,
              -0.4700747
            ],
            [
              100.4053569,
              -0.4700897
            ],
            [
              100.4052898,
              -0.470131
            ],
            [
              100.4052302,
              -0.470176
            ],
            [
              100.4052252,
              -0.4702472
            ],
            [
              100.4050049,
              -0.4702498
            ],
            [
              100.4047464,
              -0.4702349
            ],
            [
              100.4045934,
              -0.4702362
            ],
            [
              100.4046403,
              -0.4706982
            ],
            [
              100.4046669,
              -0.470772
            ],
            [
              100.4046745,
              -0.4708294
            ],
            [
              100.4046669,
              -0.4708885
            ],
            [
              100.404683,
              -0.4709297
            ],
            [
              100.4047077,
              -0.4709833
            ],
            [
              100.4047925,
              -0.4710926
            ],
            [
              100.4048215,
              -0.4710761
            ],
            [
              100.4049967,
              -0.4709415
            ],
            [
              100.4050948,
              -0.4708667
            ],
            [
              100.405282,
              -0.470753
            ],
            [
              100.4054289,
              -0.470686
            ],
            [
              100.4056337,
              -0.4705734
            ],
            [
              100.405711,
              -0.4705211
            ],
            [
              100.4057811,
              -0.4704777
            ],
            [
              100.4059142,
              -0.4706356
            ],
            [
              100.4059674,
              -0.4707367
            ],
            [
              100.4059994,
              -0.4707528
            ],
            [
              100.4060365,
              -0.47077
            ],
            [
              100.4060615,
              -0.4707861
            ],
            [
              100.4061582,
              -0.4707611
            ],
            [
              100.4062738,
              -0.4707611
            ],
            [
              100.4063036,
              -0.4707911
            ],
            [
              100.4063073,
              -0.4709224
            ],
            [
              100.4064377,
              -0.4709036
            ],
            [
              100.4065876,
              -0.4708633
            ],
            [
              100.4066054,
              -0.4708585
            ],
            [
              100.4066868,
              -0.4708417
            ],
            [
              100.4068066,
              -0.4708302
            ],
            [
              100.4069167,
              -0.470825
            ],
            [
              100.4069645,
              -0.4708062
            ],
            [
              100.4070234,
              -0.470766
            ],
            [
              100.4070386,
              -0.4707258
            ],
            [
              100.4070405,
              -0.4706818
            ],
            [
              100.4070253,
              -0.4706416
            ],
            [
              100.406993,
              -0.4705803
            ],
            [
              100.4069777,
              -0.4705382
            ],
            [
              100.4069815,
              -0.4704903
            ],
            [
              100.4070367,
              -0.4704827
            ],
            [
              100.4070994,
              -0.4705171
            ],
            [
              100.4071508,
              -0.4705343
            ],
            [
              100.4071945,
              -0.4705362
            ],
            [
              100.4072326,
              -0.4705228
            ],
            [
              100.4072478,
              -0.4704731
            ],
            [
              100.4072363,
              -0.4704156
            ],
            [
              100.4072154,
              -0.4703601
            ],
            [
              100.4072154,
              -0.4703218
            ],
            [
              100.4072401,
              -0.4702319
            ],
            [
              100.4080232,
              -0.4703016
            ],
            [
              100.4093297,
              -0.4704003
            ],
            [
              100.4093053,
              -0.4695325
            ],
            [
              100.4092876,
              -0.4693552
            ],
            [
              100.409268,
              -0.4691622
            ],
            [
              100.409221,
              -0.468981
            ],
            [
              100.4091975,
              -0.4688117
            ],
            [
              100.4091773,
              -0.4687557
            ],
            [
              100.4091371,
              -0.4686445
            ],
            [
              100.4091192,
              -0.468595
            ],
            [
              100.4090292,
              -0.4684099
            ],
            [
              100.4090004,
              -0.4683588
            ],
            [
              100.4089674,
              -0.4683004
            ],
            [
              100.408947,
              -0.4682642
            ],
            [
              100.4088791,
              -0.4681856
            ],
            [
              100.4088687,
              -0.4681736
            ],
            [
              100.4087802,
              -0.4681194
            ],
            [
              100.4087787,
              -0.4681185
            ],
            [
              100.4087558,
              -0.4681077
            ],
            [
              100.4087538,
              -0.4681068
            ],
            [
              100.4086026,
              -0.4680358
            ],
            [
              100.408592,
              -0.4680318
            ],
            [
              100.4082662,
              -0.4680317
            ],
            [
              100.4081769,
              -0.468026
            ],
            [
              100.4078612,
              -0.4680854
            ],
            [
              100.4076258,
              -0.4681511
            ],
            [
              100.4076029,
              -0.4681511
            ],
            [
              100.4076018,
              -0.4681511
            ],
            [
              100.4075725,
              -0.4681512
            ],
            [
              100.4075647,
              -0.4681512
            ],
            [
              100.4074707,
              -0.4681196
            ],
            [
              100.40745,
              -0.4681127
            ],
            [
              100.4064564,
              -0.4684597
            ],
            [
              100.4063119,
              -0.4685102
            ],
            [
              100.4059255,
              -0.4668292
            ],
            [
              100.4058418,
              -0.4664291
            ],
            [
              100.4057314,
              -0.4659352
            ],
            [
              100.4056552,
              -0.4656347
            ],
            [
              100.4053833,
              -0.4656979
            ],
            [
              100.4053751,
              -0.4656543
            ],
            [
              100.4053512,
              -0.4655143
            ],
            [
              100.4052596,
              -0.4650932
            ],
            [
              100.4051989,
              -0.4647797
            ],
            [
              100.405168,
              -0.4645703
            ],
            [
              100.4051192,
              -0.4645704
            ],
            [
              100.4050727,
              -0.4645657
            ],
            [
              100.4049787,
              -0.4645562
            ],
            [
              100.4049088,
              -0.4645491
            ],
            [
              100.4048692,
              -0.4645431
            ],
            [
              100.4047992,
              -0.4645327
            ],
            [
              100.4047468,
              -0.4645249
            ],
            [
              100.4047463,
              -0.4645248
            ],
            [
              100.4047461,
              -0.4645248
            ],
            [
              100.4046741,
              -0.4645141
            ],
            [
              100.4046596,
              -0.4645119
            ],
            [
              100.4045791,
              -0.4644999
            ],
            [
              100.4045739,
              -0.4645945
            ],
            [
              100.4045713,
              -0.4645968
            ],
            [
              100.4045709,
              -0.4646389
            ],
            [
              100.4045694,
              -0.4647894
            ],
            [
              100.4045667,
              -0.4650583
            ],
            [
              100.4045704,
              -0.4652464
            ],
            [
              100.4045706,
              -0.465255
            ],
            [
              100.4045715,
              -0.4652993
            ],
            [
              100.4045741,
              -0.4654349
            ],
            [
              100.4045757,
              -0.4655117
            ],
            [
              100.4045779,
              -0.4656262
            ],
            [
              100.4045785,
              -0.465658
            ],
            [
              100.404579,
              -0.4656838
            ],
            [
              100.4045791,
              -0.4656852
            ],
            [
              100.4045795,
              -0.4657055
            ],
            [
              100.4045852,
              -0.4660148
            ],
            [
              100.4045874,
              -0.4661323
            ],
            [
              100.4045891,
              -0.466226
            ],
            [
              100.4045911,
              -0.466332
            ],
            [
              100.4045921,
              -0.4663888
            ],
            [
              100.4045923,
              -0.4663947
            ],
            [
              100.4046531,
              -0.4666394
            ],
            [
              100.4046642,
              -0.466684
            ],
            [
              100.4046686,
              -0.4667019
            ],
            [
              100.404678,
              -0.4667395
            ],
            [
              100.4046866,
              -0.4667742
            ],
            [
              100.4046948,
              -0.4668071
            ],
            [
              100.4047691,
              -0.4669991
            ],
            [
              100.4047728,
              -0.4670028
            ],
            [
              100.4047823,
              -0.4669951
            ],
            [
              100.4048083,
              -0.4670317
            ],
            [
              100.4048108,
              -0.4670353
            ],
            [
              100.4048574,
              -0.4670813
            ],
            [
              100.4049908,
              -0.4671898
            ],
            [
              100.4050168,
              -0.4672116
            ],
            [
              100.4050929,
              -0.4672618
            ],
            [
              100.405161,
              -0.4673067
            ],
            [
              100.40519,
              -0.4673364
            ],
            [
              100.4052214,
              -0.4673866
            ],
            [
              100.4052242,
              -0.4673957
            ],
            [
              100.4051975,
              -0.4673973
            ],
            [
              100.4051852,
              -0.467398
            ],
            [
              100.4051823,
              -0.4673984
            ],
            [
              100.4050229,
              -0.4674169
            ],
            [
              100.4050011,
              -0.4674194
            ],
            [
              100.4049516,
              -0.4674463
            ],
            [
              100.4049416,
              -0.4674517
            ],
            [
              100.4049397,
              -0.4674527
            ],
            [
              100.4049377,
              -0.4674613
            ],
            [
              100.4049366,
              -0.4674658
            ],
            [
              100.4049238,
              -0.4675209
            ],
            [
              100.4049134,
              -0.4675652
            ],
            [
              100.4049168,
              -0.4675703
            ],
            [
              100.4049185,
              -0.4675828
            ],
            [
              100.4049249,
              -0.4676322
            ],
            [
              100.4049285,
              -0.4676605
            ],
            [
              100.4049355,
              -0.4677142
            ],
            [
              100.4049506,
              -0.4678308
            ],
            [
              100.4049664,
              -0.4678411
            ],
            [
              100.4050442,
              -0.4683579
            ],
            [
              100.4050895,
              -0.4688019
            ],
            [
              100.4051157,
              -0.4689982
            ],
            [
              100.4050334,
              -0.4690155
            ],
            [
              100.4049839,
              -0.469025
            ],
            [
              100.4049439,
              -0.469044
            ],
            [
              100.4049401,
              -0.469065
            ],
            [
              100.404942,
              -0.4691373
            ],
            [
              100.4049439,
              -0.4692001
            ],
            [
              100.4049268,
              -0.4692687
            ],
            [
              100.4049097,
              -0.469301
            ],
            [
              100.4048823,
              -0.4693098
            ],
            [
              100.4047945,
              -0.4693168
            ],
            [
              100.4047526,
              -0.4693928
            ],
            [
              100.4047308,
              -0.4694324
            ],
            [
              100.4046973,
              -0.469609
            ],
            [
              100.4046778,
              -0.4696852
            ],
            [
              100.4046605,
              -0.4697528
            ],
            [
              100.4046389,
              -0.4697979
            ],
            [
              100.404631,
              -0.4698143
            ]
          ]
        ]
      },
      "id": "relation/17857401"
    }
  ]
}