{
  "type": "FeatureCollection",
  "generator": "overpass-turbo",
  "copyright": "The data included in this document is from www.openstreetmap.org. The data is made available under ODbL.",
  "timestamp": "2025-07-15T05:55:59Z",
  "features": [
    {
      "type": "Feature",
      "properties": {
        "@id": "relation/17857413",
        "admin_level": "6",
        "boundary": "administrative",
        "is_in:city": "Kota Padang Panjang",
        "is_in:province": "Sumatera Barat",
        "name": "Padang Panjang Timur",
        "name:ar": "شرق بادانق بانجانق",
        "official_name": "Kecamatan Padang Panjang Timur",
        "place": "district",
        "type": "boundary"
      },
      "geometry": {
        "type": "Polygon",
        "coordinates": [
          [
            [
              100.404631,
              -0.4698143
            ],
            [
              100.4043634,
              -0.4697732
            ],
            [
              100.40428,
              -0.4697488
            ],
            [
              100.4042592,
              -0.4697427
            ],
            [
              100.4031137,
              -0.4694018
            ],
            [
              100.4027282,
              -0.4692904
            ],
            [
              100.4025915,
              -0.46925
            ],
            [
              100.4022456,
              -0.4691476
            ],
            [
              100.4013823,
              -0.4688921
            ],
            [
              100.4013698,
              -0.4688874
            ],
            [
              100.4013179,
              -0.4690447
            ],
            [
              100.401264,
              -0.4692078
            ],
            [
              100.4013212,
              -0.4692252
            ],
            [
              100.4013154,
              -0.4692634
            ],
            [
              100.4013255,
              -0.469266
            ],
            [
              100.4013195,
              -0.4693201
            ],
            [
              100.401469,
              -0.4693324
            ],
            [
              100.4014776,
              -0.4695659
            ],
            [
              100.4014752,
              -0.4695676
            ],
            [
              100.4013768,
              -0.4696356
            ],
            [
              100.4013648,
              -0.469646
            ],
            [
              100.4013507,
              -0.4696588
            ],
            [
              100.4013496,
              -0.4696599
            ],
            [
              100.4013373,
              -0.4696718
            ],
            [
              100.401325,
              -0.4696846
            ],
            [
              100.4013205,
              -0.4696896
            ],
            [
              100.4013131,
              -0.4696979
            ],
            [
              100.4013009,
              -0.4697127
            ],
            [
              100.4012882,
              -0.4697288
            ],
            [
              100.4012753,
              -0.4697461
            ],
            [
              100.401272,
              -0.4697507
            ],
            [
              100.4012713,
              -0.469757
            ],
            [
              100.4012465,
              -0.4697869
            ],
            [
              100.4012411,
              -0.4697948
            ],
            [
              100.4012293,
              -0.4698125
            ],
            [
              100.401219,
              -0.4698282
            ],
            [
              100.4012172,
              -0.469831
            ],
            [
              100.4012052,
              -0.4698502
            ],
            [
              100.4012039,
              -0.4698523
            ],
            [
              100.4011964,
              -0.4698647
            ],
            [
              100.4011936,
              -0.4698694
            ],
            [
              100.4011838,
              -0.4698866
            ],
            [
              100.4011827,
              -0.4698885
            ],
            [
              100.4011735,
              -0.4699056
            ],
            [
              100.4011643,
              -0.4699238
            ],
            [
              100.401155,
              -0.4699426
            ],
            [
              100.401146,
              -0.4699618
            ],
            [
              100.4011374,
              -0.4699807
            ],
            [
              100.4011295,
              -0.4699991
            ],
            [
              100.4011221,
              -0.4700166
            ],
            [
              100.4011158,
              -0.4700326
            ],
            [
              100.4011069,
              -0.4700569
            ],
            [
              100.4011012,
              -0.4700739
            ],
            [
              100.4010989,
              -0.4700807
            ],
            [
              100.4010922,
              -0.4701032
            ],
            [
              100.4010867,
              -0.4701237
            ],
            [
              100.4010827,
              -0.4701416
            ],
            [
              100.4010793,
              -0.4701611
            ],
            [
              100.4010781,
              -0.4701679
            ],
            [
              100.4010766,
              -0.4701815
            ],
            [
              100.4010753,
              -0.4701929
            ],
            [
              100.4010733,
              -0.470216
            ],
            [
              100.4010719,
              -0.4702335
            ],
            [
              100.4010702,
              -0.4702524
            ],
            [
              100.4010686,
              -0.4702717
            ],
            [
              100.401067,
              -0.4702899
            ],
            [
              100.4010703,
              -0.4703239
            ],
            [
              100.4010704,
              -0.4703251
            ],
            [
              100.4010766,
              -0.4703891
            ],
            [
              100.4010766,
              -0.4703893
            ],
            [
              100.401074,
              -0.4704192
            ],
            [
              100.4010702,
              -0.4704625
            ],
            [
              100.40106,
              -0.4705786
            ],
            [
              100.4010594,
              -0.470585
            ],
            [
              100.4010566,
              -0.4705992
            ],
            [
              100.4010556,
              -0.4706042
            ],
            [
              100.4010263,
              -0.4707527
            ],
            [
              100.4010265,
              -0.4707483
            ],
            [
              100.4010225,
              -0.4707683
            ],
            [
              100.4010207,
              -0.4707776
            ],
            [
              100.4010187,
              -0.4707875
            ],
            [
              100.4010182,
              -0.4707975
            ],
            [
              100.401016,
              -0.4708354
            ],
            [
              100.4010149,
              -0.470854
            ],
            [
              100.4010209,
              -0.4708961
            ],
            [
              100.4010185,
              -0.4708982
            ],
            [
              100.4010213,
              -0.4709066
            ],
            [
              100.4010383,
              -0.4709562
            ],
            [
              100.4005006,
              -0.471356
            ],
            [
              100.3999409,
              -0.471763
            ],
            [
              100.4001192,
              -0.4719792
            ],
            [
              100.4003204,
              -0.4725497
            ],
            [
              100.400325,
              -0.4725681
            ],
            [
              100.401122,
              -0.4733702
            ],
            [
              100.4011225,
              -0.4733707
            ],
            [
              100.4010967,
              -0.4734675
            ],
            [
              100.4010683,
              -0.4735731
            ],
            [
              100.4010397,
              -0.4736792
            ],
            [
              100.401011,
              -0.4737854
            ],
            [
              100.4009821,
              -0.4738918
            ],
            [
              100.4009532,
              -0.4739979
            ],
            [
              100.4009242,
              -0.4741038
            ],
            [
              100.4008953,
              -0.474209
            ],
            [
              100.4008664,
              -0.4743134
            ],
            [
              100.4008377,
              -0.4744167
            ],
            [
              100.4008091,
              -0.4745188
            ],
            [
              100.400799,
              -0.4745547
            ],
            [
              100.4007808,
              -0.4746195
            ],
            [
              100.4007528,
              -0.4747185
            ],
            [
              100.4007251,
              -0.4748156
            ],
            [
              100.4006932,
              -0.4749266
            ],
            [
              100.4006607,
              -0.4750387
            ],
            [
              100.4006278,
              -0.4751518
            ],
            [
              100.4005944,
              -0.4752655
            ],
            [
              100.4005606,
              -0.4753798
            ],
            [
              100.4005435,
              -0.4754371
            ],
            [
              100.4005265,
              -0.4754943
            ],
            [
              100.4005222,
              -0.4755088
            ],
            [
              100.4004923,
              -0.4756089
            ],
            [
              100.4004579,
              -0.4757233
            ],
            [
              100.4004235,
              -0.4758374
            ],
            [
              100.4004142,
              -0.4758681
            ],
            [
              100.4004067,
              -0.4758904
            ],
            [
              100.4003884,
              -0.4759508
            ],
            [
              100.4003541,
              -0.4760636
            ],
            [
              100.4003199,
              -0.4761753
            ],
            [
              100.4003067,
              -0.4762184
            ],
            [
              100.400286,
              -0.4762858
            ],
            [
              100.4002852,
              -0.4762885
            ],
            [
              100.4002525,
              -0.4763949
            ],
            [
              100.4002193,
              -0.4765024
            ],
            [
              100.4001866,
              -0.476608
            ],
            [
              100.4001545,
              -0.4767116
            ],
            [
              100.4001229,
              -0.4768129
            ],
            [
              100.4000921,
              -0.4769117
            ],
            [
              100.4000621,
              -0.4770078
            ],
            [
              100.4000328,
              -0.4771011
            ],
            [
              100.4000046,
              -0.4771911
            ],
            [
              100.3999772,
              -0.4772779
            ],
            [
              100.399951,
              -0.4773612
            ],
            [
              100.3999259,
              -0.4774408
            ],
            [
              100.3999019,
              -0.4775164
            ],
            [
              100.3998989,
              -0.4775261
            ],
            [
              100.3998793,
              -0.477588
            ],
            [
              100.3998218,
              -0.4777688
            ],
            [
              100.3998147,
              -0.4777911
            ],
            [
              100.3997679,
              -0.4779381
            ],
            [
              100.3997248,
              -0.4780735
            ],
            [
              100.3997172,
              -0.4780972
            ],
            [
              100.3996692,
              -0.4782474
            ],
            [
              100.3996236,
              -0.4783902
            ],
            [
              100.3995802,
              -0.4785268
            ],
            [
              100.3995779,
              -0.4785341
            ],
            [
              100.3995383,
              -0.4786589
            ],
            [
              100.3994979,
              -0.4787875
            ],
            [
              100.3994685,
              -0.4788816
            ],
            [
              100.3994584,
              -0.4789142
            ],
            [
              100.3994197,
              -0.47904
            ],
            [
              100.3993949,
              -0.4791213
            ],
            [
              100.3993789,
              -0.4791747
            ],
            [
              100.399347,
              -0.4792193
            ],
            [
              100.399227,
              -0.4794864
            ],
            [
              100.3991775,
              -0.4795878
            ],
            [
              100.3990247,
              -0.4799006
            ],
            [
              100.3988779,
              -0.4800471
            ],
            [
              100.3988743,
              -0.4800507
            ],
            [
              100.3988441,
              -0.4800987
            ],
            [
              100.3988013,
              -0.4801578
            ],
            [
              100.3987622,
              -0.4801977
            ],
            [
              100.3987088,
              -0.4804279
            ],
            [
              100.3986792,
              -0.4806839
            ],
            [
              100.3986568,
              -0.4809334
            ],
            [
              100.3986479,
              -0.4809771
            ],
            [
              100.3986432,
              -0.4809988
            ],
            [
              100.3981281,
              -0.482806
            ],
            [
              100.3979936,
              -0.4834582
            ],
            [
              100.3984356,
              -0.4834134
            ],
            [
              100.4008272,
              -0.4832659
            ],
            [
              100.4012081,
              -0.4833218
            ],
            [
              100.4015184,
              -0.4834313
            ],
            [
              100.4019015,
              -0.4834784
            ],
            [
              100.4020325,
              -0.4835733
            ],
            [
              100.4022162,
              -0.4837828
            ],
            [
              100.4026713,
              -0.4837177
            ],
            [
              100.4027939,
              -0.4834768
            ],
            [
              100.403188,
              -0.4830893
            ],
            [
              100.4033861,
              -0.4826926
            ],
            [
              100.4036464,
              -0.4825052
            ],
            [
              100.4037138,
              -0.4822651
            ],
            [
              100.4037738,
              -0.4822255
            ],
            [
              100.4039412,
              -0.4822431
            ],
            [
              100.4040859,
              -0.482216
            ],
            [
              100.4044604,
              -0.4816884
            ],
            [
              100.4048881,
              -0.4814042
            ],
            [
              100.4051169,
              -0.481131
            ],
            [
              100.4050281,
              -0.4809812
            ],
            [
              100.4050558,
              -0.4809402
            ],
            [
              100.4050439,
              -0.4808015
            ],
            [
              100.4052476,
              -0.4806783
            ],
            [
              100.4058505,
              -0.4800558
            ],
            [
              100.4065326,
              -0.48048
            ],
            [
              100.4074289,
              -0.4811714
            ],
            [
              100.4079424,
              -0.4815111
            ],
            [
              100.4084064,
              -0.481888
            ],
            [
              100.4094679,
              -0.4824633
            ],
            [
              100.4099977,
              -0.482604
            ],
            [
              100.4113997,
              -0.4827853
            ],
            [
              100.4117717,
              -0.4826808
            ],
            [
              100.4118891,
              -0.4826008
            ],
            [
              100.4121843,
              -0.4826537
            ],
            [
              100.4122603,
              -0.4828039
            ],
            [
              100.4124095,
              -0.48277
            ],
            [
              100.4125824,
              -0.4826639
            ],
            [
              100.4126308,
              -0.4827268
            ],
            [
              100.4125939,
              -0.4829307
            ],
            [
              100.4127502,
              -0.4830802
            ],
            [
              100.4128544,
              -0.4831262
            ],
            [
              100.4131273,
              -0.4831422
            ],
            [
              100.4132185,
              -0.483254
            ],
            [
              100.4137053,
              -0.4836555
            ],
            [
              100.4149392,
              -0.484488
            ],
            [
              100.4151531,
              -0.4845741
            ],
            [
              100.4157379,
              -0.4847032
            ],
            [
              100.416061,
              -0.4847013
            ],
            [
              100.4165482,
              -0.4848074
            ],
            [
              100.4168089,
              -0.4849449
            ],
            [
              100.4172735,
              -0.4850737
            ],
            [
              100.417386,
              -0.4852966
            ],
            [
              100.4175361,
              -0.4853897
            ],
            [
              100.4176735,
              -0.4856345
            ],
            [
              100.4178766,
              -0.4857336
            ],
            [
              100.417913,
              -0.4858499
            ],
            [
              100.4179624,
              -0.4858367
            ],
            [
              100.417997,
              -0.4857086
            ],
            [
              100.4180476,
              -0.4857864
            ],
            [
              100.4186885,
              -0.485928
            ],
            [
              100.4187747,
              -0.4860851
            ],
            [
              100.4191368,
              -0.4863532
            ],
            [
              100.4192782,
              -0.4863409
            ],
            [
              100.4195644,
              -0.4862182
            ],
            [
              100.4197059,
              -0.4862733
            ],
            [
              100.4197614,
              -0.4862623
            ],
            [
              100.4198391,
              -0.4861485
            ],
            [
              100.4198849,
              -0.4857873
            ],
            [
              100.4201244,
              -0.4856325
            ],
            [
              100.4202822,
              -0.4854818
            ],
            [
              100.420367,
              -0.4853327
            ],
            [
              100.4204885,
              -0.485261
            ],
            [
              100.4207313,
              -0.485193
            ],
            [
              100.4207027,
              -0.4850466
            ],
            [
              100.4207641,
              -0.4849748
            ],
            [
              100.4208511,
              -0.4849446
            ],
            [
              100.420988,
              -0.4849761
            ],
            [
              100.4211752,
              -0.4845499
            ],
            [
              100.4210933,
              -0.4844312
            ],
            [
              100.4212481,
              -0.4843422
            ],
            [
              100.4212495,
              -0.4842359
            ],
            [
              100.421124,
              -0.4840105
            ],
            [
              100.4211029,
              -0.4838612
            ],
            [
              100.421209,
              -0.4839172
            ],
            [
              100.4213416,
              -0.4839287
            ],
            [
              100.4216668,
              -0.4838066
            ],
            [
              100.4218607,
              -0.4836299
            ],
            [
              100.4219195,
              -0.4832747
            ],
            [
              100.4219893,
              -0.4831914
            ],
            [
              100.4221334,
              -0.4831755
            ],
            [
              100.4222756,
              -0.483313
            ],
            [
              100.4223742,
              -0.4834685
            ],
            [
              100.4224539,
              -0.4837676
            ],
            [
              100.4223339,
              -0.4839459
            ],
            [
              100.4219881,
              -0.4842475
            ],
            [
              100.4219703,
              -0.484348
            ],
            [
              100.4219989,
              -0.4844497
            ],
            [
              100.4220595,
              -0.4844832
            ],
            [
              100.4223079,
              -0.484385
            ],
            [
              100.4223744,
              -0.4843886
            ],
            [
              100.4224481,
              -0.4844448
            ],
            [
              100.4224886,
              -0.4846985
            ],
            [
              100.4223924,
              -0.4849007
            ],
            [
              100.4224078,
              -0.4850132
            ],
            [
              100.4224637,
              -0.4850586
            ],
            [
              100.4225231,
              -0.4850538
            ],
            [
              100.4228297,
              -0.4849162
            ],
            [
              100.4232172,
              -0.4847988
            ],
            [
              100.4236189,
              -0.4849196
            ],
            [
              100.423903,
              -0.4849171
            ],
            [
              100.4239969,
              -0.4849494
            ],
            [
              100.4240326,
              -0.4850236
            ],
            [
              100.4239958,
              -0.4851002
            ],
            [
              100.4238864,
              -0.4852091
            ],
            [
              100.4236404,
              -0.4853324
            ],
            [
              100.4235311,
              -0.4854473
            ],
            [
              100.4234289,
              -0.485628
            ],
            [
              100.4234278,
              -0.48575
            ],
            [
              100.4234801,
              -0.485811
            ],
            [
              100.4235882,
              -0.4858469
            ],
            [
              100.4241421,
              -0.4858599
            ],
            [
              100.4242978,
              -0.4856924
            ],
            [
              100.424356,
              -0.4855787
            ],
            [
              100.4245224,
              -0.4854949
            ],
            [
              100.4249538,
              -0.4856528
            ],
            [
              100.4251975,
              -0.4859542
            ],
            [
              100.4252332,
              -0.4861265
            ],
            [
              100.4252238,
              -0.4862055
            ],
            [
              100.4249314,
              -0.4864915
            ],
            [
              100.4249291,
              -0.4865693
            ],
            [
              100.424998,
              -0.4866291
            ],
            [
              100.425389,
              -0.4863742
            ],
            [
              100.4259274,
              -0.4862018
            ],
            [
              100.4260676,
              -0.4861084
            ],
            [
              100.4261436,
              -0.4860031
            ],
            [
              100.4261603,
              -0.4859146
            ],
            [
              100.4261067,
              -0.4856633
            ],
            [
              100.4260045,
              -0.4854324
            ],
            [
              100.4260211,
              -0.4853462
            ],
            [
              100.4260876,
              -0.4853175
            ],
            [
              100.4270444,
              -0.4853508
            ],
            [
              100.4271336,
              -0.4854022
            ],
            [
              100.4272132,
              -0.4855697
            ],
            [
              100.4274249,
              -0.4858066
            ],
            [
              100.4275604,
              -0.4858628
            ],
            [
              100.4276982,
              -0.4858496
            ],
            [
              100.4278468,
              -0.4857826
            ],
            [
              100.4283127,
              -0.4857956
            ],
            [
              100.428384,
              -0.4858423
            ],
            [
              100.4284899,
              -0.4862395
            ],
            [
              100.4285897,
              -0.4863244
            ],
            [
              100.4286931,
              -0.4863065
            ],
            [
              100.4287537,
              -0.4861342
            ],
            [
              100.4289118,
              -0.4859822
            ],
            [
              100.4291709,
              -0.4859618
            ],
            [
              100.4292909,
              -0.4860371
            ],
            [
              100.4294193,
              -0.4862549
            ],
            [
              100.4294777,
              -0.486761
            ],
            [
              100.4296215,
              -0.4870302
            ],
            [
              100.4297797,
              -0.4871809
            ],
            [
              100.4299354,
              -0.4871868
            ],
            [
              100.429996,
              -0.4871079
            ],
            [
              100.4301052,
              -0.4866831
            ],
            [
              100.4301385,
              -0.486652
            ],
            [
              100.4305069,
              -0.4864856
            ],
            [
              100.430703,
              -0.4865059
            ],
            [
              100.4307862,
              -0.4865513
            ],
            [
              100.4308504,
              -0.4866662
            ],
            [
              100.430759,
              -0.4869079
            ],
            [
              100.4307911,
              -0.4871819
            ],
            [
              100.4309623,
              -0.4874056
            ],
            [
              100.4310979,
              -0.4876915
            ],
            [
              100.4312821,
              -0.4879463
            ],
            [
              100.4313594,
              -0.4881545
            ],
            [
              100.4312597,
              -0.4886272
            ],
            [
              100.4312982,
              -0.4887836
            ],
            [
              100.431361,
              -0.4888052
            ],
            [
              100.4314223,
              -0.4887693
            ],
            [
              100.431495,
              -0.4886515
            ],
            [
              100.4318487,
              -0.4882968
            ],
            [
              100.4319727,
              -0.4882647
            ],
            [
              100.4319176,
              -0.4879847
            ],
            [
              100.4320789,
              -0.4879033
            ],
            [
              100.4323243,
              -0.4879169
            ],
            [
              100.4327534,
              -0.4881522
            ],
            [
              100.4330331,
              -0.4882076
            ],
            [
              100.4333498,
              -0.4883859
            ],
            [
              100.4334119,
              -0.4884835
            ],
            [
              100.4334218,
              -0.4887316
            ],
            [
              100.4334614,
              -0.4888013
            ],
            [
              100.4338674,
              -0.4889003
            ],
            [
              100.4339535,
              -0.4890007
            ],
            [
              100.4340485,
              -0.4893001
            ],
            [
              100.4341862,
              -0.489376
            ],
            [
              100.434629,
              -0.489505
            ],
            [
              100.4347425,
              -0.4896185
            ],
            [
              100.4349031,
              -0.4898971
            ],
            [
              100.4349859,
              -0.4899417
            ],
            [
              100.4354196,
              -0.4898451
            ],
            [
              100.4353111,
              -0.4892627
            ],
            [
              100.4350412,
              -0.4883801
            ],
            [
              100.4349776,
              -0.488343
            ],
            [
              100.4346908,
              -0.4883781
            ],
            [
              100.434597,
              -0.4883424
            ],
            [
              100.4343772,
              -0.4880446
            ],
            [
              100.4338201,
              -0.4874437
            ],
            [
              100.4339434,
              -0.4872847
            ],
            [
              100.4339639,
              -0.4868165
            ],
            [
              100.4340422,
              -0.4866814
            ],
            [
              100.4340368,
              -0.4866008
            ],
            [
              100.4340947,
              -0.4865944
            ],
            [
              100.4340903,
              -0.4863933
            ],
            [
              100.434143,
              -0.4863304
            ],
            [
              100.433803,
              -0.4857233
            ],
            [
              100.4337695,
              -0.4856367
            ],
            [
              100.4337954,
              -0.4855122
            ],
            [
              100.4337665,
              -0.4854074
            ],
            [
              100.4337907,
              -0.4853208
            ],
            [
              100.4340108,
              -0.4852981
            ],
            [
              100.4342257,
              -0.4851717
            ],
            [
              100.4341857,
              -0.4850913
            ],
            [
              100.4343112,
              -0.4849725
            ],
            [
              100.4342085,
              -0.4848003
            ],
            [
              100.4341647,
              -0.4846055
            ],
            [
              100.4342275,
              -0.4846189
            ],
            [
              100.4343102,
              -0.4845552
            ],
            [
              100.4343102,
              -0.4844556
            ],
            [
              100.4343577,
              -0.4843676
            ],
            [
              100.4345916,
              -0.4842699
            ],
            [
              100.434717,
              -0.4840363
            ],
            [
              100.4348634,
              -0.4839693
            ],
            [
              100.4347854,
              -0.4838487
            ],
            [
              100.4349357,
              -0.4837816
            ],
            [
              100.4348615,
              -0.4836074
            ],
            [
              100.4349318,
              -0.4835557
            ],
            [
              100.4349378,
              -0.4834729
            ],
            [
              100.4347265,
              -0.4832058
            ],
            [
              100.4346581,
              -0.482934
            ],
            [
              100.4348009,
              -0.4828662
            ],
            [
              100.4348271,
              -0.4829487
            ],
            [
              100.4349753,
              -0.4830019
            ],
            [
              100.4350629,
              -0.4831263
            ],
            [
              100.4350802,
              -0.4831083
            ],
            [
              100.4352805,
              -0.4832009
            ],
            [
              100.4353963,
              -0.4831552
            ],
            [
              100.4352292,
              -0.48279
            ],
            [
              100.4351682,
              -0.4825651
            ],
            [
              100.4350808,
              -0.4824737
            ],
            [
              100.4350863,
              -0.4821267
            ],
            [
              100.4349022,
              -0.4816928
            ],
            [
              100.4346574,
              -0.4814239
            ],
            [
              100.4342947,
              -0.4813583
            ],
            [
              100.4342222,
              -0.4808964
            ],
            [
              100.4341485,
              -0.4807943
            ],
            [
              100.4340499,
              -0.4807438
            ],
            [
              100.4340141,
              -0.4806424
            ],
            [
              100.4340954,
              -0.480491
            ],
            [
              100.4340938,
              -0.4803
            ],
            [
              100.4342286,
              -0.4801714
            ],
            [
              100.4341876,
              -0.4799883
            ],
            [
              100.4342775,
              -0.4798035
            ],
            [
              100.4341778,
              -0.4796618
            ],
            [
              100.4341936,
              -0.4795182
            ],
            [
              100.4341564,
              -0.4794807
            ],
            [
              100.4340538,
              -0.4794779
            ],
            [
              100.4340563,
              -0.4794259
            ],
            [
              100.4342231,
              -0.4792932
            ],
            [
              100.4343777,
              -0.4793273
            ],
            [
              100.4345733,
              -0.4793141
            ],
            [
              100.4347155,
              -0.4791665
            ],
            [
              100.435006,
              -0.4790395
            ],
            [
              100.435025,
              -0.4788923
            ],
            [
              100.4346777,
              -0.4786363
            ],
            [
              100.4345405,
              -0.4784072
            ],
            [
              100.4346644,
              -0.478166
            ],
            [
              100.4347157,
              -0.4779736
            ],
            [
              100.4348202,
              -0.4778452
            ],
            [
              100.4348487,
              -0.4775474
            ],
            [
              100.4349941,
              -0.4774744
            ],
            [
              100.4350367,
              -0.477311
            ],
            [
              100.4348068,
              -0.476953
            ],
            [
              100.4349101,
              -0.4767524
            ],
            [
              100.4347033,
              -0.4766405
            ],
            [
              100.4345609,
              -0.4766909
            ],
            [
              100.43443,
              -0.4765775
            ],
            [
              100.4342669,
              -0.4765447
            ],
            [
              100.4341567,
              -0.4764097
            ],
            [
              100.4341755,
              -0.4760193
            ],
            [
              100.4339855,
              -0.4759265
            ],
            [
              100.4338966,
              -0.4757977
            ],
            [
              100.4338818,
              -0.4754976
            ],
            [
              100.4337415,
              -0.4754545
            ],
            [
              100.4336795,
              -0.4753943
            ],
            [
              100.4336708,
              -0.4751781
            ],
            [
              100.4335903,
              -0.4749351
            ],
            [
              100.4335918,
              -0.4748401
            ],
            [
              100.4336788,
              -0.4746062
            ],
            [
              100.4336194,
              -0.4744871
            ],
            [
              100.4336457,
              -0.4744178
            ],
            [
              100.4338195,
              -0.4743604
            ],
            [
              100.4338188,
              -0.474136
            ],
            [
              100.4337139,
              -0.4739951
            ],
            [
              100.4334759,
              -0.4738448
            ],
            [
              100.4333623,
              -0.4737064
            ],
            [
              100.4333287,
              -0.4734407
            ],
            [
              100.4332343,
              -0.4732723
            ],
            [
              100.4333026,
              -0.4730496
            ],
            [
              100.4332599,
              -0.4729658
            ],
            [
              100.4333513,
              -0.4728195
            ],
            [
              100.4332708,
              -0.4727387
            ],
            [
              100.4335066,
              -0.4726817
            ],
            [
              100.4337134,
              -0.4727236
            ],
            [
              100.4337561,
              -0.472629
            ],
            [
              100.4340105,
              -0.4725823
            ],
            [
              100.4341115,
              -0.4724974
            ],
            [
              100.4341745,
              -0.4725297
            ],
            [
              100.4342791,
              -0.4725117
            ],
            [
              100.4345952,
              -0.4726097
            ],
            [
              100.4347664,
              -0.4725499
            ],
            [
              100.4350694,
              -0.4723045
            ],
            [
              100.4351134,
              -0.4724134
            ],
            [
              100.4354034,
              -0.4723655
            ],
            [
              100.4354641,
              -0.4724326
            ],
            [
              100.4357399,
              -0.4724127
            ],
            [
              100.4357875,
              -0.4724569
            ],
            [
              100.4359205,
              -0.4721279
            ],
            [
              100.4359502,
              -0.4719412
            ],
            [
              100.4360096,
              -0.4719256
            ],
            [
              100.4360167,
              -0.4717641
            ],
            [
              100.4362163,
              -0.4714051
            ],
            [
              100.436328,
              -0.4713381
            ],
            [
              100.4363647,
              -0.4712698
            ],
            [
              100.436847,
              -0.471175
            ],
            [
              100.4369324,
              -0.4710372
            ],
            [
              100.4370633,
              -0.4710147
            ],
            [
              100.437051,
              -0.4708883
            ],
            [
              100.4371544,
              -0.4708079
            ],
            [
              100.4371671,
              -0.4707044
            ],
            [
              100.4373746,
              -0.4704371
            ],
            [
              100.4373534,
              -0.4703335
            ],
            [
              100.437406,
              -0.470191
            ],
            [
              100.4372664,
              -0.4699298
            ],
            [
              100.4372072,
              -0.4693284
            ],
            [
              100.4372887,
              -0.4690396
            ],
            [
              100.4372563,
              -0.4689524
            ],
            [
              100.4372998,
              -0.4687971
            ],
            [
              100.4372728,
              -0.4686761
            ],
            [
              100.4371889,
              -0.4686987
            ],
            [
              100.4371625,
              -0.4686584
            ],
            [
              100.4373926,
              -0.4680795
            ],
            [
              100.4374034,
              -0.4679811
            ],
            [
              100.4373441,
              -0.4678467
            ],
            [
              100.4373385,
              -0.4676628
            ],
            [
              100.4374329,
              -0.4673786
            ],
            [
              100.4374976,
              -0.4669204
            ],
            [
              100.4374573,
              -0.4665522
            ],
            [
              100.437378,
              -0.4663701
            ],
            [
              100.4373019,
              -0.4659984
            ],
            [
              100.4371685,
              -0.4658793
            ],
            [
              100.4371575,
              -0.465947
            ],
            [
              100.4370676,
              -0.4660528
            ],
            [
              100.4369586,
              -0.4661377
            ],
            [
              100.4367154,
              -0.4663566
            ],
            [
              100.436645,
              -0.4665732
            ],
            [
              100.4365661,
              -0.4666269
            ],
            [
              100.4363787,
              -0.4666173
            ],
            [
              100.4361111,
              -0.4669341
            ],
            [
              100.4359177,
              -0.4670137
            ],
            [
              100.4358031,
              -0.4670207
            ],
            [
              100.4356815,
              -0.4669801
            ],
            [
              100.4354961,
              -0.4670218
            ],
            [
              100.4354722,
              -0.4669549
            ],
            [
              100.4355233,
              -0.4666954
            ],
            [
              100.4354728,
              -0.4665461
            ],
            [
              100.4354843,
              -0.4664424
            ],
            [
              100.4353722,
              -0.466276
            ],
            [
              100.4353231,
              -0.4660494
            ],
            [
              100.4352296,
              -0.4658705
            ],
            [
              100.4350471,
              -0.4657753
            ],
            [
              100.4349909,
              -0.4658053
            ],
            [
              100.4349368,
              -0.4659159
            ],
            [
              100.4348298,
              -0.4659015
            ],
            [
              100.4347086,
              -0.4659877
            ],
            [
              100.4346458,
              -0.4659174
            ],
            [
              100.434583,
              -0.4659131
            ],
            [
              100.4346101,
              -0.4657106
            ],
            [
              100.4345288,
              -0.4656891
            ],
            [
              100.4344033,
              -0.4657437
            ],
            [
              100.4342664,
              -0.4657451
            ],
            [
              100.4342093,
              -0.4656504
            ],
            [
              100.4338285,
              -0.4654564
            ],
            [
              100.4338443,
              -0.4653423
            ],
            [
              100.4340513,
              -0.4651138
            ],
            [
              100.4340422,
              -0.4650174
            ],
            [
              100.4335789,
              -0.4644623
            ],
            [
              100.4335346,
              -0.464327
            ],
            [
              100.4336254,
              -0.4640668
            ],
            [
              100.4334581,
              -0.4638935
            ],
            [
              100.4334198,
              -0.4637788
            ],
            [
              100.4332424,
              -0.4637666
            ],
            [
              100.433202,
              -0.4637247
            ],
            [
              100.4330546,
              -0.4636984
            ],
            [
              100.432994,
              -0.4636302
            ],
            [
              100.4330201,
              -0.4634926
            ],
            [
              100.4329939,
              -0.4634125
            ],
            [
              100.4327707,
              -0.4632608
            ],
            [
              100.432725,
              -0.4631344
            ],
            [
              100.4326356,
              -0.4630234
            ],
            [
              100.4326789,
              -0.4628974
            ],
            [
              100.4326142,
              -0.4627874
            ],
            [
              100.4325818,
              -0.4626017
            ],
            [
              100.4324962,
              -0.4625471
            ],
            [
              100.4324468,
              -0.4625759
            ],
            [
              100.4323118,
              -0.4625568
            ],
            [
              100.4320848,
              -0.4628182
            ],
            [
              100.4314285,
              -0.4623327
            ],
            [
              100.4305153,
              -0.4622992
            ],
            [
              100.4302111,
              -0.4618368
            ],
            [
              100.430135,
              -0.4616511
            ],
            [
              100.4301474,
              -0.4615803
            ],
            [
              100.4299868,
              -0.4614915
            ],
            [
              100.4299172,
              -0.4612937
            ],
            [
              100.4297472,
              -0.4610548
            ],
            [
              100.4298221,
              -0.4607239
            ],
            [
              100.4296733,
              -0.460582
            ],
            [
              100.4295675,
              -0.4603957
            ],
            [
              100.4293928,
              -0.4602687
            ],
            [
              100.4290258,
              -0.4601848
            ],
            [
              100.4288732,
              -0.460187
            ],
            [
              100.4285761,
              -0.4600622
            ],
            [
              100.4282909,
              -0.4600565
            ],
            [
              100.4281483,
              -0.4599833
            ],
            [
              100.4279485,
              -0.4598096
            ],
            [
              100.4279186,
              -0.4597335
            ],
            [
              100.427657,
              -0.4596242
            ],
            [
              100.4274597,
              -0.459696
            ],
            [
              100.427279,
              -0.4596721
            ],
            [
              100.4269439,
              -0.4597129
            ],
            [
              100.426654,
              -0.4598059
            ],
            [
              100.4264925,
              -0.4596675
            ],
            [
              100.4263191,
              -0.4596378
            ],
            [
              100.4252739,
              -0.4598114
            ],
            [
              100.4252657,
              -0.4596798
            ],
            [
              100.4250936,
              -0.4593064
            ],
            [
              100.4251315,
              -0.4589462
            ],
            [
              100.4252761,
              -0.4587463
            ],
            [
              100.4252083,
              -0.4581925
            ],
            [
              100.4253283,
              -0.4578727
            ],
            [
              100.425258,
              -0.4577357
            ],
            [
              100.4251288,
              -0.4576171
            ],
            [
              100.425151,
              -0.4575247
            ],
            [
              100.4252779,
              -0.4573743
            ],
            [
              100.4253251,
              -0.4572058
            ],
            [
              100.4253001,
              -0.4569132
            ],
            [
              100.4250977,
              -0.4566839
            ],
            [
              100.4253484,
              -0.4564041
            ],
            [
              100.425233,
              -0.4560908
            ],
            [
              100.4251814,
              -0.4560515
            ],
            [
              100.4248734,
              -0.4559635
            ],
            [
              100.4245938,
              -0.4559559
            ],
            [
              100.4245348,
              -0.4558966
            ],
            [
              100.4243256,
              -0.4558124
            ],
            [
              100.4242648,
              -0.4558603
            ],
            [
              100.424183,
              -0.4557167
            ],
            [
              100.4239358,
              -0.4556497
            ],
            [
              100.423797,
              -0.4557313
            ],
            [
              100.4237219,
              -0.4559046
            ],
            [
              100.4236799,
              -0.456575
            ],
            [
              100.4236324,
              -0.4566726
            ],
            [
              100.4235421,
              -0.4566815
            ],
            [
              100.4233794,
              -0.4565692
            ],
            [
              100.4232682,
              -0.4563324
            ],
            [
              100.4232811,
              -0.4561814
            ],
            [
              100.4232383,
              -0.4561192
            ],
            [
              100.4232335,
              -0.4560235
            ],
            [
              100.4230243,
              -0.4557651
            ],
            [
              100.4229435,
              -0.4557842
            ],
            [
              100.4227081,
              -0.4556359
            ],
            [
              100.4222125,
              -0.455636
            ],
            [
              100.4219243,
              -0.4555374
            ],
            [
              100.4214575,
              -0.4554752
            ],
            [
              100.4214161,
              -0.455346
            ],
            [
              100.4211294,
              -0.4553432
            ],
            [
              100.4209685,
              -0.4552973
            ],
            [
              100.4210211,
              -0.4547965
            ],
            [
              100.4210876,
              -0.4546989
            ],
            [
              100.4210732,
              -0.4545823
            ],
            [
              100.420705,
              -0.454032
            ],
            [
              100.4202608,
              -0.4538349
            ],
            [
              100.4201516,
              -0.4538608
            ],
            [
              100.419936,
              -0.4540035
            ],
            [
              100.4199057,
              -0.4541064
            ],
            [
              100.4202317,
              -0.4547454
            ],
            [
              100.420216,
              -0.4548459
            ],
            [
              100.4200766,
              -0.4550866
            ],
            [
              100.4199373,
              -0.4551759
            ],
            [
              100.4196264,
              -0.4551875
            ],
            [
              100.4192312,
              -0.4554001
            ],
            [
              100.4189991,
              -0.4554533
            ],
            [
              100.4184682,
              -0.455698
            ],
            [
              100.4183994,
              -0.4556298
            ],
            [
              100.4183636,
              -0.4554599
            ],
            [
              100.4183925,
              -0.4553988
            ],
            [
              100.4185387,
              -0.4553346
            ],
            [
              100.4185473,
              -0.4552804
            ],
            [
              100.4183469,
              -0.4549867
            ],
            [
              100.4179963,
              -0.4548582
            ],
            [
              100.4173098,
              -0.4544156
            ],
            [
              100.4172325,
              -0.4540866
            ],
            [
              100.4173657,
              -0.4537382
            ],
            [
              100.4173678,
              -0.4534063
            ],
            [
              100.4174105,
              -0.4532432
            ],
            [
              100.4172579,
              -0.4529183
            ],
            [
              100.4172199,
              -0.4527234
            ],
            [
              100.416957,
              -0.4528852
            ],
            [
              100.4169519,
              -0.4531436
            ],
            [
              100.4168848,
              -0.4532713
            ],
            [
              100.4168191,
              -0.4533009
            ],
            [
              100.4167719,
              -0.4532059
            ],
            [
              100.4166567,
              -0.4531147
            ],
            [
              100.4166353,
              -0.4529511
            ],
            [
              100.4161032,
              -0.4527013
            ],
            [
              100.4160234,
              -0.4525937
            ],
            [
              100.4158814,
              -0.4525894
            ],
            [
              100.4156468,
              -0.4524706
            ],
            [
              100.4155721,
              -0.4525741
            ],
            [
              100.4146817,
              -0.4521081
            ],
            [
              100.4145638,
              -0.4521905
            ],
            [
              100.4143318,
              -0.4521139
            ],
            [
              100.4141941,
              -0.4521091
            ],
            [
              100.4140768,
              -0.4522355
            ],
            [
              100.4139629,
              -0.4522019
            ],
            [
              100.4137971,
              -0.4523168
            ],
            [
              100.4135475,
              -0.4522694
            ],
            [
              100.413326,
              -0.4524274
            ],
            [
              100.4132042,
              -0.4523949
            ],
            [
              100.412957,
              -0.4521633
            ],
            [
              100.4129045,
              -0.4521667
            ],
            [
              100.4129285,
              -0.452362
            ],
            [
              100.4127963,
              -0.4525392
            ],
            [
              100.4127596,
              -0.4528105
            ],
            [
              100.4126272,
              -0.452955
            ],
            [
              100.4126548,
              -0.4530739
            ],
            [
              100.4128257,
              -0.4533783
            ],
            [
              100.4125588,
              -0.4535685
            ],
            [
              100.412518,
              -0.4536427
            ],
            [
              100.4125235,
              -0.4537144
            ],
            [
              100.4126248,
              -0.4538069
            ],
            [
              100.412587,
              -0.4539288
            ],
            [
              100.4126242,
              -0.4540102
            ],
            [
              100.4124743,
              -0.4540144
            ],
            [
              100.4122328,
              -0.4541255
            ],
            [
              100.4119761,
              -0.4540375
            ],
            [
              100.4117859,
              -0.4538748
            ],
            [
              100.4116699,
              -0.4539341
            ],
            [
              100.4116338,
              -0.4540624
            ],
            [
              100.4116756,
              -0.4541792
            ],
            [
              100.4116301,
              -0.454631
            ],
            [
              100.4114229,
              -0.4547167
            ],
            [
              100.4113843,
              -0.4548513
            ],
            [
              100.4111965,
              -0.4550735
            ],
            [
              100.4111682,
              -0.4551568
            ],
            [
              100.411242,
              -0.4556336
            ],
            [
              100.411176,
              -0.4558199
            ],
            [
              100.4110236,
              -0.4559319
            ],
            [
              100.4107756,
              -0.4562559
            ],
            [
              100.4105648,
              -0.4564048
            ],
            [
              100.4105198,
              -0.4565021
            ],
            [
              100.4104336,
              -0.4564812
            ],
            [
              100.4103769,
              -0.4565112
            ],
            [
              100.4104095,
              -0.4568048
            ],
            [
              100.410318,
              -0.4570888
            ],
            [
              100.4103123,
              -0.4575427
            ],
            [
              100.4101182,
              -0.458024
            ],
            [
              100.4102427,
              -0.458369
            ],
            [
              100.4101721,
              -0.4585482
            ],
            [
              100.4101425,
              -0.4588427
            ],
            [
              100.4098679,
              -0.4589671
            ],
            [
              100.4098361,
              -0.4590217
            ],
            [
              100.40985,
              -0.4591277
            ],
            [
              100.4099496,
              -0.4591609
            ],
            [
              100.4100482,
              -0.4592585
            ],
            [
              100.4101205,
              -0.4596803
            ],
            [
              100.410403,
              -0.4600965
            ],
            [
              100.4105062,
              -0.4604088
            ],
            [
              100.4104979,
              -0.4605563
            ],
            [
              100.4104189,
              -0.4606223
            ],
            [
              100.4102331,
              -0.4606304
            ],
            [
              100.409732,
              -0.4607903
            ],
            [
              100.4096215,
              -0.4607402
            ],
            [
              100.4093529,
              -0.4607193
            ],
            [
              100.4094409,
              -0.460628
            ],
            [
              100.4094178,
              -0.4605336
            ],
            [
              100.4088271,
              -0.4601325
            ],
            [
              100.4087195,
              -0.459969
            ],
            [
              100.4088241,
              -0.4597872
            ],
            [
              100.4088445,
              -0.4596686
            ],
            [
              100.4088028,
              -0.4595315
            ],
            [
              100.4086618,
              -0.4594123
            ],
            [
              100.4086527,
              -0.4591633
            ],
            [
              100.408885,
              -0.4588171
            ],
            [
              100.4089664,
              -0.458589
            ],
            [
              100.4089421,
              -0.4584598
            ],
            [
              100.4087061,
              -0.458277
            ],
            [
              100.4083449,
              -0.4582875
            ],
            [
              100.408263,
              -0.4582408
            ],
            [
              100.4081994,
              -0.4579473
            ],
            [
              100.4080552,
              -0.4577659
            ],
            [
              100.4081657,
              -0.4575202
            ],
            [
              100.4081254,
              -0.4573408
            ],
            [
              100.4080157,
              -0.4573128
            ],
            [
              100.4076743,
              -0.4573987
            ],
            [
              100.4075492,
              -0.4574631
            ],
            [
              100.4074679,
              -0.4574296
            ],
            [
              100.4073709,
              -0.457322
            ],
            [
              100.4074062,
              -0.4570486
            ],
            [
              100.4075856,
              -0.4567694
            ],
            [
              100.4073795,
              -0.4565176
            ],
            [
              100.407362,
              -0.45642
            ],
            [
              100.4075227,
              -0.4563333
            ],
            [
              100.4078464,
              -0.4563204
            ],
            [
              100.4079126,
              -0.4562732
            ],
            [
              100.4079251,
              -0.4561983
            ],
            [
              100.4077742,
              -0.4558124
            ],
            [
              100.407672,
              -0.4556468
            ],
            [
              100.4075205,
              -0.4554817
            ],
            [
              100.4072263,
              -0.4553534
            ],
            [
              100.407112,
              -0.455102
            ],
            [
              100.4071359,
              -0.4549551
            ],
            [
              100.4072468,
              -0.4548125
            ],
            [
              100.4072079,
              -0.454527
            ],
            [
              100.4072582,
              -0.4543649
            ],
            [
              100.40773,
              -0.4540315
            ],
            [
              100.4075709,
              -0.4536671
            ],
            [
              100.4074887,
              -0.4535671
            ],
            [
              100.4073798,
              -0.4534927
            ],
            [
              100.4071637,
              -0.4534244
            ],
            [
              100.4061222,
              -0.453271
            ],
            [
              100.4053692,
              -0.4531025
            ],
            [
              100.4048908,
              -0.4530579
            ],
            [
              100.4048681,
              -0.4533261
            ],
            [
              100.4048145,
              -0.4534173
            ],
            [
              100.4047099,
              -0.4535568
            ],
            [
              100.4046804,
              -0.4537016
            ],
            [
              100.4046026,
              -0.4538357
            ],
            [
              100.4046026,
              -0.4539886
            ],
            [
              100.4046831,
              -0.4541147
            ],
            [
              100.4046428,
              -0.4542381
            ],
            [
              100.404557,
              -0.4543293
            ],
            [
              100.4044497,
              -0.4543829
            ],
            [
              100.4043505,
              -0.4545331
            ],
            [
              100.4044014,
              -0.454694
            ],
            [
              100.4044336,
              -0.4547745
            ],
            [
              100.404498,
              -0.4549005
            ],
            [
              100.4044792,
              -0.4550454
            ],
            [
              100.4044202,
              -0.4551554
            ],
            [
              100.404152,
              -0.4553753
            ],
            [
              100.4038358,
              -0.4555499
            ],
            [
              100.40378,
              -0.4556621
            ],
            [
              100.4038015,
              -0.4557268
            ],
            [
              100.4037972,
              -0.4557959
            ],
            [
              100.4036258,
              -0.4558175
            ],
            [
              100.40348,
              -0.4558305
            ],
            [
              100.4032486,
              -0.4559298
            ],
            [
              100.4031028,
              -0.4560722
            ],
            [
              100.40309,
              -0.4561585
            ],
            [
              100.40309,
              -0.4562017
            ],
            [
              100.4030386,
              -0.456288
            ],
            [
              100.4030086,
              -0.4563743
            ],
            [
              100.4028971,
              -0.4564779
            ],
            [
              100.40285,
              -0.456534
            ],
            [
              100.40282,
              -0.4566505
            ],
            [
              100.4026959,
              -0.4568966
            ],
            [
              100.4026531,
              -0.4569197
            ],
            [
              100.402636,
              -0.4569458
            ],
            [
              100.4026397,
              -0.4569743
            ],
            [
              100.402686,
              -0.457113
            ],
            [
              100.402688,
              -0.4571308
            ],
            [
              100.402688,
              -0.4571513
            ],
            [
              100.4026837,
              -0.4571666
            ],
            [
              100.4026618,
              -0.4572149
            ],
            [
              100.4026425,
              -0.4572399
            ],
            [
              100.4026005,
              -0.4572713
            ],
            [
              100.4024607,
              -0.4573399
            ],
            [
              100.4023861,
              -0.4573878
            ],
            [
              100.4023452,
              -0.4574315
            ],
            [
              100.4023025,
              -0.4574662
            ],
            [
              100.4022539,
              -0.4575218
            ],
            [
              100.4021157,
              -0.4578103
            ],
            [
              100.4020989,
              -0.4578466
            ],
            [
              100.4020793,
              -0.4578829
            ],
            [
              100.402067,
              -0.4579029
            ],
            [
              100.4020548,
              -0.4579229
            ],
            [
              100.402044,
              -0.457936
            ],
            [
              100.4020089,
              -0.4579865
            ],
            [
              100.402006,
              -0.4579914
            ],
            [
              100.4019933,
              -0.4580089
            ],
            [
              100.4019628,
              -0.4580555
            ],
            [
              100.4019643,
              -0.458123
            ],
            [
              100.401974,
              -0.4581905
            ],
            [
              100.4019786,
              -0.4582155
            ],
            [
              100.401979,
              -0.4582517
            ],
            [
              100.4019765,
              -0.4582715
            ],
            [
              100.4019749,
              -0.4582925
            ],
            [
              100.4019736,
              -0.458317
            ],
            [
              100.4019712,
              -0.4583333
            ],
            [
              100.4019712,
              -0.4583334
            ],
            [
              100.4019615,
              -0.45835
            ],
            [
              100.4019519,
              -0.4583666
            ],
            [
              100.4019371,
              -0.4583832
            ],
            [
              100.4019275,
              -0.4583915
            ],
            [
              100.4019197,
              -0.4583995
            ],
            [
              100.4018692,
              -0.4584536
            ],
            [
              100.4018578,
              -0.4584659
            ],
            [
              100.4018321,
              -0.4584842
            ],
            [
              100.4017744,
              -0.4585323
            ],
            [
              100.4017298,
              -0.458585
            ],
            [
              100.4017249,
              -0.4586119
            ],
            [
              100.4017472,
              -0.4586449
            ],
            [
              100.4017603,
              -0.458663
            ],
            [
              100.4017835,
              -0.4586949
            ],
            [
              100.4018112,
              -0.4587319
            ],
            [
              100.4018254,
              -0.4587504
            ],
            [
              100.4018307,
              -0.4587662
            ],
            [
              100.4018295,
              -0.4587789
            ],
            [
              100.4018137,
              -0.4588812
            ],
            [
              100.4018055,
              -0.4589346
            ],
            [
              100.4017835,
              -0.4590775
            ],
            [
              100.4017699,
              -0.4591662
            ],
            [
              100.401766,
              -0.4591917
            ],
            [
              100.401755,
              -0.4592646
            ],
            [
              100.401737,
              -0.4593375
            ],
            [
              100.4017196,
              -0.459366
            ],
            [
              100.401711,
              -0.4593819
            ],
            [
              100.4017042,
              -0.4593932
            ],
            [
              100.4016883,
              -0.4594111
            ],
            [
              100.4016204,
              -0.4594609
            ],
            [
              100.4015656,
              -0.4595067
            ],
            [
              100.4015364,
              -0.459539
            ],
            [
              100.401529,
              -0.4595672
            ],
            [
              100.401537,
              -0.4596041
            ],
            [
              100.4015575,
              -0.4596356
            ],
            [
              100.4015893,
              -0.4596686
            ],
            [
              100.4016038,
              -0.4596836
            ],
            [
              100.4016097,
              -0.4596897
            ],
            [
              100.40163,
              -0.4597108
            ],
            [
              100.4016506,
              -0.459738
            ],
            [
              100.4016672,
              -0.4597722
            ],
            [
              100.4016733,
              -0.4597914
            ],
            [
              100.4016774,
              -0.4598048
            ],
            [
              100.4016979,
              -0.4598717
            ],
            [
              100.4017065,
              -0.4598997
            ],
            [
              100.4017129,
              -0.4599316
            ],
            [
              100.4017192,
              -0.4599634
            ],
            [
              100.4017209,
              -0.4599823
            ],
            [
              100.4017214,
              -0.4600003
            ],
            [
              100.4017177,
              -0.4600366
            ],
            [
              100.4016985,
              -0.4601024
            ],
            [
              100.4016793,
              -0.4601682
            ],
            [
              100.4016725,
              -0.4601777
            ],
            [
              100.4016656,
              -0.4601847
            ],
            [
              100.4016574,
              -0.4601903
            ],
            [
              100.4016486,
              -0.4601958
            ],
            [
              100.4015934,
              -0.4602301
            ],
            [
              100.4015915,
              -0.4602312
            ],
            [
              100.4015642,
              -0.460248
            ],
            [
              100.4015407,
              -0.4602992
            ],
            [
              100.401535,
              -0.4603773
            ],
            [
              100.4015591,
              -0.4604666
            ],
            [
              100.4015779,
              -0.4605258
            ],
            [
              100.4015914,
              -0.4605606
            ],
            [
              100.4016052,
              -0.4605958
            ],
            [
              100.4016139,
              -0.4606164
            ],
            [
              100.4016181,
              -0.4606293
            ],
            [
              100.4016207,
              -0.4606412
            ],
            [
              100.401621,
              -0.460656
            ],
            [
              100.4016194,
              -0.4606694
            ],
            [
              100.4016148,
              -0.4606834
            ],
            [
              100.4015878,
              -0.460758
            ],
            [
              100.4015339,
              -0.4608735
            ],
            [
              100.4015228,
              -0.4608945
            ],
            [
              100.4015173,
              -0.4609016
            ],
            [
              100.4015082,
              -0.4609078
            ],
            [
              100.4014492,
              -0.4609517
            ],
            [
              100.4013754,
              -0.46103
            ],
            [
              100.4013615,
              -0.4610478
            ],
            [
              100.4013111,
              -0.4611177
            ],
            [
              100.4012864,
              -0.461177
            ],
            [
              100.4012759,
              -0.4612383
            ],
            [
              100.4012626,
              -0.4613417
            ],
            [
              100.4012617,
              -0.4613933
            ],
            [
              100.4012617,
              -0.4614249
            ],
            [
              100.4012541,
              -0.461446
            ],
            [
              100.4012398,
              -0.4614814
            ],
            [
              100.4012018,
              -0.4615609
            ],
            [
              100.4011562,
              -0.4616193
            ],
            [
              100.4010916,
              -0.461714
            ],
            [
              100.4010184,
              -0.461804
            ],
            [
              100.401015,
              -0.4618089
            ],
            [
              100.4010085,
              -0.4618216
            ],
            [
              100.4009903,
              -0.4618445
            ],
            [
              100.4009832,
              -0.4618548
            ],
            [
              100.4009365,
              -0.4619153
            ],
            [
              100.4011309,
              -0.4620058
            ],
            [
              100.4016481,
              -0.4610091
            ],
            [
              100.4019528,
              -0.4611652
            ],
            [
              100.4019908,
              -0.4611531
            ],
            [
              100.4020146,
              -0.4611555
            ],
            [
              100.4020883,
              -0.461189
            ],
            [
              100.4022975,
              -0.4613038
            ],
            [
              100.4027873,
              -0.4615739
            ],
            [
              100.4028667,
              -0.4616177
            ],
            [
              100.4029486,
              -0.4616676
            ],
            [
              100.4030338,
              -0.4617352
            ],
            [
              100.4030663,
              -0.4617609
            ],
            [
              100.4031614,
              -0.4618435
            ],
            [
              100.4032672,
              -0.4619356
            ],
            [
              100.4034619,
              -0.4620833
            ],
            [
              100.4037041,
              -0.4622013
            ],
            [
              100.4037472,
              -0.4622223
            ],
            [
              100.403784,
              -0.4622402
            ],
            [
              100.403818,
              -0.4622568
            ],
            [
              100.4038482,
              -0.4622715
            ],
            [
              100.4039335,
              -0.4623131
            ],
            [
              100.403982,
              -0.4623367
            ],
            [
              100.4039831,
              -0.4623368
            ],
            [
              100.404001,
              -0.4623387
            ],
            [
              100.4042272,
              -0.4623622
            ],
            [
              100.4042543,
              -0.462365
            ],
            [
              100.4043128,
              -0.4623711
            ],
            [
              100.4043881,
              -0.4623789
            ],
            [
              100.4044104,
              -0.4623813
            ],
            [
              100.4044533,
              -0.4623857
            ],
            [
              100.4045242,
              -0.4623968
            ],
            [
              100.4045323,
              -0.4623648
            ],
            [
              100.4045362,
              -0.4623496
            ],
            [
              100.4045373,
              -0.4623453
            ],
            [
              100.4045467,
              -0.4623082
            ],
            [
              100.4045497,
              -0.4622965
            ],
            [
              100.4045541,
              -0.4622863
            ],
            [
              100.4045604,
              -0.4622626
            ],
            [
              100.4045684,
              -0.4622531
            ],
            [
              100.4045699,
              -0.4622499
            ],
            [
              100.4046002,
              -0.4621985
            ],
            [
              100.4046031,
              -0.4621936
            ],
            [
              100.4046221,
              -0.4621673
            ],
            [
              100.4047081,
              -0.4621795
            ],
            [
              100.4047232,
              -0.4621816
            ],
            [
              100.4047553,
              -0.4621869
            ],
            [
              100.4049148,
              -0.4621947
            ],
            [
              100.404996,
              -0.4621988
            ],
            [
              100.4050358,
              -0.4622007
            ],
            [
              100.4050583,
              -0.462178
            ],
            [
              100.4050601,
              -0.4621728
            ],
            [
              100.4050797,
              -0.4621134
            ],
            [
              100.4050975,
              -0.4620224
            ],
            [
              100.4051165,
              -0.4620105
            ],
            [
              100.4051688,
              -0.4620104
            ],
            [
              100.4052818,
              -0.462042
            ],
            [
              100.4052848,
              -0.4621059
            ],
            [
              100.4052887,
              -0.4621894
            ],
            [
              100.4052914,
              -0.4622478
            ],
            [
              100.4052872,
              -0.4625144
            ],
            [
              100.4052796,
              -0.4627499
            ],
            [
              100.4052336,
              -0.4628824
            ],
            [
              100.4052264,
              -0.462903
            ],
            [
              100.405194,
              -0.4629958
            ],
            [
              100.405177,
              -0.4630447
            ],
            [
              100.4051719,
              -0.463067
            ],
            [
              100.40517,
              -0.4630754
            ],
            [
              100.4051523,
              -0.4631538
            ],
            [
              100.4051412,
              -0.4632109
            ],
            [
              100.4051352,
              -0.4632419
            ],
            [
              100.4051375,
              -0.463252
            ],
            [
              100.4051465,
              -0.4632904
            ],
            [
              100.4051483,
              -0.4632977
            ],
            [
              100.4051497,
              -0.463304
            ],
            [
              100.4051751,
              -0.4634123
            ],
            [
              100.4052011,
              -0.4634896
            ],
            [
              100.4052208,
              -0.4635482
            ],
            [
              100.4052798,
              -0.4636401
            ],
            [
              100.4052874,
              -0.4637885
            ],
            [
              100.4047942,
              -0.4637805
            ],
            [
              100.4047732,
              -0.463992
            ],
            [
              100.4047476,
              -0.4641015
            ],
            [
              100.4045791,
              -0.4644999
            ],
            [
              100.4045739,
              -0.4645945
            ],
            [
              100.4045713,
              -0.4645968
            ],
            [
              100.4045709,
              -0.4646389
            ],
            [
              100.4045694,
              -0.4647894
            ],
            [
              100.4045667,
              -0.4650583
            ],
            [
              100.4045704,
              -0.4652464
            ],
            [
              100.4045706,
              -0.465255
            ],
            [
              100.4045715,
              -0.4652993
            ],
            [
              100.4045741,
              -0.4654349
            ],
            [
              100.4045757,
              -0.4655117
            ],
            [
              100.4045779,
              -0.4656262
            ],
            [
              100.4045785,
              -0.465658
            ],
            [
              100.404579,
              -0.4656838
            ],
            [
              100.4045791,
              -0.4656852
            ],
            [
              100.4045795,
              -0.4657055
            ],
            [
              100.4045852,
              -0.4660148
            ],
            [
              100.4045874,
              -0.4661323
            ],
            [
              100.4045891,
              -0.466226
            ],
            [
              100.4045911,
              -0.466332
            ],
            [
              100.4045921,
              -0.4663888
            ],
            [
              100.4045923,
              -0.4663947
            ],
            [
              100.4046531,
              -0.4666394
            ],
            [
              100.4046642,
              -0.466684
            ],
            [
              100.4046686,
              -0.4667019
            ],
            [
              100.404678,
              -0.4667395
            ],
            [
              100.4046866,
              -0.4667742
            ],
            [
              100.4046948,
              -0.4668071
            ],
            [
              100.4047691,
              -0.4669991
            ],
            [
              100.4047728,
              -0.4670028
            ],
            [
              100.4047823,
              -0.4669951
            ],
            [
              100.4048083,
              -0.4670317
            ],
            [
              100.4048108,
              -0.4670353
            ],
            [
              100.4048574,
              -0.4670813
            ],
            [
              100.4049908,
              -0.4671898
            ],
            [
              100.4050168,
              -0.4672116
            ],
            [
              100.4050929,
              -0.4672618
            ],
            [
              100.405161,
              -0.4673067
            ],
            [
              100.40519,
              -0.4673364
            ],
            [
              100.4052214,
              -0.4673866
            ],
            [
              100.4052242,
              -0.4673957
            ],
            [
              100.4051975,
              -0.4673973
            ],
            [
              100.4051852,
              -0.467398
            ],
            [
              100.4051823,
              -0.4673984
            ],
            [
              100.4050229,
              -0.4674169
            ],
            [
              100.4050011,
              -0.4674194
            ],
            [
              100.4049516,
              -0.4674463
            ],
            [
              100.4049416,
              -0.4674517
            ],
            [
              100.4049397,
              -0.4674527
            ],
            [
              100.4049377,
              -0.4674613
            ],
            [
              100.4049366,
              -0.4674658
            ],
            [
              100.4049238,
              -0.4675209
            ],
            [
              100.4049134,
              -0.4675652
            ],
            [
              100.4049168,
              -0.4675703
            ],
            [
              100.4049185,
              -0.4675828
            ],
            [
              100.4049249,
              -0.4676322
            ],
            [
              100.4049285,
              -0.4676605
            ],
            [
              100.4049355,
              -0.4677142
            ],
            [
              100.4049506,
              -0.4678308
            ],
            [
              100.4049664,
              -0.4678411
            ],
            [
              100.4050442,
              -0.4683579
            ],
            [
              100.4050895,
              -0.4688019
            ],
            [
              100.4051157,
              -0.4689982
            ],
            [
              100.4050334,
              -0.4690155
            ],
            [
              100.4049839,
              -0.469025
            ],
            [
              100.4049439,
              -0.469044
            ],
            [
              100.4049401,
              -0.469065
            ],
            [
              100.404942,
              -0.4691373
            ],
            [
              100.4049439,
              -0.4692001
            ],
            [
              100.4049268,
              -0.4692687
            ],
            [
              100.4049097,
              -0.469301
            ],
            [
              100.4048823,
              -0.4693098
            ],
            [
              100.4047945,
              -0.4693168
            ],
            [
              100.4047526,
              -0.4693928
            ],
            [
              100.4047308,
              -0.4694324
            ],
            [
              100.4046973,
              -0.469609
            ],
            [
              100.4046778,
              -0.4696852
            ],
            [
              100.4046605,
              -0.4697528
            ],
            [
              100.4046389,
              -0.4697979
            ],
            [
              100.404631,
              -0.4698143
            ]
          ]
        ]
      },
      "id": "relation/17857413"
    }
  ]
}