{
  "type": "FeatureCollection",
  "generator": "overpass-turbo",
  "copyright": "The data included in this document is from www.openstreetmap.org. The data is made available under ODbL.",
  "timestamp": "2025-07-15T05:55:59Z",
  "features": [
    {
      "type": "Feature",
      "properties": {
        "@id": "relation/17857412",
        "admin_level": "6",
        "boundary": "administrative",
        "is_in:city": "Kota Padang Panjang",
        "is_in:province": "Sumatera Barat",
        "name": "Padang Panjang Barat",
        "name:ar": "غرب بادانق بانجانق",
        "official_name": "Kecamatan Padang Panjang Barat",
        "place": "district",
        "type": "boundary"
      },
      "geometry": {
        "type": "Polygon",
        "coordinates": [
          [
            [
              100.3883205,
              -0.4839154
            ],
            [
              100.3891362,
              -0.4837476
            ],
            [
              100.3896212,
              -0.4837044
            ],
            [
              100.389992,
              -0.4837618
            ],
            [
              100.3909489,
              -0.4840048
            ],
            [
              100.3910226,
              -0.484079
            ],
            [
              100.3912225,
              -0.4847299
            ],
            [
              100.3913532,
              -0.4848112
            ],
            [
              100.3914412,
              -0.4848088
            ],
            [
              100.3919819,
              -0.4846352
            ],
            [
              100.3921543,
              -0.4846232
            ],
            [
              100.3923326,
              -0.484665
            ],
            [
              100.3924336,
              -0.4846411
            ],
            [
              100.3926297,
              -0.4844974
            ],
            [
              100.3929861,
              -0.4838811
            ],
            [
              100.3933961,
              -0.4837435
            ],
            [
              100.3939785,
              -0.4836775
            ],
            [
              100.3948758,
              -0.4831269
            ],
            [
              100.3953809,
              -0.4833003
            ],
            [
              100.3963199,
              -0.4834856
            ],
            [
              100.397045,
              -0.4835513
            ],
            [
              100.3979936,
              -0.4834582
            ],
            [
              100.3981281,
              -0.482806
            ],
            [
              100.3986432,
              -0.4809988
            ],
            [
              100.3986479,
              -0.4809771
            ],
            [
              100.3986568,
              -0.4809334
            ],
            [
              100.3986792,
              -0.4806839
            ],
            [
              100.3987088,
              -0.4804279
            ],
            [
              100.3987622,
              -0.4801977
            ],
            [
              100.3988013,
              -0.4801578
            ],
            [
              100.3988441,
              -0.4800987
            ],
            [
              100.3988743,
              -0.4800507
            ],
            [
              100.3988779,
              -0.4800471
            ],
            [
              100.3990247,
              -0.4799006
            ],
            [
              100.3991775,
              -0.4795878
            ],
            [
              100.399227,
              -0.4794864
            ],
            [
              100.399347,
              -0.4792193
            ],
            [
              100.3993789,
              -0.4791747
            ],
            [
              100.3993949,
              -0.4791213
            ],
            [
              100.3994197,
              -0.47904
            ],
            [
              100.3994584,
              -0.4789142
            ],
            [
              100.3994685,
              -0.4788816
            ],
            [
              100.3994979,
              -0.4787875
            ],
            [
              100.3995383,
              -0.4786589
            ],
            [
              100.3995779,
              -0.4785341
            ],
            [
              100.3995802,
              -0.4785268
            ],
            [
              100.3996236,
              -0.4783902
            ],
            [
              100.3996692,
              -0.4782474
            ],
            [
              100.3997172,
              -0.4780972
            ],
            [
              100.3997248,
              -0.4780735
            ],
            [
              100.3997679,
              -0.4779381
            ],
            [
              100.3998147,
              -0.4777911
            ],
            [
              100.3998218,
              -0.4777688
            ],
            [
              100.3998793,
              -0.477588
            ],
            [
              100.3998989,
              -0.4775261
            ],
            [
              100.3999019,
              -0.4775164
            ],
            [
              100.3999259,
              -0.4774408
            ],
            [
              100.399951,
              -0.4773612
            ],
            [
              100.3999772,
              -0.4772779
            ],
            [
              100.4000046,
              -0.4771911
            ],
            [
              100.4000328,
              -0.4771011
            ],
            [
              100.4000621,
              -0.4770078
            ],
            [
              100.4000921,
              -0.4769117
            ],
            [
              100.4001229,
              -0.4768129
            ],
            [
              100.4001545,
              -0.4767116
            ],
            [
              100.4001866,
              -0.476608
            ],
            [
              100.4002193,
              -0.4765024
            ],
            [
              100.4002525,
              -0.4763949
            ],
            [
              100.4002852,
              -0.4762885
            ],
            [
              100.400286,
              -0.4762858
            ],
            [
              100.4003067,
              -0.4762184
            ],
            [
              100.4003199,
              -0.4761753
            ],
            [
              100.4003541,
              -0.4760636
            ],
            [
              100.4003884,
              -0.4759508
            ],
            [
              100.4004067,
              -0.4758904
            ],
            [
              100.4004142,
              -0.4758681
            ],
            [
              100.4004235,
              -0.4758374
            ],
            [
              100.4004579,
              -0.4757233
            ],
            [
              100.4004923,
              -0.4756089
            ],
            [
              100.4005222,
              -0.4755088
            ],
            [
              100.4005265,
              -0.4754943
            ],
            [
              100.4005435,
              -0.4754371
            ],
            [
              100.4005606,
              -0.4753798
            ],
            [
              100.4005944,
              -0.4752655
            ],
            [
              100.4006278,
              -0.4751518
            ],
            [
              100.4006607,
              -0.4750387
            ],
            [
              100.4006932,
              -0.4749266
            ],
            [
              100.4007251,
              -0.4748156
            ],
            [
              100.4007528,
              -0.4747185
            ],
            [
              100.4007808,
              -0.4746195
            ],
            [
              100.400799,
              -0.4745547
            ],
            [
              100.4008091,
              -0.4745188
            ],
            [
              100.4008377,
              -0.4744167
            ],
            [
              100.4008664,
              -0.4743134
            ],
            [
              100.4008953,
              -0.474209
            ],
            [
              100.4009242,
              -0.4741038
            ],
            [
              100.4009532,
              -0.4739979
            ],
            [
              100.4009821,
              -0.4738918
            ],
            [
              100.401011,
              -0.4737854
            ],
            [
              100.4010397,
              -0.4736792
            ],
            [
              100.4010683,
              -0.4735731
            ],
            [
              100.4010967,
              -0.4734675
            ],
            [
              100.4011225,
              -0.4733707
            ],
            [
              100.401122,
              -0.4733702
            ],
            [
              100.400325,
              -0.4725681
            ],
            [
              100.4003204,
              -0.4725497
            ],
            [
              100.4001192,
              -0.4719792
            ],
            [
              100.3999409,
              -0.471763
            ],
            [
              100.4005006,
              -0.471356
            ],
            [
              100.4010383,
              -0.4709562
            ],
            [
              100.4010213,
              -0.4709066
            ],
            [
              100.4010185,
              -0.4708982
            ],
            [
              100.4010209,
              -0.4708961
            ],
            [
              100.4010149,
              -0.470854
            ],
            [
              100.401016,
              -0.4708354
            ],
            [
              100.4010182,
              -0.4707975
            ],
            [
              100.4010187,
              -0.4707875
            ],
            [
              100.4010207,
              -0.4707776
            ],
            [
              100.4010225,
              -0.4707683
            ],
            [
              100.4010265,
              -0.4707483
            ],
            [
              100.4010263,
              -0.4707527
            ],
            [
              100.4010556,
              -0.4706042
            ],
            [
              100.4010566,
              -0.4705992
            ],
            [
              100.4010594,
              -0.470585
            ],
            [
              100.40106,
              -0.4705786
            ],
            [
              100.4010702,
              -0.4704625
            ],
            [
              100.401074,
              -0.4704192
            ],
            [
              100.4010766,
              -0.4703893
            ],
            [
              100.4010766,
              -0.4703891
            ],
            [
              100.4010704,
              -0.4703251
            ],
            [
              100.4010703,
              -0.4703239
            ],
            [
              100.401067,
              -0.4702899
            ],
            [
              100.4010686,
              -0.4702717
            ],
            [
              100.4010702,
              -0.4702524
            ],
            [
              100.4010719,
              -0.4702335
            ],
            [
              100.4010733,
              -0.470216
            ],
            [
              100.4010753,
              -0.4701929
            ],
            [
              100.4010766,
              -0.4701815
            ],
            [
              100.4010781,
              -0.4701679
            ],
            [
              100.4010793,
              -0.4701611
            ],
            [
              100.4010827,
              -0.4701416
            ],
            [
              100.4010867,
              -0.4701237
            ],
            [
              100.4010922,
              -0.4701032
            ],
            [
              100.4010989,
              -0.4700807
            ],
            [
              100.4011012,
              -0.4700739
            ],
            [
              100.4011069,
              -0.4700569
            ],
            [
              100.4011158,
              -0.4700326
            ],
            [
              100.4011221,
              -0.4700166
            ],
            [
              100.4011295,
              -0.4699991
            ],
            [
              100.4011374,
              -0.4699807
            ],
            [
              100.401146,
              -0.4699618
            ],
            [
              100.401155,
              -0.4699426
            ],
            [
              100.4011643,
              -0.4699238
            ],
            [
              100.4011735,
              -0.4699056
            ],
            [
              100.4011827,
              -0.4698885
            ],
            [
              100.4011838,
              -0.4698866
            ],
            [
              100.4011936,
              -0.4698694
            ],
            [
              100.4011964,
              -0.4698647
            ],
            [
              100.4012039,
              -0.4698523
            ],
            [
              100.4012052,
              -0.4698502
            ],
            [
              100.4012172,
              -0.469831
            ],
            [
              100.401219,
              -0.4698282
            ],
            [
              100.4012293,
              -0.4698125
            ],
            [
              100.4012411,
              -0.4697948
            ],
            [
              100.4012465,
              -0.4697869
            ],
            [
              100.4012713,
              -0.469757
            ],
            [
              100.401272,
              -0.4697507
            ],
            [
              100.4012753,
              -0.4697461
            ],
            [
              100.4012882,
              -0.4697288
            ],
            [
              100.4013009,
              -0.4697127
            ],
            [
              100.4013131,
              -0.4696979
            ],
            [
              100.4013205,
              -0.4696896
            ],
            [
              100.401325,
              -0.4696846
            ],
            [
              100.4013373,
              -0.4696718
            ],
            [
              100.4013496,
              -0.4696599
            ],
            [
              100.4013507,
              -0.4696588
            ],
            [
              100.4013648,
              -0.469646
            ],
            [
              100.4013768,
              -0.4696356
            ],
            [
              100.4014752,
              -0.4695676
            ],
            [
              100.4014776,
              -0.4695659
            ],
            [
              100.401469,
              -0.4693324
            ],
            [
              100.4013195,
              -0.4693201
            ],
            [
              100.4013255,
              -0.469266
            ],
            [
              100.4013154,
              -0.4692634
            ],
            [
              100.4013212,
              -0.4692252
            ],
            [
              100.401264,
              -0.4692078
            ],
            [
              100.4013179,
              -0.4690447
            ],
            [
              100.4013698,
              -0.4688874
            ],
            [
              100.4013823,
              -0.4688921
            ],
            [
              100.4022456,
              -0.4691476
            ],
            [
              100.4025915,
              -0.46925
            ],
            [
              100.4027282,
              -0.4692904
            ],
            [
              100.4031137,
              -0.4694018
            ],
            [
              100.4042592,
              -0.4697427
            ],
            [
              100.40428,
              -0.4697488
            ],
            [
              100.4043634,
              -0.4697732
            ],
            [
              100.404631,
              -0.4698143
            ],
            [
              100.4046389,
              -0.4697979
            ],
            [
              100.4046605,
              -0.4697528
            ],
            [
              100.4046778,
              -0.4696852
            ],
            [
              100.4046973,
              -0.469609
            ],
            [
              100.4047308,
              -0.4694324
            ],
            [
              100.4047526,
              -0.4693928
            ],
            [
              100.4047945,
              -0.4693168
            ],
            [
              100.4048823,
              -0.4693098
            ],
            [
              100.4049097,
              -0.469301
            ],
            [
              100.4049268,
              -0.4692687
            ],
            [
              100.4049439,
              -0.4692001
            ],
            [
              100.404942,
              -0.4691373
            ],
            [
              100.4049401,
              -0.469065
            ],
            [
              100.4049439,
              -0.469044
            ],
            [
              100.4049839,
              -0.469025
            ],
            [
              100.4050334,
              -0.4690155
            ],
            [
              100.4051157,
              -0.4689982
            ],
            [
              100.4050895,
              -0.4688019
            ],
            [
              100.4050442,
              -0.4683579
            ],
            [
              100.4049664,
              -0.4678411
            ],
            [
              100.4049506,
              -0.4678308
            ],
            [
              100.4049355,
              -0.4677142
            ],
            [
              100.4049285,
              -0.4676605
            ],
            [
              100.4049249,
              -0.4676322
            ],
            [
              100.4049185,
              -0.4675828
            ],
            [
              100.4049168,
              -0.4675703
            ],
            [
              100.4049134,
              -0.4675652
            ],
            [
              100.4049238,
              -0.4675209
            ],
            [
              100.4049366,
              -0.4674658
            ],
            [
              100.4049377,
              -0.4674613
            ],
            [
              100.4049397,
              -0.4674527
            ],
            [
              100.4049416,
              -0.4674517
            ],
            [
              100.4049516,
              -0.4674463
            ],
            [
              100.4050011,
              -0.4674194
            ],
            [
              100.4050229,
              -0.4674169
            ],
            [
              100.4051823,
              -0.4673984
            ],
            [
              100.4051852,
              -0.467398
            ],
            [
              100.4051975,
              -0.4673973
            ],
            [
              100.4052242,
              -0.4673957
            ],
            [
              100.4052214,
              -0.4673866
            ],
            [
              100.40519,
              -0.4673364
            ],
            [
              100.405161,
              -0.4673067
            ],
            [
              100.4050929,
              -0.4672618
            ],
            [
              100.4050168,
              -0.4672116
            ],
            [
              100.4049908,
              -0.4671898
            ],
            [
              100.4048574,
              -0.4670813
            ],
            [
              100.4048108,
              -0.4670353
            ],
            [
              100.4048083,
              -0.4670317
            ],
            [
              100.4047823,
              -0.4669951
            ],
            [
              100.4047728,
              -0.4670028
            ],
            [
              100.4047691,
              -0.4669991
            ],
            [
              100.4046948,
              -0.4668071
            ],
            [
              100.4046866,
              -0.4667742
            ],
            [
              100.404678,
              -0.4667395
            ],
            [
              100.4046686,
              -0.4667019
            ],
            [
              100.4046642,
              -0.466684
            ],
            [
              100.4046531,
              -0.4666394
            ],
            [
              100.4045923,
              -0.4663947
            ],
            [
              100.4045921,
              -0.4663888
            ],
            [
              100.4045911,
              -0.466332
            ],
            [
              100.4045891,
              -0.466226
            ],
            [
              100.4045874,
              -0.4661323
            ],
            [
              100.4045852,
              -0.4660148
            ],
            [
              100.4045795,
              -0.4657055
            ],
            [
              100.4045791,
              -0.4656852
            ],
            [
              100.404579,
              -0.4656838
            ],
            [
              100.4045785,
              -0.465658
            ],
            [
              100.4045779,
              -0.4656262
            ],
            [
              100.4045757,
              -0.4655117
            ],
            [
              100.4045741,
              -0.4654349
            ],
            [
              100.4045715,
              -0.4652993
            ],
            [
              100.4045706,
              -0.465255
            ],
            [
              100.4045704,
              -0.4652464
            ],
            [
              100.4045667,
              -0.4650583
            ],
            [
              100.4045694,
              -0.4647894
            ],
            [
              100.4045709,
              -0.4646389
            ],
            [
              100.4045713,
              -0.4645968
            ],
            [
              100.4045739,
              -0.4645945
            ],
            [
              100.4045791,
              -0.4644999
            ],
            [
              100.4047476,
              -0.4641015
            ],
            [
              100.4047732,
              -0.463992
            ],
            [
              100.4047942,
              -0.4637805
            ],
            [
              100.4052874,
              -0.4637885
            ],
            [
              100.4052798,
              -0.4636401
            ],
            [
              100.4052208,
              -0.4635482
            ],
            [
              100.4052011,
              -0.4634896
            ],
            [
              100.4051751,
              -0.4634123
            ],
            [
              100.4051497,
              -0.463304
            ],
            [
              100.4051483,
              -0.4632977
            ],
            [
              100.4051465,
              -0.4632904
            ],
            [
              100.4051375,
              -0.463252
            ],
            [
              100.4051352,
              -0.4632419
            ],
            [
              100.4051412,
              -0.4632109
            ],
            [
              100.4051523,
              -0.4631538
            ],
            [
              100.40517,
              -0.4630754
            ],
            [
              100.4051719,
              -0.463067
            ],
            [
              100.405177,
              -0.4630447
            ],
            [
              100.405194,
              -0.4629958
            ],
            [
              100.4052264,
              -0.462903
            ],
            [
              100.4052336,
              -0.4628824
            ],
            [
              100.4052796,
              -0.4627499
            ],
            [
              100.4052872,
              -0.4625144
            ],
            [
              100.4052914,
              -0.4622478
            ],
            [
              100.4052887,
              -0.4621894
            ],
            [
              100.4052848,
              -0.4621059
            ],
            [
              100.4052818,
              -0.462042
            ],
            [
              100.4051688,
              -0.4620104
            ],
            [
              100.4051165,
              -0.4620105
            ],
            [
              100.4050975,
              -0.4620224
            ],
            [
              100.4050797,
              -0.4621134
            ],
            [
              100.4050601,
              -0.4621728
            ],
            [
              100.4050583,
              -0.462178
            ],
            [
              100.4050358,
              -0.4622007
            ],
            [
              100.404996,
              -0.4621988
            ],
            [
              100.4049148,
              -0.4621947
            ],
            [
              100.4047553,
              -0.4621869
            ],
            [
              100.4047232,
              -0.4621816
            ],
            [
              100.4047081,
              -0.4621795
            ],
            [
              100.4046221,
              -0.4621673
            ],
            [
              100.4046031,
              -0.4621936
            ],
            [
              100.4046002,
              -0.4621985
            ],
            [
              100.4045699,
              -0.4622499
            ],
            [
              100.4045684,
              -0.4622531
            ],
            [
              100.4045604,
              -0.4622626
            ],
            [
              100.4045541,
              -0.4622863
            ],
            [
              100.4045497,
              -0.4622965
            ],
            [
              100.4045467,
              -0.4623082
            ],
            [
              100.4045373,
              -0.4623453
            ],
            [
              100.4045362,
              -0.4623496
            ],
            [
              100.4045323,
              -0.4623648
            ],
            [
              100.4045242,
              -0.4623968
            ],
            [
              100.4044533,
              -0.4623857
            ],
            [
              100.4044104,
              -0.4623813
            ],
            [
              100.4043881,
              -0.4623789
            ],
            [
              100.4043128,
              -0.4623711
            ],
            [
              100.4042543,
              -0.462365
            ],
            [
              100.4042272,
              -0.4623622
            ],
            [
              100.404001,
              -0.4623387
            ],
            [
              100.4039831,
              -0.4623368
            ],
            [
              100.403982,
              -0.4623367
            ],
            [
              100.4039335,
              -0.4623131
            ],
            [
              100.4038482,
              -0.4622715
            ],
            [
              100.403818,
              -0.4622568
            ],
            [
              100.403784,
              -0.4622402
            ],
            [
              100.4037472,
              -0.4622223
            ],
            [
              100.4037041,
              -0.4622013
            ],
            [
              100.4034619,
              -0.4620833
            ],
            [
              100.4032672,
              -0.4619356
            ],
            [
              100.4031614,
              -0.4618435
            ],
            [
              100.4030663,
              -0.4617609
            ],
            [
              100.4030338,
              -0.4617352
            ],
            [
              100.4029486,
              -0.4616676
            ],
            [
              100.4028667,
              -0.4616177
            ],
            [
              100.4027873,
              -0.4615739
            ],
            [
              100.4022975,
              -0.4613038
            ],
            [
              100.4020883,
              -0.461189
            ],
            [
              100.4020146,
              -0.4611555
            ],
            [
              100.4019908,
              -0.4611531
            ],
            [
              100.4019528,
              -0.4611652
            ],
            [
              100.4016481,
              -0.4610091
            ],
            [
              100.4011309,
              -0.4620058
            ],
            [
              100.4009365,
              -0.4619153
            ],
            [
              100.4009832,
              -0.4618548
            ],
            [
              100.4009903,
              -0.4618445
            ],
            [
              100.4010085,
              -0.4618216
            ],
            [
              100.401015,
              -0.4618089
            ],
            [
              100.4010184,
              -0.461804
            ],
            [
              100.4010916,
              -0.461714
            ],
            [
              100.4011562,
              -0.4616193
            ],
            [
              100.4012018,
              -0.4615609
            ],
            [
              100.4012398,
              -0.4614814
            ],
            [
              100.4012541,
              -0.461446
            ],
            [
              100.4012617,
              -0.4614249
            ],
            [
              100.4012617,
              -0.4613933
            ],
            [
              100.4012626,
              -0.4613417
            ],
            [
              100.4012759,
              -0.4612383
            ],
            [
              100.4012864,
              -0.461177
            ],
            [
              100.4013111,
              -0.4611177
            ],
            [
              100.4013615,
              -0.4610478
            ],
            [
              100.4013754,
              -0.46103
            ],
            [
              100.4014492,
              -0.4609517
            ],
            [
              100.4015082,
              -0.4609078
            ],
            [
              100.4015173,
              -0.4609016
            ],
            [
              100.4015228,
              -0.4608945
            ],
            [
              100.4015339,
              -0.4608735
            ],
            [
              100.4015878,
              -0.460758
            ],
            [
              100.4016148,
              -0.4606834
            ],
            [
              100.4016194,
              -0.4606694
            ],
            [
              100.401621,
              -0.460656
            ],
            [
              100.4016207,
              -0.4606412
            ],
            [
              100.4016181,
              -0.4606293
            ],
            [
              100.4016139,
              -0.4606164
            ],
            [
              100.4016052,
              -0.4605958
            ],
            [
              100.4015914,
              -0.4605606
            ],
            [
              100.4015779,
              -0.4605258
            ],
            [
              100.4015591,
              -0.4604666
            ],
            [
              100.401535,
              -0.4603773
            ],
            [
              100.4015407,
              -0.4602992
            ],
            [
              100.4015642,
              -0.460248
            ],
            [
              100.4015915,
              -0.4602312
            ],
            [
              100.4015934,
              -0.4602301
            ],
            [
              100.4016486,
              -0.4601958
            ],
            [
              100.4016574,
              -0.4601903
            ],
            [
              100.4016656,
              -0.4601847
            ],
            [
              100.4016725,
              -0.4601777
            ],
            [
              100.4016793,
              -0.4601682
            ],
            [
              100.4016985,
              -0.4601024
            ],
            [
              100.4017177,
              -0.4600366
            ],
            [
              100.4017214,
              -0.4600003
            ],
            [
              100.4017209,
              -0.4599823
            ],
            [
              100.4017192,
              -0.4599634
            ],
            [
              100.4017129,
              -0.4599316
            ],
            [
              100.4017065,
              -0.4598997
            ],
            [
              100.4016979,
              -0.4598717
            ],
            [
              100.4016774,
              -0.4598048
            ],
            [
              100.4016733,
              -0.4597914
            ],
            [
              100.4016672,
              -0.4597722
            ],
            [
              100.4016506,
              -0.459738
            ],
            [
              100.40163,
              -0.4597108
            ],
            [
              100.4016097,
              -0.4596897
            ],
            [
              100.4016038,
              -0.4596836
            ],
            [
              100.4015893,
              -0.4596686
            ],
            [
              100.4015575,
              -0.4596356
            ],
            [
              100.401537,
              -0.4596041
            ],
            [
              100.401529,
              -0.4595672
            ],
            [
              100.4015364,
              -0.459539
            ],
            [
              100.4015656,
              -0.4595067
            ],
            [
              100.4016204,
              -0.4594609
            ],
            [
              100.4016883,
              -0.4594111
            ],
            [
              100.4017042,
              -0.4593932
            ],
            [
              100.401711,
              -0.4593819
            ],
            [
              100.4017196,
              -0.459366
            ],
            [
              100.401737,
              -0.4593375
            ],
            [
              100.401755,
              -0.4592646
            ],
            [
              100.401766,
              -0.4591917
            ],
            [
              100.4017699,
              -0.4591662
            ],
            [
              100.4017835,
              -0.4590775
            ],
            [
              100.4018055,
              -0.4589346
            ],
            [
              100.4018137,
              -0.4588812
            ],
            [
              100.4018295,
              -0.4587789
            ],
            [
              100.4018307,
              -0.4587662
            ],
            [
              100.4018254,
              -0.4587504
            ],
            [
              100.4018112,
              -0.4587319
            ],
            [
              100.4017835,
              -0.4586949
            ],
            [
              100.4017603,
              -0.458663
            ],
            [
              100.4017472,
              -0.4586449
            ],
            [
              100.4017249,
              -0.4586119
            ],
            [
              100.4017298,
              -0.458585
            ],
            [
              100.4017744,
              -0.4585323
            ],
            [
              100.4018321,
              -0.4584842
            ],
            [
              100.4018578,
              -0.4584659
            ],
            [
              100.4018692,
              -0.4584536
            ],
            [
              100.4019197,
              -0.4583995
            ],
            [
              100.4019275,
              -0.4583915
            ],
            [
              100.4019371,
              -0.4583832
            ],
            [
              100.4019519,
              -0.4583666
            ],
            [
              100.4019615,
              -0.45835
            ],
            [
              100.4019712,
              -0.4583334
            ],
            [
              100.4019712,
              -0.4583333
            ],
            [
              100.4019736,
              -0.458317
            ],
            [
              100.4019749,
              -0.4582925
            ],
            [
              100.4019765,
              -0.4582715
            ],
            [
              100.401979,
              -0.4582517
            ],
            [
              100.4019786,
              -0.4582155
            ],
            [
              100.401974,
              -0.4581905
            ],
            [
              100.4019643,
              -0.458123
            ],
            [
              100.4019628,
              -0.4580555
            ],
            [
              100.4019933,
              -0.4580089
            ],
            [
              100.402006,
              -0.4579914
            ],
            [
              100.4020089,
              -0.4579865
            ],
            [
              100.402044,
              -0.457936
            ],
            [
              100.4020548,
              -0.4579229
            ],
            [
              100.402067,
              -0.4579029
            ],
            [
              100.4020793,
              -0.4578829
            ],
            [
              100.4020989,
              -0.4578466
            ],
            [
              100.4021157,
              -0.4578103
            ],
            [
              100.4022539,
              -0.4575218
            ],
            [
              100.4023025,
              -0.4574662
            ],
            [
              100.4023452,
              -0.4574315
            ],
            [
              100.4023861,
              -0.4573878
            ],
            [
              100.4024607,
              -0.4573399
            ],
            [
              100.4026005,
              -0.4572713
            ],
            [
              100.4026425,
              -0.4572399
            ],
            [
              100.4026618,
              -0.4572149
            ],
            [
              100.4026837,
              -0.4571666
            ],
            [
              100.402688,
              -0.4571513
            ],
            [
              100.402688,
              -0.4571308
            ],
            [
              100.402686,
              -0.457113
            ],
            [
              100.4026397,
              -0.4569743
            ],
            [
              100.402636,
              -0.4569458
            ],
            [
              100.4026531,
              -0.4569197
            ],
            [
              100.4026959,
              -0.4568966
            ],
            [
              100.40282,
              -0.4566505
            ],
            [
              100.40285,
              -0.456534
            ],
            [
              100.4028971,
              -0.4564779
            ],
            [
              100.4030086,
              -0.4563743
            ],
            [
              100.4030386,
              -0.456288
            ],
            [
              100.40309,
              -0.4562017
            ],
            [
              100.40309,
              -0.4561585
            ],
            [
              100.4031028,
              -0.4560722
            ],
            [
              100.4032486,
              -0.4559298
            ],
            [
              100.40348,
              -0.4558305
            ],
            [
              100.4036258,
              -0.4558175
            ],
            [
              100.4037972,
              -0.4557959
            ],
            [
              100.4038015,
              -0.4557268
            ],
            [
              100.40378,
              -0.4556621
            ],
            [
              100.4038358,
              -0.4555499
            ],
            [
              100.404152,
              -0.4553753
            ],
            [
              100.4044202,
              -0.4551554
            ],
            [
              100.4044792,
              -0.4550454
            ],
            [
              100.404498,
              -0.4549005
            ],
            [
              100.4044336,
              -0.4547745
            ],
            [
              100.4044014,
              -0.454694
            ],
            [
              100.4043505,
              -0.4545331
            ],
            [
              100.4044497,
              -0.4543829
            ],
            [
              100.404557,
              -0.4543293
            ],
            [
              100.4046428,
              -0.4542381
            ],
            [
              100.4046831,
              -0.4541147
            ],
            [
              100.4046026,
              -0.4539886
            ],
            [
              100.4046026,
              -0.4538357
            ],
            [
              100.4046804,
              -0.4537016
            ],
            [
              100.4047099,
              -0.4535568
            ],
            [
              100.4048145,
              -0.4534173
            ],
            [
              100.4048681,
              -0.4533261
            ],
            [
              100.4048908,
              -0.4530579
            ],
            [
              100.4047338,
              -0.4530432
            ],
            [
              100.4045007,
              -0.4524316
            ],
            [
              100.4045682,
              -0.4522013
            ],
            [
              100.4045581,
              -0.4519364
            ],
            [
              100.4046067,
              -0.4517844
            ],
            [
              100.4045919,
              -0.451716
            ],
            [
              100.4044808,
              -0.4516127
            ],
            [
              100.4045682,
              -0.4514925
            ],
            [
              100.404539,
              -0.4514411
            ],
            [
              100.4040345,
              -0.4519556
            ],
            [
              100.4039402,
              -0.4518678
            ],
            [
              100.403934,
              -0.4516611
            ],
            [
              100.4038442,
              -0.4513812
            ],
            [
              100.4035417,
              -0.4514673
            ],
            [
              100.4030587,
              -0.4514732
            ],
            [
              100.4027929,
              -0.4514222
            ],
            [
              100.4026313,
              -0.4514558
            ],
            [
              100.4023134,
              -0.4514151
            ],
            [
              100.4022313,
              -0.4513519
            ],
            [
              100.4020726,
              -0.4513394
            ],
            [
              100.4019554,
              -0.4511877
            ],
            [
              100.4019135,
              -0.4510107
            ],
            [
              100.4016381,
              -0.4508409
            ],
            [
              100.4016334,
              -0.4507859
            ],
            [
              100.4012601,
              -0.4506017
            ],
            [
              100.4011722,
              -0.4504629
            ],
            [
              100.4009226,
              -0.4504797
            ],
            [
              100.4007514,
              -0.4504319
            ],
            [
              100.40073,
              -0.4503601
            ],
            [
              100.4004661,
              -0.4502908
            ],
            [
              100.4003023,
              -0.450146
            ],
            [
              100.3995199,
              -0.4501057
            ],
            [
              100.3994495,
              -0.4502072
            ],
            [
              100.3986605,
              -0.4498704
            ],
            [
              100.3982149,
              -0.4502486
            ],
            [
              100.3981091,
              -0.4502893
            ],
            [
              100.3979862,
              -0.4502106
            ],
            [
              100.3978477,
              -0.4499614
            ],
            [
              100.3975494,
              -0.4502228
            ],
            [
              100.3974167,
              -0.4502728
            ],
            [
              100.3973371,
              -0.4503905
            ],
            [
              100.3971838,
              -0.4504929
            ],
            [
              100.3970177,
              -0.4504627
            ],
            [
              100.3966986,
              -0.4502595
            ],
            [
              100.396616,
              -0.4502497
            ],
            [
              100.3964711,
              -0.4503579
            ],
            [
              100.3963281,
              -0.4504647
            ],
            [
              100.3961312,
              -0.4505794
            ],
            [
              100.3958689,
              -0.450615
            ],
            [
              100.3956645,
              -0.45053
            ],
            [
              100.3954799,
              -0.4501491
            ],
            [
              100.3952841,
              -0.4501281
            ],
            [
              100.3951738,
              -0.4501951
            ],
            [
              100.3951586,
              -0.4502487
            ],
            [
              100.3951852,
              -0.4505301
            ],
            [
              100.395387,
              -0.4512135
            ],
            [
              100.3954945,
              -0.4518613
            ],
            [
              100.3955658,
              -0.4522909
            ],
            [
              100.3959652,
              -0.4528201
            ],
            [
              100.3964406,
              -0.4530123
            ],
            [
              100.3966489,
              -0.4531449
            ],
            [
              100.3967842,
              -0.4533028
            ],
            [
              100.3968199,
              -0.4534344
            ],
            [
              100.3968152,
              -0.4535302
            ],
            [
              100.3967367,
              -0.4536714
            ],
            [
              100.3965609,
              -0.4537206
            ],
            [
              100.3963563,
              -0.4537523
            ],
            [
              100.3958704,
              -0.4539324
            ],
            [
              100.3953805,
              -0.4540669
            ],
            [
              100.3952414,
              -0.4541626
            ],
            [
              100.3952795,
              -0.4543655
            ],
            [
              100.3956884,
              -0.4548096
            ],
            [
              100.395803,
              -0.4549029
            ],
            [
              100.3961696,
              -0.4550909
            ],
            [
              100.3966469,
              -0.4552535
            ],
            [
              100.3967382,
              -0.4553263
            ],
            [
              100.3967554,
              -0.4554201
            ],
            [
              100.3967294,
              -0.4557212
            ],
            [
              100.396556,
              -0.4561316
            ],
            [
              100.3962537,
              -0.4564536
            ],
            [
              100.3962271,
              -0.456555
            ],
            [
              100.3962973,
              -0.45701
            ],
            [
              100.3965082,
              -0.4574909
            ],
            [
              100.3966661,
              -0.4576933
            ],
            [
              100.3967567,
              -0.4581111
            ],
            [
              100.3966611,
              -0.4583266
            ],
            [
              100.396052,
              -0.458714
            ],
            [
              100.3958967,
              -0.4588911
            ],
            [
              100.3958703,
              -0.4591486
            ],
            [
              100.3961558,
              -0.4599423
            ],
            [
              100.3961045,
              -0.4600849
            ],
            [
              100.3959631,
              -0.4602297
            ],
            [
              100.395559,
              -0.4602561
            ],
            [
              100.3950307,
              -0.4599464
            ],
            [
              100.3946462,
              -0.4598903
            ],
            [
              100.3940838,
              -0.4597819
            ],
            [
              100.3939776,
              -0.4596575
            ],
            [
              100.3939347,
              -0.4593
            ],
            [
              100.3938206,
              -0.4592167
            ],
            [
              100.3937621,
              -0.459239
            ],
            [
              100.3935338,
              -0.4596591
            ],
            [
              100.3935014,
              -0.4597391
            ],
            [
              100.3933529,
              -0.4598515
            ],
            [
              100.3930798,
              -0.4598631
            ],
            [
              100.3928913,
              -0.4598347
            ],
            [
              100.3927641,
              -0.4597529
            ],
            [
              100.3922615,
              -0.4596326
            ],
            [
              100.3920861,
              -0.4595099
            ],
            [
              100.3919952,
              -0.4592779
            ],
            [
              100.3917984,
              -0.4591721
            ],
            [
              100.3915188,
              -0.4591624
            ],
            [
              100.3913364,
              -0.4591115
            ],
            [
              100.390918,
              -0.458877
            ],
            [
              100.3907708,
              -0.4588403
            ],
            [
              100.3905352,
              -0.4589229
            ],
            [
              100.3902109,
              -0.4591682
            ],
            [
              100.3900193,
              -0.4594919
            ],
            [
              100.3898477,
              -0.4600744
            ],
            [
              100.3897573,
              -0.4602214
            ],
            [
              100.3896355,
              -0.4603411
            ],
            [
              100.3895107,
              -0.460389
            ],
            [
              100.3892986,
              -0.460346
            ],
            [
              100.3887704,
              -0.4598921
            ],
            [
              100.3884943,
              -0.4597773
            ],
            [
              100.3883329,
              -0.4598103
            ],
            [
              100.3881436,
              -0.4599768
            ],
            [
              100.3879137,
              -0.4603234
            ],
            [
              100.3873971,
              -0.4608257
            ],
            [
              100.3871463,
              -0.4608162
            ],
            [
              100.3866577,
              -0.4603855
            ],
            [
              100.386483,
              -0.4603784
            ],
            [
              100.3864105,
              -0.4604382
            ],
            [
              100.3863725,
              -0.4605292
            ],
            [
              100.3863654,
              -0.4608403
            ],
            [
              100.3864107,
              -0.4612447
            ],
            [
              100.3863374,
              -0.4616629
            ],
            [
              100.3862424,
              -0.4618029
            ],
            [
              100.3859536,
              -0.462047
            ],
            [
              100.3858407,
              -0.462077
            ],
            [
              100.3857004,
              -0.4619849
            ],
            [
              100.3856184,
              -0.4616594
            ],
            [
              100.3855144,
              -0.4614177
            ],
            [
              100.3852114,
              -0.4613287
            ],
            [
              100.3847739,
              -0.4614734
            ],
            [
              100.3846024,
              -0.4617039
            ],
            [
              100.3845899,
              -0.4620647
            ],
            [
              100.3845876,
              -0.46217
            ],
            [
              100.384508,
              -0.4624775
            ],
            [
              100.3843511,
              -0.462584
            ],
            [
              100.3842109,
              -0.4625218
            ],
            [
              100.3840694,
              -0.4622993
            ],
            [
              100.3838376,
              -0.462151
            ],
            [
              100.3837627,
              -0.4620301
            ],
            [
              100.3837734,
              -0.4619368
            ],
            [
              100.3841857,
              -0.4614545
            ],
            [
              100.3841319,
              -0.4612134
            ],
            [
              100.3840339,
              -0.4611111
            ],
            [
              100.3838146,
              -0.4611165
            ],
            [
              100.3836484,
              -0.4613206
            ],
            [
              100.3832681,
              -0.4615325
            ],
            [
              100.3831066,
              -0.4618843
            ],
            [
              100.3830176,
              -0.462607
            ],
            [
              100.3829344,
              -0.462741
            ],
            [
              100.3828429,
              -0.4628045
            ],
            [
              100.3826634,
              -0.4627866
            ],
            [
              100.3825374,
              -0.4627124
            ],
            [
              100.3823591,
              -0.462515
            ],
            [
              100.3821179,
              -0.4624508
            ],
            [
              100.3820295,
              -0.462481
            ],
            [
              100.3820181,
              -0.4626447
            ],
            [
              100.3819782,
              -0.4626863
            ],
            [
              100.3817999,
              -0.4628041
            ],
            [
              100.3817229,
              -0.4628041
            ],
            [
              100.3816059,
              -0.4627266
            ],
            [
              100.3815617,
              -0.4626548
            ],
            [
              100.3813591,
              -0.462036
            ],
            [
              100.3812792,
              -0.4620044
            ],
            [
              100.3811708,
              -0.462016
            ],
            [
              100.3808699,
              -0.4622055
            ],
            [
              100.3807758,
              -0.4623348
            ],
            [
              100.3806945,
              -0.4625516
            ],
            [
              100.3807802,
              -0.4633628
            ],
            [
              100.3807246,
              -0.4635165
            ],
            [
              100.3806277,
              -0.4635883
            ],
            [
              100.380505,
              -0.4635826
            ],
            [
              100.3794223,
              -0.4628764
            ],
            [
              100.3793025,
              -0.4627429
            ],
            [
              100.3790545,
              -0.4624603
            ],
            [
              100.3786982,
              -0.4623734
            ],
            [
              100.37811,
              -0.4620912
            ],
            [
              100.3777504,
              -0.4621042
            ],
            [
              100.3775529,
              -0.4621435
            ],
            [
              100.3774887,
              -0.4621866
            ],
            [
              100.3772943,
              -0.4625853
            ],
            [
              100.3767326,
              -0.4640069
            ],
            [
              100.3765957,
              -0.4640787
            ],
            [
              100.376416,
              -0.4641075
            ],
            [
              100.3761578,
              -0.4640314
            ],
            [
              100.375834,
              -0.4638333
            ],
            [
              100.3755076,
              -0.4635446
            ],
            [
              100.3753176,
              -0.4635333
            ],
            [
              100.3749448,
              -0.4636941
            ],
            [
              100.3748655,
              -0.4637652
            ],
            [
              100.3748227,
              -0.464038
            ],
            [
              100.374975,
              -0.4646434
            ],
            [
              100.3749252,
              -0.4650143
            ],
            [
              100.3747019,
              -0.4657993
            ],
            [
              100.3747066,
              -0.4659884
            ],
            [
              100.3748612,
              -0.4663497
            ],
            [
              100.374847,
              -0.4665387
            ],
            [
              100.3747805,
              -0.466711
            ],
            [
              100.3746664,
              -0.4668403
            ],
            [
              100.3744976,
              -0.4668858
            ],
            [
              100.3740484,
              -0.466905
            ],
            [
              100.373157,
              -0.4672929
            ],
            [
              100.3724748,
              -0.467506
            ],
            [
              100.3717903,
              -0.4682265
            ],
            [
              100.3713649,
              -0.4685999
            ],
            [
              100.3710892,
              -0.468899
            ],
            [
              100.3709728,
              -0.4692221
            ],
            [
              100.3704975,
              -0.4697535
            ],
            [
              100.3704452,
              -0.4700766
            ],
            [
              100.3702765,
              -0.4705169
            ],
            [
              100.3697964,
              -0.4708999
            ],
            [
              100.369737,
              -0.4710603
            ],
            [
              100.3696872,
              -0.4715054
            ],
            [
              100.3697253,
              -0.4716992
            ],
            [
              100.3701985,
              -0.4725702
            ],
            [
              100.3702746,
              -0.4728239
            ],
            [
              100.370056,
              -0.4733121
            ],
            [
              100.3694547,
              -0.4738531
            ],
            [
              100.368844,
              -0.474875
            ],
            [
              100.3684304,
              -0.474966
            ],
            [
              100.3681213,
              -0.4749757
            ],
            [
              100.3675175,
              -0.4748873
            ],
            [
              100.3672941,
              -0.4749615
            ],
            [
              100.3670636,
              -0.4752942
            ],
            [
              100.3670208,
              -0.4754354
            ],
            [
              100.367047,
              -0.4756125
            ],
            [
              100.367234,
              -0.4758299
            ],
            [
              100.3670416,
              -0.4761691
            ],
            [
              100.3659899,
              -0.4767747
            ],
            [
              100.3656631,
              -0.4770919
            ],
            [
              100.3655751,
              -0.4772259
            ],
            [
              100.3653356,
              -0.4773509
            ],
            [
              100.3655015,
              -0.4774612
            ],
            [
              100.3655914,
              -0.4775663
            ],
            [
              100.3658798,
              -0.4782312
            ],
            [
              100.3661066,
              -0.4784405
            ],
            [
              100.3664925,
              -0.4784645
            ],
            [
              100.366774,
              -0.4785642
            ],
            [
              100.3668734,
              -0.4786253
            ],
            [
              100.3671739,
              -0.4790123
            ],
            [
              100.3672985,
              -0.4790443
            ],
            [
              100.3675866,
              -0.4790378
            ],
            [
              100.3678576,
              -0.4791
            ],
            [
              100.3692579,
              -0.4799421
            ],
            [
              100.3699475,
              -0.4809374
            ],
            [
              100.3703304,
              -0.4818156
            ],
            [
              100.3712133,
              -0.4821263
            ],
            [
              100.3717188,
              -0.4820922
            ],
            [
              100.3722797,
              -0.4829335
            ],
            [
              100.3723545,
              -0.4829864
            ],
            [
              100.37299,
              -0.483115
            ],
            [
              100.3734777,
              -0.4831435
            ],
            [
              100.373735,
              -0.4833558
            ],
            [
              100.3748528,
              -0.4836273
            ],
            [
              100.3750698,
              -0.4835716
            ],
            [
              100.3751982,
              -0.4834747
            ],
            [
              100.3753187,
              -0.483344
            ],
            [
              100.3755503,
              -0.4828835
            ],
            [
              100.3758186,
              -0.4827293
            ],
            [
              100.3759681,
              -0.4826814
            ],
            [
              100.3763215,
              -0.4826819
            ],
            [
              100.3766591,
              -0.4826343
            ],
            [
              100.3768751,
              -0.4825895
            ],
            [
              100.3770234,
              -0.4825037
            ],
            [
              100.3771003,
              -0.4827616
            ],
            [
              100.3772331,
              -0.4829338
            ],
            [
              100.3774072,
              -0.4830569
            ],
            [
              100.3779518,
              -0.483294
            ],
            [
              100.3782562,
              -0.4834988
            ],
            [
              100.3786662,
              -0.4838794
            ],
            [
              100.3789766,
              -0.4843258
            ],
            [
              100.3790256,
              -0.4844794
            ],
            [
              100.3790602,
              -0.4848184
            ],
            [
              100.3791784,
              -0.485004
            ],
            [
              100.3794417,
              -0.4852124
            ],
            [
              100.3796735,
              -0.4852518
            ],
            [
              100.3807039,
              -0.4851367
            ],
            [
              100.3807895,
              -0.4850938
            ],
            [
              100.3809229,
              -0.48487
            ],
            [
              100.3809203,
              -0.4846538
            ],
            [
              100.3807319,
              -0.4841799
            ],
            [
              100.380681,
              -0.4837727
            ],
            [
              100.380716,
              -0.4835483
            ],
            [
              100.3809608,
              -0.4829899
            ],
            [
              100.380968,
              -0.4825898
            ],
            [
              100.3810397,
              -0.4824028
            ],
            [
              100.381156,
              -0.4822938
            ],
            [
              100.3813261,
              -0.482223
            ],
            [
              100.382281,
              -0.4823017
            ],
            [
              100.3824793,
              -0.4823777
            ],
            [
              100.3827923,
              -0.4826334
            ],
            [
              100.3830102,
              -0.4827318
            ],
            [
              100.3834999,
              -0.4826934
            ],
            [
              100.3836615,
              -0.4827508
            ],
            [
              100.3839231,
              -0.483014
            ],
            [
              100.3842297,
              -0.4831527
            ],
            [
              100.3846077,
              -0.4831598
            ],
            [
              100.385599,
              -0.4834325
            ],
            [
              100.3865903,
              -0.4837697
            ],
            [
              100.3869398,
              -0.4838414
            ],
            [
              100.3880381,
              -0.4839704
            ],
            [
              100.3883205,
              -0.4839154
            ]
          ]
        ]
      },
      "id": "relation/17857412"
    }
  ]
}